Address,Name,Colour,Grey,Green,Zoom,LATITUDE,LONGITUDE
Brisbane City QLD Australia,Brisbane City,yellow,0.3663904958,0.2886125528,State,,
Gold Coast City QLD Australia,Gold Coast City,yellow,0.763419668,0.7660902687,State,,
Gympie Regional QLD Australia,Gympie Regional,yellow,0.2644032603,0.4217045441,State,,
Ipswich City QLD Australia,Ipswich City,yellow,0.5340347635,0.1009478368,State,,
Lockyer Valley Regional QLD Australia,Lockyer Valley Regional,yellow,0.320293337,0.7065290348,State,,
Logan City QLD Australia,Logan City,yellow,0.8903232146,0.5886250612,State,,
Moreton Bay Regional QLD Australia,Moreton Bay Regional,yellow,0.05698633254,0.9227045874,State,,
Noosa Shire QLD Australia,Noosa Shire,yellow,0.6784639952,0.1068451173,State,,
Redland City QLD Australia,Redland City,yellow,0.2020383571,0.7426349896,State,,
Scenic Rim Regional QLD Australia,Scenic Rim Regional,yellow,0.05448191327,0.1690277528,State,,
Somerset Regional QLD Australia,Somerset Regional,yellow,0.7453588719,0.7510046019,State,,
Sunshine Coast Regional QLD Australia,Sunshine Coast Regional,yellow,0.1266652004,0.1543220361,State,,
4000 QLD Australia,4000,yellow,0.0316766135,0.3318448021,Regional,,
4005 QLD Australia,4005,yellow,0.2043783364,0.2938139586,Regional,,
4006 QLD Australia,4006,yellow,0.2109910058,0.7536179849,Regional,,
4007 QLD Australia,4007,yellow,0.2491932039,0.2625110942,Regional,,
4008 QLD Australia,4008,yellow,0.1787045633,0.654175198,Regional,,
4010 QLD Australia,4010,yellow,0.955129132,0.9770923886,Regional,,
4011 QLD Australia,4011,yellow,0.1274266144,0.3395338325,Regional,,
4012 QLD Australia,4012,yellow,0.5514873165,0.5146267423,Regional,,
4013 QLD Australia,4013,yellow,0.3058779597,0.6742056848,Regional,,
4014 QLD Australia,4014,yellow,0.9112158718,0.1365761815,Regional,,
4017 QLD Australia,4017,yellow,0.2199840525,0.182146162,Regional,,
4018 QLD Australia,4018,yellow,0.2677049317,0.7349640109,Regional,,
4019 QLD Australia,4019,yellow,0.3586655288,0.4660178702,Regional,,
4020 QLD Australia,4020,yellow,0.2398633966,0.8498025968,Regional,,
4021 QLD Australia,4021,yellow,0.3261926091,0.1188714953,Regional,,
4022 QLD Australia,4022,yellow,0.1493951613,0.3972152819,Regional,,
4030 QLD Australia,4030,yellow,0.974883464,0.5533236014,Regional,,
4031 QLD Australia,4031,yellow,0.4667303897,0.2642892787,Regional,,
4032 QLD Australia,4032,yellow,0.3750918183,0.205536795,Regional,,
4034 QLD Australia,4034,yellow,0.105857921,0.2245468309,Regional,,
4035 QLD Australia,4035,yellow,0.2338417703,0.3847849376,Regional,,
4036 QLD Australia,4036,yellow,0.2033426307,0.2070247396,Regional,,
4037 QLD Australia,4037,yellow,0.6791329695,0.6341127295,Regional,,
4051 QLD Australia,4051,yellow,0.9631016733,0.8123031619,Regional,,
4053 QLD Australia,4053,yellow,0.163852679,0.8435746046,Regional,,
4054 QLD Australia,4054,yellow,0.126051968,0.110425907,Regional,,
4055 QLD Australia,4055,yellow,0.6113956832,0.5147657467,Regional,,
4059 QLD Australia,4059,yellow,0.6325304042,0.1785071047,Regional,,
4060 QLD Australia,4060,yellow,0.8245068746,0.5138336085,Regional,,
4061 QLD Australia,4061,yellow,0.0854277202,0.5399194013,Regional,,
4064 QLD Australia,4064,yellow,0.6095255579,0.3698851656,Regional,,
4065 QLD Australia,4065,yellow,0.6932656602,0.6523112961,Regional,,
4066 QLD Australia,4066,yellow,0.03012425082,0.6766820532,Regional,,
4067 QLD Australia,4067,yellow,0.4749860839,0.8583025473,Regional,,
4068 QLD Australia,4068,yellow,0.6977994351,0.4377416507,Regional,,
4069 QLD Australia,4069,yellow,0.6420102015,0.7605576813,Regional,,
4070 QLD Australia,4070,yellow,0.03078506473,0.2584393227,Regional,,
4073 QLD Australia,4073,yellow,0.2381644461,0.8120403616,Regional,,
4074 QLD Australia,4074,yellow,0.9687242052,0.1334332878,Regional,,
4075 QLD Australia,4075,yellow,0.3143593884,0.02260116951,Regional,,
4076 QLD Australia,4076,yellow,0.7173480332,0.203710098,Regional,,
4077 QLD Australia,4077,yellow,0.1424464555,0.07465494404,Regional,,
4078 QLD Australia,4078,yellow,0.71557556,0.2647756018,Regional,,
4101 QLD Australia,4101,yellow,0.2314665806,0.8135536256,Regional,,
4102 QLD Australia,4102,yellow,0.1668613983,0.9959923329,Regional,,
4103 QLD Australia,4103,yellow,0.1995442482,0.03236325478,Regional,,
4104 QLD Australia,4104,yellow,0.1572830531,0.8507914762,Regional,,
4105 QLD Australia,4105,yellow,0.8759687048,0.7061047277,Regional,,
4106 QLD Australia,4106,yellow,0.5947733936,0.2984633226,Regional,,
4107 QLD Australia,4107,yellow,0.3605440956,0.3471198305,Regional,,
4108 QLD Australia,4108,yellow,0.9470675108,0.6404575752,Regional,,
4109 QLD Australia,4109,yellow,0.1510784857,0.9510754616,Regional,,
4110 QLD Australia,4110,yellow,0.03034820521,0.937600489,Regional,,
4112 QLD Australia,4112,yellow,0.864921577,0.08222040037,Regional,,
4113 QLD Australia,4113,yellow,0.9062371008,0.6793633522,Regional,,
4114 QLD Australia,4114,yellow,0.5267492488,0.006860953317,Regional,,
4115 QLD Australia,4115,yellow,0.2816938074,0.7022925766,Regional,,
4116 QLD Australia,4116,yellow,0.8723327471,0.4256228432,Regional,,
4117 QLD Australia,4117,yellow,0.6745484523,0.5219387807,Regional,,
4118 QLD Australia,4118,yellow,0.6268189199,0.2779187032,Regional,,
4119 QLD Australia,4119,yellow,0.006807833034,0.6810982187,Regional,,
4120 QLD Australia,4120,yellow,0.2560873482,0.2961417813,Regional,,
4121 QLD Australia,4121,yellow,0.2185388744,0.9369073875,Regional,,
4122 QLD Australia,4122,yellow,0.2610390592,0.4724583908,Regional,,
4123 QLD Australia,4123,yellow,0.9570477036,0.1103072318,Regional,,
4124 QLD Australia,4124,yellow,0.6872104701,0.3676727232,Regional,,
4125 QLD Australia,4125,yellow,0.3892360877,0.2036204482,Regional,,
4127 QLD Australia,4127,yellow,0.1558956382,0.2394896514,Regional,,
4128 QLD Australia,4128,yellow,0.7094315427,0.9554618896,Regional,,
4129 QLD Australia,4129,yellow,0.3879987164,0.2966024616,Regional,,
4130 QLD Australia,4130,yellow,0.9706515245,0.346928816,Regional,,
4131 QLD Australia,4131,yellow,0.8881273614,0.9953840306,Regional,,
4132 QLD Australia,4132,yellow,0.4541755395,0.6989935258,Regional,,
4133 QLD Australia,4133,yellow,0.1839774632,0.1875616904,Regional,,
4151 QLD Australia,4151,yellow,0.9104637981,0.9082487251,Regional,,
4152 QLD Australia,4152,yellow,0.7748480971,0.1001073002,Regional,,
4154 QLD Australia,4154,yellow,0.6538747711,0.05663130802,Regional,,
4155 QLD Australia,4155,yellow,0.7331649823,0.5826760772,Regional,,
4157 QLD Australia,4157,yellow,0.6742980764,0.1004775717,Regional,,
4158 QLD Australia,4158,yellow,0.7241795859,0.7932784998,Regional,,
4159 QLD Australia,4159,yellow,0.6407330815,0.5952392248,Regional,,
4160 QLD Australia,4160,yellow,0.06155024371,0.5094722398,Regional,,
4161 QLD Australia,4161,yellow,0.915008117,0.4444160068,Regional,,
4163 QLD Australia,4163,yellow,0.3003005809,0.5502117013,Regional,,
4164 QLD Australia,4164,yellow,0.4682485887,0.4747374802,Regional,,
4165 QLD Australia,4165,yellow,0.7836899378,0.3725946771,Regional,,
4169 QLD Australia,4169,yellow,0.8983668997,0.2343528117,Regional,,
4170 QLD Australia,4170,yellow,0.506818745,0.7680973133,Regional,,
4171 QLD Australia,4171,yellow,0.5837610491,0.7867645826,Regional,,
4172 QLD Australia,4172,yellow,0.637331914,0.7244900213,Regional,,
4173 QLD Australia,4173,yellow,0.376572264,0.4304683336,Regional,,
4174 QLD Australia,4174,yellow,0.04237164508,0.9424783502,Regional,,
4178 QLD Australia,4178,yellow,0.1382672861,0.2127366293,Regional,,
4179 QLD Australia,4179,yellow,0.2109702248,0.2002148017,Regional,,
4183 QLD Australia,4183,yellow,0.8509735838,0.8257133458,Regional,,
4184 QLD Australia,4184,yellow,0.03236287776,0.7441786702,Regional,,
4205 QLD Australia,4205,yellow,0.9999109058,0.9739594542,Regional,,
4207 QLD Australia,4207,yellow,0.9932389057,0.1515230216,Regional,,
4208 QLD Australia,4208,yellow,0.4154261181,0.5848190571,Regional,,
4209 QLD Australia,4209,yellow,0.4907397649,0.6568389998,Regional,,
4210 QLD Australia,4210,yellow,0.7875525127,0.2964505794,Regional,,
4211 QLD Australia,4211,yellow,0.1230501926,0.7653897462,Regional,,
4212 QLD Australia,4212,yellow,0.6216788094,0.5030946524,Regional,,
4213 QLD Australia,4213,yellow,0.01571889707,0.08521717683,Regional,,
4214 QLD Australia,4214,yellow,0.4908269537,0.8631266914,Regional,,
4215 QLD Australia,4215,yellow,0.4693837203,0.7021270238,Regional,,
4216 QLD Australia,4216,yellow,0.05820229464,0.5826689303,Regional,,
4217 QLD Australia,4217,yellow,0.4733653764,0.09440868946,Regional,,
4218 QLD Australia,4218,yellow,0.4930933506,0.9760131715,Regional,,
4220 QLD Australia,4220,yellow,0.919632798,0.5382481973,Regional,,
4221 QLD Australia,4221,yellow,0.5838627598,0.77383183,Regional,,
4223 QLD Australia,4223,yellow,0.6729326843,0.1901440556,Regional,,
4224 QLD Australia,4224,yellow,0.06368469345,0.4011318418,Regional,,
4225 QLD Australia,4225,yellow,0.005414088407,0.5492372945,Regional,,
4226 QLD Australia,4226,yellow,0.4078486027,0.9791323181,Regional,,
4227 QLD Australia,4227,yellow,0.2878688397,0.8003189192,Regional,,
4228 QLD Australia,4228,yellow,0.6358628073,0.1187231507,Regional,,
4270 QLD Australia,4270,yellow,0.2447468848,0.617379024,Regional,,
4272 QLD Australia,4272,yellow,0.457255529,0.6678890154,Regional,,
4275 QLD Australia,4275,yellow,0.5263953183,0.3679134884,Regional,,
4280 QLD Australia,4280,yellow,0.4368853393,0.4514590551,Regional,,
4285 QLD Australia,4285,yellow,0.8295083337,0.2998065045,Regional,,
4287 QLD Australia,4287,yellow,0.7237366803,0.6987695344,Regional,,
4300 QLD Australia,4300,yellow,0.3055650471,0.2154572314,Regional,,
4301 QLD Australia,4301,yellow,0.2865905403,0.2933030709,Regional,,
4303 QLD Australia,4303,yellow,0.5370706711,0.3419222478,Regional,,
4304 QLD Australia,4304,yellow,0.5306239639,0.1980949619,Regional,,
4305 QLD Australia,4305,yellow,0.9327056548,0.5911953118,Regional,,
4306 QLD Australia,4306,yellow,0.6309066744,0.4116731887,Regional,,
4307 QLD Australia,4307,yellow,0.9950269623,0.1713489649,Regional,,
4309 QLD Australia,4309,yellow,0.9119268162,0.5915257008,Regional,,
4310 QLD Australia,4310,yellow,0.5481540439,0.55711291,Regional,,
4311 QLD Australia,4311,yellow,0.1266917634,0.04556468536,Regional,,
4312 QLD Australia,4312,yellow,0.6779114351,0.1575665106,Regional,,
4313 QLD Australia,4313,yellow,0.5446146235,0.1367848903,Regional,,
4314 QLD Australia,4314,yellow,0.8331891014,0.6289737581,Regional,,
4340 QLD Australia,4340,yellow,0.3443101948,0.2722882839,Regional,,
4341 QLD Australia,4341,yellow,0.264820605,0.6723910239,Regional,,
4342 QLD Australia,4342,yellow,0.9255891585,0.5550756576,Regional,,
4343 QLD Australia,4343,yellow,0.7370679353,0.3285290106,Regional,,
4344 QLD Australia,4344,yellow,0.4043525034,0.8654805035,Regional,,
4347 QLD Australia,4347,yellow,0.236841604,0.2364525571,Regional,,
4352 QLD Australia,4352,yellow,0.734753098,0.608848559,Regional,,
4500 QLD Australia,4500,yellow,0.2270727423,0.05805274125,Regional,,
4501 QLD Australia,4501,yellow,0.6149043406,0.6170421683,Regional,,
4502 QLD Australia,4502,yellow,0.8431939626,0.2868277187,Regional,,
4503 QLD Australia,4503,yellow,0.5755810946,0.7235752186,Regional,,
4504 QLD Australia,4504,yellow,0.3154740159,0.9573605541,Regional,,
4505 QLD Australia,4505,yellow,0.4257710535,0.3456614171,Regional,,
4506 QLD Australia,4506,yellow,0.8149908628,0.3509830517,Regional,,
4507 QLD Australia,4507,yellow,0.5345994733,0.001184681307,Regional,,
4508 QLD Australia,4508,yellow,0.8673165237,0.6534670996,Regional,,
4509 QLD Australia,4509,yellow,0.2660641197,0.06457739793,Regional,,
4510 QLD Australia,4510,yellow,0.4555263565,0.6621858709,Regional,,
4511 QLD Australia,4511,yellow,0.2511808994,0.2228185962,Regional,,
4512 QLD Australia,4512,yellow,0.9429343037,0.06303914067,Regional,,
4514 QLD Australia,4514,yellow,0.08155559818,0.03124090897,Regional,,
4515 QLD Australia,4515,yellow,0.9859947539,0.5015386333,Regional,,
4516 QLD Australia,4516,yellow,0.4390601718,0.688561429,Regional,,
4517 QLD Australia,4517,yellow,0.6791008947,0.6578003087,Regional,,
4518 QLD Australia,4518,yellow,0.6382069535,0.6515283995,Regional,,
4519 QLD Australia,4519,yellow,0.2755482225,0.8017930502,Regional,,
4520 QLD Australia,4520,yellow,0.05097761339,0.9918021405,Regional,,
4521 QLD Australia,4521,yellow,0.9627211174,0.8530436218,Regional,,
4550 QLD Australia,4550,yellow,0.9082783034,0.4611652275,Regional,,
4551 QLD Australia,4551,yellow,0.3345993132,0.7981002599,Regional,,
4552 QLD Australia,4552,yellow,0.527855893,0.07588334145,Regional,,
4553 QLD Australia,4553,yellow,0.4009705381,0.4294083297,Regional,,
4555 QLD Australia,4555,yellow,0.1054247214,0.6570148793,Regional,,
4556 QLD Australia,4556,yellow,0.2002740025,0.7608532048,Regional,,
4557 QLD Australia,4557,yellow,0.8239171599,0.1706943247,Regional,,
4558 QLD Australia,4558,yellow,0.341789045,0.1480770748,Regional,,
4559 QLD Australia,4559,yellow,0.1851853993,0.9008899647,Regional,,
4560 QLD Australia,4560,yellow,0.09292215148,0.09577776074,Regional,,
4561 QLD Australia,4561,yellow,0.1491459457,0.4568643657,Regional,,
4562 QLD Australia,4562,yellow,0.9486345113,0.9695497195,Regional,,
4563 QLD Australia,4563,yellow,0.8772721602,0.3685415362,Regional,,
4564 QLD Australia,4564,yellow,0.9725912468,0.3464282793,Regional,,
4565 QLD Australia,4565,yellow,0.6205047968,0.555211998,Regional,,
4566 QLD Australia,4566,yellow,0.5834031175,0.5361501325,Regional,,
4567 QLD Australia,4567,yellow,0.566063698,0.2664828381,Regional,,
4568 QLD Australia,4568,yellow,0.8743696619,0.884244649,Regional,,
4570 QLD Australia,4570,yellow,0.2633086501,0.1891072882,Regional,,
4571 QLD Australia,4571,yellow,0.001422418228,0.8284220553,Regional,,
4572 QLD Australia,4572,yellow,0.5857113597,0.2893038614,Regional,,
4573 QLD Australia,4573,yellow,0.6515059802,0.3213261267,Regional,,
4574 QLD Australia,4574,yellow,0.05416376164,0.6174027216,Regional,,
4575 QLD Australia,4575,yellow,0.1124232267,0.155570452,Regional,,
4580 QLD Australia,4580,yellow,0.7462632536,0.7401326982,Regional,,
4581 QLD Australia,4581,yellow,0.005210404464,0.931079187,Regional,,
Queensland Australia,Queensland,yellow,0.946878295,0.6855892519,Country,,
BAYSIDE NSW Australia,BAYSIDE,yellow,0.3113970662,0.8901045164,State,,
BURWOOD NSW Australia,BURWOOD,yellow,0.1572125974,0.2869003628,State,,
CANADA BAY NSW Australia,CANADA BAY,yellow,0.9300443679,0.6118947365,State,,
CANTERBURY-BANKSTOWN NSW Australia,CANTERBURY-BANKSTOWN,yellow,0.07275005877,0.592833656,State,,
CENTRAL COAST NSW Australia,CENTRAL COAST,yellow,0.6332447917,0.6068384638,State,,
CESSNOCK NSW Australia,CESSNOCK,yellow,0.6648764267,0.577064813,State,,
CUMBERLAND NSW Australia,CUMBERLAND,yellow,0.9538050191,0.1790116965,State,,
GEORGES RIVER NSW Australia,GEORGES RIVER,yellow,0.5566380019,0.7225536205,State,,
HORNSBY NSW Australia,HORNSBY,yellow,0.2351232124,0.5364067355,State,,
HUNTERS HILL NSW Australia,HUNTERS HILL,yellow,0.4700115075,0.1834509945,State,,
INNER WEST NSW Australia,INNER WEST,yellow,0.8008104522,0.01972265084,State,,
KU-RING-GAI NSW Australia,KU-RING-GAI,yellow,0.6402237073,0.1341864554,State,,
LAKE MACQUARIE NSW Australia,LAKE MACQUARIE,yellow,0.9603956397,0.4934493347,State,,
LANE COVE NSW Australia,LANE COVE,yellow,0.742072928,0.6038624689,State,,
MAITLAND NSW Australia,MAITLAND,yellow,0.3574920623,0.3970781363,State,,
MOSMAN NSW Australia,MOSMAN,yellow,0.05386902411,0.5638081218,State,,
MUSWELLBROOK NSW Australia,MUSWELLBROOK,yellow,0.9880926469,0.6896240167,State,,
NEWCASTLE NSW Australia,NEWCASTLE,yellow,0.2965223217,0.2871217578,State,,
NORTH SYDNEY NSW Australia,NORTH SYDNEY,yellow,0.06920038232,0.9372456688,State,,
NORTHERN BEACHES NSW Australia,NORTHERN BEACHES,yellow,0.8284761308,0.03125844671,State,,
PARRAMATTA NSW Australia,PARRAMATTA,yellow,0.8217893304,0.0916013004,State,,
PORT STEPHENS NSW Australia,PORT STEPHENS,yellow,0.6515914002,0.9081946541,State,,
RANDWICK NSW Australia,RANDWICK,yellow,0.147130357,0.08567988097,State,,
RYDE NSW Australia,RYDE,yellow,0.9887563258,0.4014291004,State,,
SINGLETON NSW Australia,SINGLETON,yellow,0.1218054402,0.2341986726,State,,
STRATHFIELD NSW Australia,STRATHFIELD,yellow,0.03090748771,0.365055657,State,,
SUTHERLAND NSW Australia,SUTHERLAND,yellow,0.2142727446,0.5672598274,State,,
SYDNEY NSW Australia,SYDNEY,yellow,0.819313726,0.4973701725,State,,
UPPER HUNTER NSW Australia,UPPER HUNTER,yellow,0.1346343801,0.6488101373,State,,
WAVERLEY NSW Australia,WAVERLEY,yellow,0.1283870532,0.2199501326,State,,
WILLOUGHBY NSW Australia,WILLOUGHBY,yellow,0.2692973865,0.1355498704,State,,
WOOLLAHRA NSW Australia,WOOLLAHRA,yellow,0.6449502382,0.6128721974,State,,
22 Ray Street Sunshine Beach QLD 4567,Ray Street,yellow,0.723507541,0.3172875804,Local,,
7000 TAS Australia,7000,yellow,0.7018035103,0.5577098404,State,,
7004 TAS Australia,7004,yellow,0.09727510306,0.1463404469,State,,
7005 TAS Australia,7005,yellow,0.3165978251,0.5221790992,State,,
7007 TAS Australia,7007,yellow,0.2540000945,0.8114298701,State,,
7008 TAS Australia,7008,yellow,0.3114356741,0.4837777807,State,,
7054 TAS Australia,7054,yellow,0.5061440512,0.740624797,State,,
Orient Drive 16 Sunrise Beach Queensland Australia,RORY AND JANNEKE WILLIAMSON,yellow,0.8442846191,0.3344891697,Local,,
Kareela Avenue 14 Noosa Heads Queensland Australia,Paul Turner NOOSA,yellow,0.8385845546,0.02823618486,Local,,
Stevens Street 22 Sunshine Beach Queensland Australia,SKYE MCDARMONT,yellow,0.7702029749,0.734598978,Local,,
Tingira Crescent 39 Sunrise Beach Queensland Australia,COLIN KENNEDY TINGIRA,yellow,0.01782699762,0.672167796,Local,,
Mariners Place 12 Sunrise Beach Queensland Australia,JASON AND KELLY FLOYD,yellow,0.8685408378,0.7908995555,Local,,
Sobraon Street 28 Sunrise Beach Queensland Australia,KEN AND WENDY HEINZE,yellow,0.6940383755,0.6810798118,Local,,
Weyba Street 41 Sunshine Beach Queensland Australia,YANA BROWN,yellow,0.1216937796,0.1230330302,Local,,
196/82 BOUNDARY STREET BRISBANE CITY QLD Australia,,yellow,0.8929057232,0.06482375332,Local,-27.46250626,153.033792
92A RIDGEWAY AVENUE SOUTHPORT QLD Australia,,yellow,0.9116509861,0.8514509879,Local,-27.98669119,153.4030186
3006 SURFERS PARADISE BOULEVARD SURFERS PARADISE QLD Australia,,yellow,0.6156117668,0.9569584953,Local,-28.00823776,153.4290197
3006 GOLD COAST HIGHWAY SURFERS PARADISE QLD Australia,,yellow,0.2124929432,0.7914449872,Local,-28.00823776,153.4290197
321 GRAY STREET ROADVALE QLD Australia,,yellow,0.6177588998,0.6347585529,Local,-27.91765433,152.6845906
22 RIVERDOWNS CRESCENT HELENSVALE QLD Australia,,yellow,0.6001585335,0.6699289252,Local,-27.88826688,153.3221413
20 RIVERDOWNS CRESCENT HELENSVALE QLD Australia,,yellow,0.8218620019,0.9999778254,Local,-27.8886074,153.3218856
18 RIVERDOWNS CRESCENT HELENSVALE QLD Australia,,yellow,0.1752150839,0.4951307075,Local,-27.88900494,153.3217251
16 RIVERDOWNS CRESCENT HELENSVALE QLD Australia,,yellow,0.233069396,0.1627330805,Local,-27.88936371,153.321875
14 RIVERDOWNS CRESCENT HELENSVALE QLD Australia,,yellow,0.3000291369,0.3040771623,Local,-27.88968687,153.3220788
12 RIVERDOWNS CRESCENT HELENSVALE QLD Australia,,yellow,0.6740605118,0.1312235757,Local,-27.88994605,153.322435
3 GWYDIR COURT HELENSVALE QLD Australia,,yellow,0.3886495167,0.3887328921,Local,-27.89028637,153.3222647
40/460 ANN STREET BRISBANE CITY QLD Australia,,yellow,0.1326077004,0.2516038865,Local,-27.46244843,153.030622
NSW Australia,NSW,yellow,0.8558788761,0.7588802645,Country,,
VIC Australia,VIC,yellow,0.02407897438,0.9651797834,Country,,
QLD Australia,QLD,yellow,0.7314232727,0.03830407048,Country,,
WA Australia,WA,yellow,0.2111972357,0.654197365,Country,,
SA Australia,SA,yellow,0.3756738185,0.2105713335,Country,,
TAS Australia,TAS,yellow,0.1946606526,0.8328481031,Country,,
NT Australia,NT,yellow,0.1955886077,0.6316729557,Country,,
Australia,Australia,yellow,0.3697859197,0.5845219822,Country,,
957 Wuruma Dam Road Abercorn QLD 4627Australia,Abercorn State School,yellow,0.252306745,0.5090208303,Local,151.127031,-25.135955
5 Venables Road Abergowrie QLD 4850Australia,Abergowrie State School,yellow,0.8459832299,0.1717253977,Local,145.88351,-18.474697
Nyngam Street Acacia Ridge QLD 4110Australia,Acacia Ridge State School,yellow,0.1765408245,0.6097700464,Local,153.016074,-27.579554
1 Donohue Drive Agnes Water QLD 4677Australia,Agnes Water State School,yellow,0.6034062428,0.6528167102,Local,151.91056,-24.213972
Old Clare Road Airville QLD 4807Australia,Airville State School,yellow,0.8634578541,0.3061631643,Local,147.347629,-19.65519
67-85 Wotton Street Aitkenvale QLD 4814Australia,Aitkenvale State School,yellow,0.2324194043,0.7927952694,Local,146.763058,-19.296785
Albany Forest Drive Albany Creek QLD 4035Australia,Albany Creek State High School,yellow,0.005673117509,0.1915691688,Local,152.968606,-27.357634
696 Albany Creek Road Albany Creek QLD 4035Australia,Albany Creek State School,yellow,0.7603012595,0.8935666495,Local,152.970666,-27.34586
Keong Road Albany Creek QLD 4035Australia,Albany Hills State School,yellow,0.6411451641,0.4081171671,Local,152.97278,-27.36034
210-220 Albert Street Maryborough QLD 4650Australia,Albert State School,yellow,0.6034015393,0.1846901289,Local,152.703888,-25.546785
Boys Avenue Maryborough QLD 4650Australia,Aldridge State High School,yellow,0.5421743467,0.5153008162,Local,152.688545,-25.516557
Lot 1 Cape Tribulation Road Diwan QLD 4873Australia,Alexandra Bay State School,yellow,0.08550432942,0.4483504246,Local,145.42225,-16.213862
Windemere Road Alexandra Hills QLD 4161Australia,Alexandra Hills State High School,yellow,0.4523713185,0.1986564381,Local,153.215428,-27.523768
12 Princeton Avenue Alexandra Hills QLD 4161Australia,Alexandra Hills State School,yellow,0.7522964047,0.265179886,Local,153.221279,-27.518141
19 Endiandra Street Algester QLD 4115Australia,Algester State School,yellow,0.8903762022,0.3685938639,Local,153.031915,-27.615675
Upper Dawson Road Allenstown QLD 4700Australia,Allenstown State School,yellow,0.4433973585,0.1619675874,Local,150.502671,-23.391906
50 Grasstree Road Alligator Creek QLD 4740Australia,Alligator Creek State School,yellow,0.4822726563,0.231686329,Local,149.211559,-21.329398
21 Warwick Street Allora QLD 4362Australia,Allora P-10 State School,yellow,0.9671966994,0.2401434802,Local,151.986183,-28.036194
4334 Goodwood Road Alloway QLD 4670Australia,Alloway State School,yellow,0.559055929,0.7302015869,Local,152.378285,-24.952136
Nielsen Street Aloomba QLD 4871Australia,Aloomba State School,yellow,0.1387824933,0.4430267912,Local,145.831978,-17.10984
Milton Street Alpha QLD 4724Australia,Alpha State School,yellow,0.06117712596,0.3403832937,Local,146.642263,-23.650791
2 Elizabeth Street Amamoor QLD 4570Australia,Amamoor State School,yellow,0.8875349787,0.4801797725,Local,152.67315,-26.346411
37 Deebing Creek Road Yamanto QLD 4305Australia,Amberley District State School,yellow,0.6291008712,0.5959685651,Local,152.750141,-27.65749
39 Gentle Annie Road Ambrose QLD 4695Australia,Ambrose State School,yellow,0.1184975267,0.5688098311,Local,150.921893,-23.786492
1337 Amiens Road Amiens QLD 4380Australia,Amiens State School,yellow,0.1269769408,0.8606532874,Local,151.812654,-28.594568
Cook Street The Gemfields QLD 4702Australia,Anakie State School,yellow,0.02042693943,0.5750135497,Local,147.745856,-23.554011
Fernleigh Avenue Andergrove QLD 4740Australia,Andergrove State School,yellow,0.7459409525,0.811694544,Local,149.188241,-21.086247
Cnr Oleander Street & Yolanda Drive Annandale QLD 4814Australia,Annandale State School,yellow,0.5534633325,0.8417590451,Local,146.778441,-19.315285
25576 New England Highway Applethorpe QLD 4378Australia,Applethorpe State School,yellow,0.2642227121,0.8165649947,Local,151.955354,-28.612562
69 Porter Street Aramac QLD 4726Australia,Aramac State School,yellow,0.9206496793,0.9758534517,Local,145.242684,-22.974429
41 Elizabeth Street Aratula QLD 4309Australia,Aratula State School,yellow,0.003155778143,0.8855512772,Local,152.544186,-27.980839
4831 Arcadia Valley Road Arcadia Valley QLD 4454Australia,Arcadia Valley State School,yellow,0.9300696699,0.1327446329,Local,148.820874,-25.255099
Cnr Napper Road & Arundel Drive Arundel QLD 4214Australia,Arundel State School,yellow,0.5113447567,0.1654147121,Local,153.36587,-27.945078
Pringle Street Ascot QLD 4007Australia,Ascot State School,yellow,0.2881616209,0.8858576697,Local,153.055952,-27.432671
31 Glory Street Ashgrove QLD 4060Australia,Ashgrove State School,yellow,0.03366194523,0.002709276569,Local,152.976542,-27.448125
Currumburra Road Ashmore QLD 4214Australia,Ashmore State School,yellow,0.02980573053,0.5962678341,Local,153.381323,-27.989147
35 Reinke Road Ashwell QLD 4340Australia,Ashwell State School,yellow,0.3774081728,0.4500785971,Local,152.556566,-27.629413
31 Helena Street Aspley QLD 4034Australia,Aspley East State School,yellow,0.4870701572,0.3088638765,Local,153.023968,-27.362313
751 Zillmere Road Aspley QLD 4034Australia,Aspley Special School,yellow,0.8748873888,0.714829802,Local,153.021118,-27.356718
651 Zillmere Road Aspley QLD 4034Australia,Aspley State High School,yellow,0.4260414343,0.5927566042,Local,153.024213,-27.357169
Maundrell Terrace Aspley QLD 4034Australia,Aspley State School,yellow,0.7598080145,0.4563089086,Local,153.014592,-27.369898
Maunds Road Atherton QLD 4883Australia,Atherton State High School,yellow,0.2399531664,0.4165394975,Local,145.486092,-17.260064
Armstrong Street Atherton QLD 4883Australia,Atherton State School,yellow,0.4243388042,0.02707921855,Local,145.481622,-17.261668
Cavanagh Street Augathella QLD 4477Australia,Augathella State School,yellow,0.3768659278,0.1031096495,Local,146.583358,-25.79714
60-100 Brittains Road Augustine Heights QLD 4300Australia,Augusta State School,yellow,0.704310407,0.7226301957,Local,152.876523,-27.655808
Wuungkam Street Aurukun QLD 4892Australia,Aurukun State School,yellow,0.5014410833,0.6441087009,Local,141.729393,-13.353032
Widdop Street Hendra QLD 4011Australia,Aviation High,yellow,0.5519682368,0.8553213736,Local,153.062996,-27.414323
Twyford Street Avoca QLD 4670Australia,Avoca State School,yellow,0.2428894337,0.1706453608,Local,152.313454,-24.883639
371 Avondale Road Avondale QLD 4670Australia,Avondale State School,yellow,0.1988462672,0.0004920391203,Local,152.160664,-24.735813
Cnr Edwards & Wickham Streets Ayr QLD 4807Australia,Ayr State High School,yellow,0.7649651641,0.1748122681,Local,147.409618,-19.577045
141 Graham Street Ayr QLD 4807Australia,Ayr State School,yellow,0.1857453474,0.07614444262,Local,147.400553,-19.579099
Boulders Road Babinda QLD 4861Australia,Babinda State School,yellow,0.8089147039,0.1556117249,Local,145.912648,-17.345975
874 Clifton-Pittsworth Highway Back Plains QLD 4361Australia,Back Plains State School,yellow,0.4424637028,0.0123341737,Local,151.784224,-27.892622
Toonda Street Bajool QLD 4699Australia,Bajool State School,yellow,0.3065786227,0.7232565973,Local,150.646749,-23.6523
418 Mulgrave Road Mooroobool QLD 4870Australia,Balaclava State School,yellow,0.9368415127,0.6423786351,Local,145.744947,-16.936708
2156 Gympie Road Bald Hills QLD 4036Australia,Bald Hills State School,yellow,0.1383844705,0.8374135062,Local,153.006826,-27.320095
Bent's Road Ballandean QLD 4382Australia,Ballandean State School,yellow,0.2808452562,0.1052206194,Local,151.841491,-28.79861
Cnr Thynne & Lytton Roads Balmoral QLD 4171Australia,Balmoral State High School,yellow,0.1197568637,0.7778082151,Local,153.072786,-27.45601
32 Bramston Street Banana QLD 4702Australia,Banana State School,yellow,0.08083188915,0.4867607094,Local,150.129998,-24.469999
Sunderland Road Banksia Beach QLD 4507Australia,Banksia Beach State School,yellow,0.8395108563,0.649713084,Local,153.148339,-27.046341
1 Power Street Baralaba QLD 4702Australia,Baralaba State School,yellow,0.7497965201,0.6476988215,Local,149.809756,-24.181073
Gidyea Street Barcaldine QLD 4725Australia,Barcaldine Prep-12 State School,yellow,0.5450828283,0.7121898355,Local,145.294011,-23.558838
330 Simpsons Road Bardon QLD 4065Australia,Bardon State School,yellow,0.9613219335,0.1864017847,Local,152.972139,-27.459916
591 Bargara Road Mon Repos QLD 4670Australia,Bargara State School,yellow,0.8719932813,0.5835608123,Local,152.43876,-24.822161
30 Baringa Drive Caloundra South QLD 4551Australia,Baringa State Primary School,yellow,0.9181118813,0.2675402093,Local,153.081063,-26.807568
3-17 Bougainville Street Soldiers Hill QLD 4825Australia,Barkly Highway State School,yellow,0.8487238634,0.4264344214,Local,139.489312,-20.70767
38 Lofter Street Tennyson QLD 4105Australia,Barrett Adolescent Centre Special School,yellow,0.1324042944,0.6107147198,Local,153.003241,-27.527284
29 Price Road Bartle Frere QLD 4861Australia,Bartle Frere State School,yellow,0.2732309683,0.543711803,Local,145.885217,-17.444645
11559 Fitzroy Development Road Bauhinia QLD 4718Australia,Bauhinia State School,yellow,0.471224434,0.2780182281,Local,149.296066,-24.566682
44 Forestry Road Bauple QLD 4650Australia,Bauple State School,yellow,0.2536064963,0.4273532807,Local,152.622887,-25.812184
77 Ziegenfusz Road Thornlands QLD 4164Australia,Bay View State School,yellow,0.8063527523,0.02545698825,Local,153.261816,-27.563749
James Road Beachmere QLD 4510Australia,Beachmere State School,yellow,0.4329363076,0.1932845884,Local,153.04769,-27.131538
Nadina Street Beaconsfield QLD 4740Australia,Beaconsfield State School,yellow,0.7270452751,0.8903804093,Local,149.171331,-21.093329
271-297 Brisbane Street Beaudesert QLD 4285Australia,Beaudesert State High School,yellow,0.177194965,0.5086747498,Local,152.997001,-27.970749
17 Tina Street Beaudesert QLD 4285Australia,Beaudesert State School,yellow,0.4229590866,0.3755457128,Local,153.002363,-27.988875
Timor Street Bedourie QLD 4829Australia,Bedourie State School,yellow,0.7950553708,0.5719186606,Local,139.471353,-24.360325
1922 Beechmont Road Beechmont QLD 4211Australia,Beechmont State School,yellow,0.02539948354,0.0601703025,Local,153.185673,-28.12486
52-74 Mount Warren Boulevard Mount Warren Park QLD 4207Australia,Beenleigh Special School,yellow,0.6797802238,0.4410093992,Local,153.20115,-27.724668
Alamein Street Beenleigh QLD 4207Australia,Beenleigh State High School,yellow,0.406919197,0.7193009324,Local,153.204418,-27.715327
22 James Street Beenleigh QLD 4207Australia,Beenleigh State School,yellow,0.1159018116,0.02258650134,Local,153.199788,-27.717928
8 Beerburrum Road Beerburrum QLD 4517Australia,Beerburrum State School,yellow,0.682464227,0.06505603587,Local,152.957276,-26.956986
35 Roberts Road Beerwah QLD 4519Australia,Beerwah State High School,yellow,0.3771853541,0.3317981576,Local,152.954038,-26.862792
2788 Old Gympie Road Beerwah QLD 4519Australia,Beerwah State School,yellow,0.4296750043,0.0367731758,Local,152.939936,-26.855415
St George-Mitchell Road Begonia QLD 4487Australia,Begonia State School,yellow,0.6574103766,0.2122168981,Local,148.324991,-27.491787
43 Potts Street Belgian Gardens QLD 4810Australia,Belgian Gardens State School,yellow,0.9516156504,0.161821157,Local,146.792881,-19.250797
90 Dennis Street Bell QLD 4408Australia,Bell State School,yellow,0.3217936911,0.5653996983,Local,151.452992,-26.939739
2 Alesana Drive Bellbird Park QLD 4300Australia,Bellbird Park State Secondary College,yellow,0.7421179307,0.8848119119,Local,152.883787,-27.640517
Harvey Creek Road Bellenden Ker QLD 4871Australia,Bellenden Ker State School,yellow,0.9444162999,0.2812853755,Local,145.925126,-17.266693
Sapium Road Ashmore QLD 4214Australia,Bellevue Park State School,yellow,0.6820908306,0.9201746475,Local,153.396254,-27.995615
176 Dobson Lane Bellmere QLD 4510Australia,Bellmere State School,yellow,0.6058060971,0.4834731358,Local,152.915833,-27.093611
Old Cleveland Road Carindale QLD 4152Australia,Belmont State School,yellow,0.3945606412,0.6215309312,Local,153.115625,-27.503012
17 O'Connor Road Benaraby QLD 4680Australia,Benaraby State School,yellow,0.9648668283,0.4075282778,Local,151.323819,-24.003765
Scott Street Benarkin QLD 4306Australia,Benarkin State School,yellow,0.6168706399,0.08103574061,Local,152.141799,-26.884469
Mediterranean Drive Benowa QLD 4217Australia,Benowa State High School,yellow,0.6906332641,0.2158123676,Local,153.388506,-28.004753
314-358 Benowa Road Benowa QLD 4217Australia,Benowa State School,yellow,0.4103829707,0.1728268481,Local,153.391147,-28.007731
McLaughlin Road Bentley Park QLD 4869Australia,Bentley Park College,yellow,0.9418710988,0.3189365029,Local,145.740081,-17.009376
165 Bardon Road Berrinba QLD 4117Australia,Berrinba East State School,yellow,0.5211903619,0.0369502794,Local,153.097758,-27.652127
Berserker Street Berserker QLD 4701Australia,Berserker Street State School,yellow,0.7163297402,0.3217884738,Local,150.52991,-23.365464
Petersen Street Biboohra QLD 4880Australia,Biboohra State School,yellow,0.2297584456,0.5636073355,Local,145.41914,-16.915896
2425 Cecil Plains Road Biddeston QLD 4401Australia,Biddeston State School,yellow,0.05649472569,0.5411854305,Local,151.697336,-27.55414
Frederick Street Biggenden QLD 4621Australia,Biggenden State School,yellow,0.5830838505,0.2822946097,Local,152.047434,-25.510709
Cnr Morala Avenue & Coombabah Road Biggera Waters QLD 4216Australia,Biggera Waters State School,yellow,0.2949756579,0.1525560864,Local,153.397355,-27.927255
Cnr Scoria Street & Gladstone Road Biloela QLD 4715Australia,Biloela State High School,yellow,0.9898676877,0.6863847539,Local,150.517836,-24.398895
48 Rainbow Street Biloela QLD 4715Australia,Biloela State School,yellow,0.7502051635,0.4146570082,Local,150.516145,-24.398384
18401 Burnett Highway Binjour QLD 4625Australia,Binjour Plateau State School,yellow,0.7773675001,0.430923305,Local,151.456646,-25.515779
Adelaide Street Birdsville QLD 4482Australia,Birdsville State School,yellow,0.5419123146,0.09418029634,Local,139.352702,-25.898441
451 Old Cleveland Road East Birkdale QLD 4159Australia,Birkdale South State School,yellow,0.4580048483,0.02989198782,Local,153.212623,-27.505887
74 Agnes Street Birkdale QLD 4159Australia,Birkdale State School,yellow,0.485874285,0.1662104261,Local,153.216116,-27.4912
Cnr Hawthorne & Shamrock Streets Blackall QLD 4472Australia,Blackall State School,yellow,0.1344707061,0.6489170537,Local,145.469681,-24.425603
Crofton Street Blackbutt QLD 4314Australia,Blackbutt State School,yellow,0.3487381889,0.1018402112,Local,152.10395,-26.890508
William Street Blackwater QLD 4717Australia,Blackwater North State School,yellow,0.6839832801,0.3403763968,Local,148.886472,-23.566293
Elm Street Blackwater QLD 4717Australia,Blackwater State High School,yellow,0.09624427695,0.5708575448,Local,148.88274,-23.57248
Wey Street Blackwater QLD 4717Australia,Blackwater State School,yellow,0.1055185402,0.6000867746,Local,148.877854,-23.58342
Cribb Street Sadliers Crossing QLD 4305Australia,Blair State School,yellow,0.1519713836,0.1852653075,Local,152.748501,-27.612002
81 Blenheim Road Blenheim QLD 4341Australia,Blenheim State School,yellow,0.6882468387,0.4382282989,Local,152.331787,-27.650135
School Road Bli Bli QLD 4560Australia,Bli Bli State School,yellow,0.09876321233,0.9884994853,Local,153.031973,-26.613764
3202 Rossville-Bloomfield Road Bloomfield QLD 4895Australia,Bloomfield River State School,yellow,0.4650731614,0.2518904775,Local,145.341398,-15.935214
8545 Bruce Highway Bloomsbury QLD 4799Australia,Bloomsbury State School,yellow,0.7012848499,0.7555611443,Local,148.59555,-20.702837
Buckby Street Bluewater QLD 4818Australia,Bluewater State School,yellow,0.7520931191,0.6626001554,Local,146.555658,-19.174864
Main Street Bluff QLD 4702Australia,Bluff State School,yellow,0.6056963927,0.8108802845,Local,149.068871,-23.582155
Bohlevale School Road Burdell QLD 4818Australia,Bohlevale State School,yellow,0.4429402171,0.1394188367,Local,146.685598,-19.24885
Main Street Bollon QLD 4488Australia,Bollon State School,yellow,0.5812205706,0.9935802775,Local,147.475661,-28.031512
32 Macquarie Street Boonah QLD 4310Australia,Boonah State High School,yellow,0.1264145203,0.6666726879,Local,152.689172,-27.995422
Park Street Boonah QLD 4310Australia,Boonah State School,yellow,0.7084200511,0.6039142266,Local,152.681179,-27.997753
Cnr Sandgate & Roscommon Roads Boondall QLD 4034Australia,Boondall State School,yellow,0.02644642074,0.9351059445,Local,153.059312,-27.348419
31620 Bruce Highway Booyal QLD 4671Australia,Booyal Central State School,yellow,0.4902890475,0.6499949631,Local,152.032462,-25.209454
194 Middle Road Boronia Heights QLD 4124Australia,Boronia Heights State School,yellow,0.2253638221,0.536224253,Local,153.01781,-27.68428
1 Kent Street Bororen QLD 4678Australia,Bororen State School,yellow,0.4648031594,0.4805430142,Local,151.491993,-24.244368
52599 Burnett Highway Bouldercombe QLD 4702Australia,Bouldercombe State School,yellow,0.6245945364,0.4218214266,Local,150.471788,-23.564135
Templeton Street Boulia QLD 4829Australia,Boulia State School,yellow,0.531360234,0.9372277501,Local,139.910963,-22.908441
195 Bounty Boulevard North Lakes QLD 4509Australia,Bounty Boulevard State School,yellow,0.621350205,0.4541597437,Local,153.008052,-27.215694
1-9 Argyle Park Road Bowen QLD 4805Australia,Bowen State High School,yellow,0.8685840864,0.489278801,Local,148.235577,-19.999111
29 Kennedy Street Bowen QLD 4805Australia,Bowen State School,yellow,0.5355020398,0.2170000663,Local,148.243824,-20.010151
Irvingdale Road Bowenville QLD 4404Australia,Bowenville State School,yellow,0.017252282,0.4233962304,Local,151.493977,-27.303739
151 Malpas Street Boyne Island QLD 4680Australia,Boyne Island State School,yellow,0.4077722121,0.383655095,Local,151.356403,-23.950159
1138 Durong Road Boynewood QLD 4626Australia,Boynewood State School,yellow,0.4296479322,0.05358969036,Local,151.254846,-25.654999
68 Barfoot Street Bracken Ridge QLD 4017Australia,Bracken Ridge State High School,yellow,0.9085298432,0.8454653216,Local,153.044096,-27.307357
1 Binburra Street Bracken Ridge QLD 4017Australia,Bracken Ridge State School,yellow,0.5454243242,0.08842815822,Local,153.042058,-27.325195
Drysdale Street Brandon QLD 4808Australia,Brandon State School,yellow,0.7458935599,0.4925738811,Local,147.348591,-19.553714
Branyan Drive Branyan QLD 4670Australia,Branyan Road State School,yellow,0.2441112042,0.7472836076,Local,152.293888,-24.892716
Pine Mountain Road Brassall QLD 4305Australia,Brassall State School,yellow,0.1425070905,0.008603037767,Local,152.748329,-27.588404
Lavarack Road Bray Park QLD 4500Australia,Bray Park State High School,yellow,0.3456792966,0.9525032597,Local,152.961965,-27.299893
Hopetoun Street Bray Park QLD 4500Australia,Bray Park State School,yellow,0.6622686031,0.2918119987,Local,152.975298,-27.293504
133-153 Warwick Road Ipswich QLD 4305Australia,Bremer State High School,yellow,0.6831197118,0.9410470564,Local,152.755332,-27.633359
First Avenue Bongaree QLD 4507Australia,Bribie Island State High School,yellow,0.9114583457,0.1475413,Local,153.166077,-27.082965
31-63 First Avenue Bongaree QLD 4507Australia,Bribie Island State School,yellow,0.1547835811,0.9369779658,Local,153.161896,-27.083259
Warrego Highway Brigalow QLD 4412Australia,Brigalow State School,yellow,0.4131230252,0.7102270053,Local,150.779251,-26.836451
2 North Road Brighton QLD 4017Australia,Brighton State School,yellow,0.07926618849,0.1052949406,Local,153.051226,-27.294286
20 Dianella Drive Mountain Creek QLD 4557Australia,Brightwater State School,yellow,0.2592397388,0.6479930787,Local,153.111567,-26.709163
Network Drive Wynnum West QLD 4178Australia,Brisbane Bayside State College,yellow,0.1219092124,0.8679493078,Local,153.149996,-27.461983
Rogers Street Spring Hill QLD 4000Australia,Brisbane Central State School,yellow,0.9820965225,0.5788080112,Local,153.027198,-27.459289
Cnr Stanley Street & Cavendish Road Coorparoo QLD 4151Australia,Brisbane School of Distance Education,yellow,0.03953366034,0.8044875529,Local,153.053816,-27.486555
Cnr Cordelia and Glenelg Streets South Brisbane QLD 4101Australia,Brisbane State High School,yellow,0.4544896831,0.2844176058,Local,153.018099,-27.481774
99 Wolston Park Road Wacol QLD 4076Australia,Brisbane Youth Education and Training Centre,yellow,0.4988050038,0.7826142023,Local,152.914984,-27.592473
Alexandra Avenue Broadbeach QLD 4218Australia,Broadbeach State School,yellow,0.5277535679,0.2467426411,Local,153.434552,-28.035756
638 Texas Road Broadwater QLD 4380Australia,Broadwater State School,yellow,0.2636711813,0.6680712024,Local,151.878666,-28.655515
36 Boscombe Road Brookfield QLD 4069Australia,Brookfield State School,yellow,0.5473010803,0.7511569164,Local,152.913587,-27.495113
30 Ware Street Brookstead QLD 4364Australia,Brookstead State School,yellow,0.118603253,0.9485804009,Local,151.450522,-27.75801
Lahey Street Brooweena QLD 4620Australia,Brooweena State School,yellow,0.8472684023,0.3020371655,Local,152.26107,-25.598941
Ivor Street Browns Plains QLD 4118Australia,Browns Plains State High School,yellow,0.9969076489,0.8731986041,Local,153.054003,-27.669922
1-29 Mayfair Drive Browns Plains QLD 4118Australia,Browns Plains State School,yellow,0.8190207982,0.3782036972,Local,153.05457,-27.667726
13 Kemp Street Bucasia QLD 4750Australia,Bucasia State School,yellow,0.9171675113,0.2562853083,Local,149.157804,-21.030957
Cnr Tumut Street & Iluka Avenue Buddina QLD 4575Australia,Buddina State School,yellow,0.1726906469,0.619346176,Local,153.133162,-26.702191
8-42 Main Street Buderim QLD 4556Australia,Buderim Mountain State School,yellow,0.4959104619,0.9243851979,Local,153.053898,-26.684588
Gladstone Road Boyne Valley QLD 4680Australia,Builyan State School,yellow,0.5665829708,0.3792567192,Local,151.385482,-24.52931
Oxford Street Bulimba QLD 4171Australia,Bulimba State School,yellow,0.0008884700084,0.8946790437,Local,153.06505,-27.453162
2358 Bucca Road Bullyard QLD 4671Australia,Bullyard State School,yellow,0.8661977216,0.2076678536,Local,152.061257,-24.950098
13 Crofton Street Bundaberg Central QLD 4670Australia,Bundaberg Central State School,yellow,0.1368950543,0.765257974,Local,152.348234,-24.869865
33 Scotland Street Bundaberg East QLD 4670Australia,Bundaberg East State School,yellow,0.9127821087,0.2297201962,Local,152.372561,-24.862297
9 Marks Street Bundaberg North QLD 4670Australia,Bundaberg North State High School,yellow,0.01483375637,0.4703279396,Local,152.339615,-24.849464
Mount Perry Road Bundaberg North QLD 4670Australia,Bundaberg North State School,yellow,0.8307403647,0.5805613437,Local,152.340454,-24.851878
Walla Street Bundaberg South QLD 4670Australia,Bundaberg South State School,yellow,0.04479137413,0.5075526071,Local,152.360627,-24.871019
Dr Mays Road Norville QLD 4670Australia,Bundaberg Special School,yellow,0.5838925017,0.02230316123,Local,152.338871,-24.88688
37 Maryborough Street Bundaberg South QLD 4670Australia,Bundaberg State High School,yellow,0.8151577885,0.9800944728,Local,152.349889,-24.877041
George Street Bundaberg West QLD 4670Australia,Bundaberg West State School,yellow,0.7024873722,0.6215423702,Local,152.333841,-24.876259
221 Brisbane Road Bundamba QLD 4304Australia,Bundamba State School,yellow,0.3723739898,0.3125154986,Local,152.804464,-27.611295
15a Naomai Street Bundamba QLD 4304Australia,Bundamba State Secondary College,yellow,0.8460399384,0.897875166,Local,152.813679,-27.614916
George Street Bungunya QLD 4494Australia,Bungunya State School,yellow,0.6996784731,0.2975503966,Local,149.654509,-28.427099
315 Bunkers Hill School Road Westbrook QLD 4350Australia,Bunker's Hill State School,yellow,0.1414759946,0.167313119,Local,151.833327,-27.60601
24 Cowley Street Woolloongabba QLD 4102Australia,Buranda State School,yellow,0.6082616021,0.2098668808,Local,153.04267,-27.497171
159 Young Street Ayr QLD 4807Australia,Burdekin School,yellow,0.04173235212,0.8992347286,Local,147.407973,-19.578425
Beames Street Burketown QLD 4830Australia,Burketown State School,yellow,0.700526308,0.08327891171,Local,139.547822,-17.738926
Lower Gold Coast Highway Burleigh Heads QLD 4220Australia,Burleigh Heads State School,yellow,0.7868741318,0.7814830646,Local,153.449399,-28.086874
Burnett Heads Road Burnett Heads QLD 4670Australia,Burnett Heads State School,yellow,0.542692606,0.8894810212,Local,152.414509,-24.771725
65 Pineapple Street Gayndah QLD 4625Australia,Burnett State College,yellow,0.4179550972,0.8454464861,Local,151.606321,-25.631898
Blaxland Road Burnside QLD 4560Australia,Burnside State High School,yellow,0.6927727839,0.2792221017,Local,152.947268,-26.630401
51 Blaxland Road Burnside QLD 4560Australia,Burnside State School,yellow,0.6932606053,0.4414366454,Local,152.947573,-26.630419
153 Rowley Road Burpengary QLD 4505Australia,Burpengary Meadows State School,yellow,0.769982654,0.7509402412,Local,152.938212,-27.159893
35 Station Road Burpengary QLD 4505Australia,Burpengary State School,yellow,0.1872376659,0.074403425,Local,152.959036,-27.157727
196 Pitt Road Burpengary QLD 4505Australia,Burpengary State Secondary College,yellow,0.322943849,0.597230311,Local,152.977393,-27.170609
3173 Burra Burri Creek Road Burra Burri QLD 4413Australia,Burra Burri State School,yellow,0.3143296287,0.1110042458,Local,151.02373,-26.50936
Third Avenue Marsden QLD 4132Australia,Burrowes State School,yellow,0.8565706918,0.7461185261,Local,153.089804,-27.676279
Cnr Topaz & Gadaloff Roads Butchers Creek QLD 4885Australia,Butchers Creek State School,yellow,0.01309776656,0.1512706443,Local,145.692288,-17.361216
Creek Road Palm Island QLD 4816Australia,Bwgcolman Community School,yellow,0.01132492086,0.6619692239,Local,146.578199,-18.736204
2233 Byfield Road Byfield QLD 4703Australia,Byfield State School,yellow,0.3504260601,0.4215925742,Local,150.64619,-22.841252
6441 Carnarvon Highway Bymount QLD 4455Australia,Bymount East State School,yellow,0.5535595754,0.7999511205,Local,148.60269,-26.063808
44 Manley Street Caboolture QLD 4510Australia,Caboolture East State School,yellow,0.3612690291,0.8904664815,Local,152.960977,-27.077547
Torrens Road Caboolture South QLD 4510Australia,Caboolture Special School,yellow,0.5319637239,0.7183411793,Local,152.943823,-27.096752
Lee Street Caboolture QLD 4510Australia,Caboolture State High School,yellow,0.02631729582,0.9344307716,Local,152.961074,-27.084139
12 George Street Caboolture QLD 4510Australia,Caboolture State School,yellow,0.6826575543,0.8445466684,Local,152.948729,-27.082517
62 Hoare Street Manunda QLD 4870Australia,Cairns School of Distance Education,yellow,0.4081187425,0.2888377009,Local,145.750777,-16.92359
Cnr Sheridan & Upward Streets Cairns North QLD 4870Australia,Cairns State High School,yellow,0.9242770855,0.0635768449,Local,145.768025,-16.916645
Windarra Street Woree QLD 4868Australia,Cairns State Special School,yellow,0.6156082339,0.7065885692,Local,145.7402,-16.9631
Mayers Street Manunda QLD 4870Australia,Cairns West State School,yellow,0.5744269448,0.7517975689,Local,145.74228,-16.92369
11 Hamish Street Calamvale QLD 4116Australia,Calamvale Community College,yellow,0.4476617343,0.2176845539,Local,153.042899,-27.625696
29 Nottingham Road Calamvale QLD 4116Australia,Calamvale Special School,yellow,0.7401679037,0.6141536608,Local,153.044867,-27.630062
38 McIntyre Street Calen QLD 4798Australia,Calen District State College,yellow,0.278205755,0.1334225983,Local,148.770455,-20.899303
Stirrat Street Calliope QLD 4680Australia,Calliope State School,yellow,0.1877461089,0.6996454126,Local,151.202922,-24.004837
88 Queen Street Caloundra QLD 4551Australia,Caloundra State High School,yellow,0.9885767001,0.9712924609,Local,153.125545,-26.793826
56A Queen Street Caloundra QLD 4551Australia,Caloundra State School,yellow,0.8805587678,0.2676970919,Local,153.13501,-26.797111
Harrow Street Cambooya QLD 4358Australia,Cambooya State School,yellow,0.5272384702,0.2901071498,Local,151.866872,-27.708783
Hughenden-Muttaburra Road Tangorin QLD 4821Australia,Cameron Downs State School,yellow,0.2893911428,0.7571571621,Local,144.278845,-21.374579
184-202 Old Logan Road Camira QLD 4300Australia,Camira State School,yellow,0.9826312788,0.0196260138,Local,152.914644,-27.621316
Nowranie Street Camooweal QLD 4828Australia,Camooweal State School,yellow,0.5252481706,0.9700210174,Local,138.120361,-19.918829
676 Old Cleveland Road Camp Hill QLD 4152Australia,Camp Hill State Infants and Primary School,yellow,0.8918384752,0.2449057612,Local,153.078576,-27.492941
Whistler Drive Burleigh Waters QLD 4220Australia,Caningeraba State School,yellow,0.3226432935,0.7235689492,Local,153.430206,-28.085348
845 Wynnum Road Cannon Hill QLD 4170Australia,Cannon Hill State School,yellow,0.8759219205,0.562842012,Local,153.083826,-27.468177
56 Coral Esplanade Cannonvale QLD 4802Australia,Cannonvale State School,yellow,0.9099959499,0.6474637085,Local,148.69967,-20.274758
Christie Street Canungra QLD 4275Australia,Canungra State School,yellow,0.5921911956,0.06683963914,Local,153.162365,-28.016911
School Road Capalaba QLD 4157Australia,Capalaba State College,yellow,0.8438287554,0.5064530706,Local,153.189826,-27.53641
Cnr Thiele & Poland Streets Hope Vale QLD 4895Australia,Cape York Aboriginal Australian Academy,yellow,0.4243351797,0.7352775494,Local,145.108091,-15.295258
35-45 Gordon Street Capella QLD 4723Australia,Capella State High School,yellow,0.9547437403,0.4146751624,Local,148.030481,-23.088158
41 Huntley Street Capella QLD 4723Australia,Capella State School,yellow,0.2932594282,0.5004094799,Local,148.024701,-23.082625
Cnr Gray & Gladstone Streets Emerald QLD 4720Australia,Capricornia (Emerald Campus) School of Distance Education,yellow,0.6556966032,0.5741649719,Local,148.152073,-23.532392
Lot 3 Kamerunga Road Caravonica QLD 4878Australia,Caravonica State School,yellow,0.4646361733,0.5565693976,Local,145.695369,-16.852966
Redland Bay Road Carbrook QLD 4130Australia,Carbrook State School,yellow,0.9968770224,0.7180127567,Local,153.235233,-27.678064
43 Victoria Street Cardwell QLD 4849Australia,Cardwell State School,yellow,0.253588029,0.5300264957,Local,146.03085,-18.268797
1413 Creek Road Carindale QLD 4152Australia,Carina State School,yellow,0.01654145996,0.2677263011,Local,153.101859,-27.493301
Carmila West Road Carmila QLD 4739Australia,Carmila State School,yellow,0.08259096378,0.9775610677,Local,149.403581,-21.913583
260 Waterford Road Wacol QLD 4076Australia,Carole Park State School,yellow,0.133435034,0.3247005997,Local,152.933619,-27.60804
Cnr Cavendish & Holland Roads Holland Park QLD 4121Australia,Cavendish Road State High School,yellow,0.4355953609,0.3068095603,Local,153.072984,-27.516824
125 Annie Drive Cawarral QLD 4702Australia,Cawarral State School,yellow,0.5539770387,0.007300025103,Local,150.675628,-23.253978
Taylor Street Cecil Plains QLD 4407Australia,Cecil Plains State School,yellow,0.8695287932,0.6186536238,Local,151.192818,-27.532321
1a Chardon Bridge Road Cedar Creek QLD 4207Australia,Cedar Creek State School,yellow,0.9261744965,0.3179096811,Local,153.179275,-27.827597
60 Ramsay Street Centenary Heights QLD 4350Australia,Centenary Heights State High School,yellow,0.3937578537,0.1604038547,Local,151.963728,-27.57943
1 Moolanda Street Jindalee QLD 4074Australia,Centenary State High School,yellow,0.7622668199,0.678414338,Local,152.940337,-27.538682
Sippy Downs Drive Sippy Downs QLD 4556Australia,Chancellor State College,yellow,0.208750429,0.04825669788,Local,153.059438,-26.721321
Ironbark Road Chapel Hill QLD 4069Australia,Chapel Hill State School,yellow,0.4733937722,0.5079144741,Local,152.944927,-27.499336
Parry Street Charleville QLD 4470Australia,Charleville School of Distance Education,yellow,0.007093946171,0.6684781597,Local,146.258634,-26.395083
Cnr Partridge & Hunter Streets Charleville QLD 4470Australia,Charleville State High School,yellow,0.2121181303,0.7330911972,Local,146.25742,-26.397435
Wills Street Charleville QLD 4470Australia,Charleville State School,yellow,0.7831891508,0.698995802,Local,146.24238,-26.404879
High Street Charters Towers QLD 4820Australia,Charters Towers Central State School,yellow,0.1024233536,0.9194825051,Local,146.263198,-20.080199
15-23 Brisk Street Millchester QLD 4820Australia,Charters Towers School of Distance Education,yellow,0.3723533539,0.006556272614,Local,146.268249,-20.089473
97-113 Towers Street Charters Towers QLD 4820Australia,Charters Towers State High School,yellow,0.851845683,0.7910359273,Local,146.258473,-20.080196
Raleigh Street Springwood QLD 4127Australia,Chatswood Hills State School,yellow,0.7457301999,0.7693322158,Local,153.137454,-27.628184
15 Rammutt Road Chatsworth QLD 4570Australia,Chatsworth State School,yellow,0.1866892172,0.2656530711,Local,152.615491,-26.142811
13 Chelona School Access Road Chelona QLD 4740Australia,Chelona State School,yellow,0.4243184902,0.05083950619,Local,149.145136,-21.260317
Fisher Street Cherbourg QLD 4605Australia,Cherbourg State School,yellow,0.02881134578,0.7760441371,Local,151.955152,-26.292991
460 Chevallum Road Chevallum QLD 4555Australia,Chevallum State School,yellow,0.2435953021,0.7082517459,Local,152.999357,-26.698439
Mungomery Street Childers QLD 4660Australia,Childers State School,yellow,0.84125528,0.5680613598,Local,152.280341,-25.231175
Cathedral Street Chillagoe QLD 4871Australia,Chillagoe State School,yellow,0.09962366434,0.9566758028,Local,144.521194,-17.155393
7 Tara Road Chinchilla QLD 4413Australia,Chinchilla State High School,yellow,0.1100455774,0.8727821421,Local,150.619992,-26.748744
34-40 Bell Street Chinchilla QLD 4413Australia,Chinchilla State School,yellow,0.238198436,0.1306786141,Local,150.625972,-26.74035
Warwick Road Churchill QLD 4305Australia,Churchill State School,yellow,0.500750782,0.3339642947,Local,152.750604,-27.642697
Larkin Street Clare QLD 4807Australia,Clare State School,yellow,0.1104987425,0.1853322784,Local,147.226883,-19.783298
138 Robertson Road Silkstone QLD 4304Australia,Claremont Special School,yellow,0.8309577087,0.8390971781,Local,152.787678,-27.629534
507 Clarendon Road Clarendon QLD 4311Australia,Clarendon State School,yellow,0.8118788242,0.2612705832,Local,152.542507,-27.439886
May Downs Road Clarke Creek QLD 4705Australia,Clarke Creek State School,yellow,0.6335895701,0.9501242036,Local,149.252986,-22.636507
1 Kitchener Street Clermont QLD 4721Australia,Clermont State High School,yellow,0.6448433646,0.2017272282,Local,147.638931,-22.827715
Hetherington Street Clermont QLD 4721Australia,Clermont State School,yellow,0.7510404722,0.4590136779,Local,147.632195,-22.83656
Russell Street Cleveland QLD 4163Australia,Cleveland District State High School,yellow,0.4029178634,0.2542518993,Local,153.260297,-27.529881
Old Common Road Rowes Bay QLD 4810Australia,Cleveland Education and Training Centre,yellow,0.09638678872,0.2037066687,Local,146.784385,-19.249668
Queen Street Cleveland QLD 4163Australia,Cleveland State School,yellow,0.5590379195,0.315777821,Local,153.270274,-27.528303
Rob Street Newtown QLD 4350Australia,Clifford Park Special School,yellow,0.4454756652,0.1715718003,Local,151.92501,-27.563891
32 East Street Clifton QLD 4361Australia,Clifton State High School,yellow,0.6602459186,0.9869397927,Local,151.916814,-27.93398
Tooth Street Clifton QLD 4361Australia,Clifton State School,yellow,0.8824798386,0.09034887514,Local,151.904241,-27.931751
Harvey Road Clinton QLD 4680Australia,Clinton State School,yellow,0.8798976608,0.3900196846,Local,151.222868,-23.880021
Daintree Street Cloncurry QLD 4824Australia,Cloncurry State School P-12,yellow,0.3115467602,0.1606644765,Local,140.50564,-20.704254
Cnr Elizabeth Avenue & King Street Clontarf QLD 4019Australia,Clontarf Beach State High School,yellow,0.8592451383,0.1746213035,Local,153.086145,-27.247946
Elizabeth Avenue Clontarf QLD 4019Australia,Clontarf Beach State School,yellow,0.2684594441,0.3195544199,Local,153.08111,-27.253394
Clover Hill Drive Mudgeeraba QLD 4213Australia,Clover Hill State School,yellow,0.6821760841,0.3861549013,Local,153.376056,-28.091791
8 William Webber Road Cloyna QLD 4605Australia,Cloyna State School,yellow,0.1187651174,0.4410293192,Local,151.846155,-26.107385
3 Main Street Coalstoun Lakes QLD 4621Australia,Coalstoun Lakes State School,yellow,0.07005496929,0.9044363607,Local,151.890182,-25.612183
Cnr Burrel & Hannant Streets Collingwood Park QLD 4301Australia,Collingwood Park State School,yellow,0.6126173126,0.1775713071,Local,152.863031,-27.614482
Walker Street Collinsville QLD 4804Australia,Collinsville State High School,yellow,0.6580238672,0.973184308,Local,147.834688,-20.548484
Devlin Street Collinsville QLD 4804Australia,Collinsville State School,yellow,0.6816155448,0.7255514591,Local,147.845687,-20.548355
Off Capricorn Highway Comet QLD 4702Australia,Comet State School,yellow,0.5197861914,0.9359234992,Local,148.545172,-23.606146
Kennedy Street Condamine QLD 4416Australia,Condamine State School,yellow,0.3092163514,0.6579088172,Local,150.134634,-26.925026
1312 Bruce Highway Farleigh QLD 4741Australia,Coningsby State School,yellow,0.9448096937,0.6697805994,Local,149.068859,-21.092505
1700 Maleny-Kenilworth Road Conondale QLD 4552Australia,Conondale State School,yellow,0.2838279437,0.1090337788,Local,152.718691,-26.729462
Cnr May & Charles Streets Cooktown QLD 4895Australia,Cooktown State School,yellow,0.8400500106,0.3658843175,Local,145.250706,-15.482007
Mary Street Coolabunia QLD 4610Australia,Coolabunia State School,yellow,0.6524902164,0.01965002818,Local,151.902631,-26.589398
Stapylton Street Coolangatta QLD 4225Australia,Coolangatta State School,yellow,0.02770909071,0.2435584052,Local,153.528752,-28.172019
6 Telaska Court Capalaba QLD 4157Australia,Coolnwynpin State School,yellow,0.7330810006,0.8535906479,Local,153.204246,-27.546277
Havana Road East Coolum Beach QLD 4573Australia,Coolum State High School,yellow,0.1412081565,0.5052232435,Local,153.086206,-26.501986
School Road Coolum Beach QLD 4573Australia,Coolum State School,yellow,0.6142778228,0.1837158611,Local,153.078354,-26.53501
Pine Ridge Road Coombabah QLD 4216Australia,Coombabah State High School,yellow,0.7834674898,0.3398975013,Local,153.378382,-27.924342
164-172 Oxley Drive Coombabah QLD 4216Australia,Coombabah State School,yellow,0.1750443875,0.8108212943,Local,153.388518,-27.894224
81-87 Finnegan Way Coomera QLD 4209Australia,Coomera Rivers State School,yellow,0.1047506795,0.06541840849,Local,153.327625,-27.845551
Old Coach Road Upper Coomera QLD 4209Australia,Coomera Springs State School,yellow,0.7891994961,0.6272369905,Local,153.300581,-27.847193
Dreamworld Parkway Coomera QLD 4209Australia,Coomera State School,yellow,0.9817441405,0.5629756497,Local,153.315288,-27.868623
7 Cornhill Street Coominya QLD 4311Australia,Coominya State School,yellow,0.04566527618,0.265919457,Local,152.500846,-27.392285
61 Orange Grove Road Coopers Plains QLD 4108Australia,Coopers Plains State School,yellow,0.5352072815,0.002280308175,Local,153.038836,-27.567586
31 James Street Cooran QLD 4569Australia,Cooran State School,yellow,0.01128083215,0.6861901087,Local,152.824184,-26.340665
59 Elm Street Cooroy QLD 4563Australia,Cooroy State School,yellow,0.8104424968,0.4816670248,Local,152.911454,-26.414028
Cnr Stanley Street East & Cavendish Road Coorparoo QLD 4151Australia,Coorparoo Secondary College,yellow,0.7906061411,0.2388752123,Local,153.053734,-27.486363
327 Old Cleveland Road Coorparoo QLD 4151Australia,Coorparoo State School,yellow,0.06299846597,0.6146541154,Local,153.06059,-27.494004
269 Coowonga Road Coowonga QLD 4702Australia,Coowonga State School,yellow,0.3959306238,0.4264544014,Local,150.731153,-23.30268
Gracey Street Cooyar QLD 4402Australia,Cooyar State School,yellow,0.2414338634,0.2829626518,Local,151.832813,-26.985205
Mathieson Street Coppabella QLD 4741Australia,Coppabella State School,yellow,0.2307393368,0.5279252965,Local,148.363321,-21.906791
Cemetery Road Cordalba QLD 4660Australia,Cordalba State School,yellow,0.9396332435,0.7457224081,Local,152.212185,-25.158744
46 Pratten Street Corinda QLD 4075Australia,Corinda State High School,yellow,0.8111789919,0.4934448202,Local,152.986485,-27.544346
330 Cliveden Avenue Corinda QLD 4075Australia,Corinda State School,yellow,0.3030803908,0.04556912402,Local,152.981508,-27.54934
685 Hamilton Road Chermside West QLD 4032Australia,Craigslea State High School,yellow,0.7026052984,0.03040815264,Local,153.015379,-27.383378
Hamilton Road Chermside West QLD 4032Australia,Craigslea State School,yellow,0.1166589099,0.1845638416,Local,153.017253,-27.383789
Alice Street Cranbrook QLD 4814Australia,Cranbrook State School,yellow,0.03208193448,0.6004781646,Local,146.753855,-19.3092
215-227 Siefert Street Crawford QLD 4610Australia,Crawford State School,yellow,0.5759634822,0.8563417314,Local,151.822532,-26.497589
North Street Extended West Rockhampton QLD 4700Australia,Crescent Lagoon State School,yellow,0.3527402599,0.1261803015,Local,150.488406,-23.38251
27-61 Augusta Street Crestmead QLD 4132Australia,Crestmead State School,yellow,0.04976968515,0.6156247131,Local,153.090452,-27.688755
1 Littleton Street Crows Nest QLD 4355Australia,Crow's Nest State School,yellow,0.08219887264,0.56602839,Local,152.052186,-27.264826
Brown Street Croydon QLD 4871Australia,Croydon State School,yellow,0.4782241133,0.2422082453,Local,142.249391,-18.203756
17 Francis Street Cunnamulla QLD 4490Australia,Cunnamulla P-12 State School,yellow,0.2147798244,0.1587496137,Local,145.679373,-28.071136
140 Palmerston Street Gulliver QLD 4812Australia,Currajong State School,yellow,0.9194803652,0.7137593441,Local,146.77416,-19.28021
Buderim Street Dicky Beach QLD 4551Australia,Currimundi Special School,yellow,0.5160489079,0.06002729483,Local,153.135987,-26.777927
17 Buderim Street Currimundi QLD 4551Australia,Currimundi State School,yellow,0.156921269,0.6402399174,Local,153.135518,-26.777613
5 Hammersford Drive Currumbin Waters QLD 4223Australia,Currumbin Community Special School,yellow,0.9482447678,0.2992824792,Local,153.472527,-28.151918
6 Philip Street Currumbin QLD 4223Australia,Currumbin State School,yellow,0.2097709467,0.2324953569,Local,153.47807,-28.137894
1223 Currumbin Creek Road Currumbin Valley QLD 4223Australia,Currumbin Valley State School,yellow,0.6464525695,0.4693668754,Local,153.394358,-28.206406
39 Dagun Road Dagun QLD 4570Australia,Dagun State School,yellow,0.05181461582,0.878525393,Local,152.676942,-26.322032
Osborne Street Daintree QLD 4873Australia,Daintree State School,yellow,0.367915101,0.3286404302,Local,145.320257,-16.249366
20-50 Daisy Hill Road Daisy Hill QLD 4127Australia,Daisy Hill State School,yellow,0.8361088899,0.1831805672,Local,153.153424,-27.643208
Matheson Street Dajarra QLD 4825Australia,Dajarra State School,yellow,0.9706649097,0.5427596001,Local,139.512232,-21.694604
Marsden Road Dakabin QLD 4503Australia,Dakabin State High School,yellow,0.4479776989,0.8905043284,Local,152.980831,-27.229625
Sheaves Road Kallangur QLD 4503Australia,Dakabin State School,yellow,0.1426988715,0.1226030248,Local,152.986729,-27.237863
Cnr Owen & Bunya Streets Dalby QLD 4405Australia,Dalby South State School,yellow,0.2642550338,0.4526672784,Local,151.270142,-27.194803
26 Nicholson Street Dalby QLD 4405Australia,Dalby State High School,yellow,0.2992064779,0.7251129141,Local,151.25951,-27.17815
155 Cunningham Street Dalby QLD 4405Australia,Dalby State School,yellow,0.5836480722,0.1354166118,Local,151.262317,-27.184652
3 Main Street Dallarnil QLD 4621Australia,Dallarnil State School,yellow,0.2929017667,0.8754329735,Local,152.045632,-25.383928
40 Pine Crescent Dalveen QLD 4374Australia,Dalveen State School,yellow,0.3112593738,0.4571904847,Local,151.973538,-28.489817
Wuth Street Darling Heights QLD 4350Australia,Darling Heights State School,yellow,0.3412981302,0.3415738739,Local,151.932316,-27.597434
368 Upper Esplanade Manly QLD 4179Australia,Darling Point Special School,yellow,0.1297204328,0.4475235858,Local,153.186878,-27.447843
2744 Kerry Road Darlington QLD 4285Australia,Darlington State School,yellow,0.3648039005,0.3469397872,Local,153.040068,-28.205645
Winslow Street Darra QLD 4076Australia,Darra State School,yellow,0.5700530497,0.6800963117,Local,152.953431,-27.570541
58 McKenzie Street Dayboro QLD 4521Australia,Dayboro State School,yellow,0.7508063307,0.04140088863,Local,152.820394,-27.194102
Old Bay Road Deception Bay QLD 4508Australia,Deception Bay North State School,yellow,0.1072890592,0.2867575631,Local,153.01659,-27.181171
Phillip Parade Deception Bay QLD 4508Australia,Deception Bay State High School,yellow,0.4114499162,0.6681980846,Local,153.0305,-27.199998
King Street Deception Bay QLD 4508Australia,Deception Bay State School,yellow,0.6490428832,0.1910764485,Local,153.029448,-27.190687
81 Rawlings Road Deebing Heights QLD 4306Australia,Deebing Heights State School,yellow,0.8866046996,0.1618179365,Local,152.75,-27.673333
Mount Mee Road Delaneys Creek QLD 4514Australia,Delaneys Creek State School,yellow,0.5596458533,0.6134556686,Local,152.795495,-26.999008
16 Gray Street Emerald QLD 4720Australia,Denison State School,yellow,0.158558762,0.4910771878,Local,148.151294,-23.532222
O'Connell Street Depot Hill QLD 4700Australia,Depot Hill State School,yellow,0.6681145052,0.494565609,Local,150.51763,-23.395981
48-50 Kennedy Street Dimbulah QLD 4872Australia,Dimbulah State School,yellow,0.7912585339,0.9220082562,Local,145.113194,-17.148986
Cnr Kennedy & Normanby Streets Dingo QLD 4702Australia,Dingo State School,yellow,0.5451402043,0.8598345624,Local,149.330223,-23.645501
Jane Street Dirranbandi QLD 4486Australia,Dirranbandi P-10 State School,yellow,0.9844593846,0.5167378093,Local,148.230059,-28.577086
Goodeedawa Road Doomadgee QLD 4830Australia,Doomadgee State School,yellow,0.7024504215,0.3049575151,Local,138.827787,-17.942059
55 Brisbane Street Drayton QLD 4350Australia,Drayton State School,yellow,0.1419381792,0.6074032623,Local,151.911785,-27.60259
13 Jardine Street Drillham QLD 4424Australia,Drillham State School,yellow,0.2673068487,0.7208619629,Local,149.981561,-26.644352
Charlotte Street Duaringa QLD 4712Australia,Duaringa State School,yellow,0.592958408,0.6882522727,Local,149.668485,-23.715905
North Road Dulacca QLD 4425Australia,Dulacca State School,yellow,0.115569257,0.09629614859,Local,149.756907,-26.642346
1 Main Street Bakers Creek QLD 4740Australia,Dundula State School,yellow,0.1774676898,0.1544231993,Local,149.148773,-21.201691
Mitchell-St George Road Dunkeld QLD 4465Australia,Dunkeld State School,yellow,0.4086680844,0.7371816075,Local,148.06037,-26.957982
Bingle Road Dunwich QLD 4183Australia,Dunwich State School,yellow,0.5080463915,0.5825047027,Local,153.404125,-27.49602
69 Inala Avenue Durack QLD 4077Australia,Durack State School,yellow,0.9729926383,0.5240982939,Local,152.981888,-27.597304
10463 Mundubbera Durong Road Durong QLD 4610Australia,Durong South State School,yellow,0.8554151548,0.7958256938,Local,151.244079,-26.392349
112 Annerley Road Dutton Park QLD 4102Australia,Dutton Park State School,yellow,0.9846166125,0.892747487,Local,153.027914,-27.493979
Edgerley Street Dysart QLD 4745Australia,Dysart State High School,yellow,0.7693485327,0.7865269656,Local,148.354821,-22.584027
Garnham Drive Dysart QLD 4745Australia,Dysart State School,yellow,0.9779454428,0.06696364936,Local,148.34751,-22.587792
49 Roseby Avenue Clayfield QLD 4011Australia,Eagle Junction State School,yellow,0.7431304332,0.6768184873,Local,153.050454,-27.417743
Cnr Fryar & River Hills Roads Eagleby QLD 4207Australia,Eagleby South State School,yellow,0.2837851601,0.6998238669,Local,153.213033,-27.703689
Cnr Herses & Fryar Roads Eagleby QLD 4207Australia,Eagleby State School,yellow,0.457226419,0.2934272184,Local,153.214407,-27.6928
Cnr Earnshaw & Tufnell Roads Banyo QLD 4014Australia,Earnshaw State College,yellow,0.6204961928,0.4856288631,Local,153.081467,-27.379373
43-73 Ross Street Ayr QLD 4807Australia,East Ayr State School,yellow,0.3966372661,0.6020925035,Local,147.416446,-19.563472
56 Wellington Road East Brisbane QLD 4169Australia,East Brisbane State School,yellow,0.7113090343,0.4940074141,Local,153.03981,-27.486426
Marylin Terrace Eatons Hill QLD 4037Australia,Eatons Hill State School,yellow,0.9264366695,0.2030666925,Local,152.956074,-27.335429
Jamie Nicolson Avenue Edens Landing QLD 4207Australia,Edens Landing State School,yellow,0.4815437176,0.9471216014,Local,153.169865,-27.705302
254 Pease Street Edge Hill QLD 4870Australia,Edge Hill State School,yellow,0.2312853804,0.3239316283,Local,145.742478,-16.905211
7 Hodgkinson Street Eidsvold QLD 4627Australia,Eidsvold State School,yellow,0.6013882589,0.9119273084,Local,151.121239,-25.372305
480 Underwood Road Eight Mile Plains QLD 4113Australia,Eight Mile Plains State School,yellow,0.8772532561,0.2626414585,Local,153.109017,-27.59354
21 Eimeo Road Rural View QLD 4740Australia,Eimeo Road State School,yellow,0.8830559618,0.9116709682,Local,149.161695,-21.059388
28 Chauvel Street El Arish QLD 4855Australia,El Arish State School,yellow,0.1380692632,0.03155549751,Local,146.002651,-17.807838
Cnr 19th Avenue & Avocado Street Elanora QLD 4221Australia,Elanora State High School,yellow,0.3155549874,0.7742799794,Local,153.449513,-28.128473
K P McGrath Drive Elanora QLD 4221Australia,Elanora State School,yellow,0.6429592514,0.03232514706,Local,153.467043,-28.130766
School Road Elimbah QLD 4516Australia,Elimbah State School,yellow,0.3259678588,0.130030628,Local,152.942451,-27.012751
143 Breusch Road Elliott Heads QLD 4670Australia,Elliott Heads State School,yellow,0.3495195557,0.9518512172,Local,152.475682,-24.907212
Campbell Street Emerald QLD 4720Australia,Emerald North State School,yellow,0.1930530044,0.8468545787,Local,148.164182,-23.513273
Old Airport Drive Emerald QLD 4720Australia,Emerald State High School,yellow,0.322614455,0.7111290087,Local,148.158251,-23.513697
Anakie Street Emerald QLD 4720Australia,Emerald State School,yellow,0.407143783,0.3488705572,Local,148.160599,-23.52375
14534 New England Highway East Greenmount QLD 4359Australia,Emu Creek State School,yellow,0.3090735443,0.2216506759,Local,151.944806,-27.783359
26 Fountain Street Emu Park QLD 4710Australia,Emu Park State School,yellow,0.169735102,0.2022053427,Local,150.820761,-23.259744
235 South Pine Road Enoggera QLD 4051Australia,Enoggera State School,yellow,0.638005265,0.9081353982,Local,152.993752,-27.417332
Donald Street Eromanga QLD 4480Australia,Eromanga State School,yellow,0.1568114785,0.5718941122,Local,143.268614,-26.669247
49 East Street Esk QLD 4312Australia,Esk State School,yellow,0.5478308705,0.441709545,Local,152.426322,-27.247508
Prospect Street Eton QLD 4741Australia,Eton State School,yellow,0.1318847947,0.1546272175,Local,148.97651,-21.264274
Cnr Highlands Road & Rosebed Street Eudlo QLD 4554Australia,Eudlo State School,yellow,0.6436828506,0.8942612084,Local,152.958103,-26.726437
Leo Street Eulo QLD 4491Australia,Eulo State School,yellow,0.9878733103,0.9743364041,Local,145.050435,-28.157516
22 Caplick Way Eumundi QLD 4562Australia,Eumundi State School,yellow,0.8226007346,0.5725439494,Local,152.952188,-26.473072
36 Eungella Dam Road Eungella QLD 4757Australia,Eungella State School,yellow,0.3213687342,0.9910909835,Local,148.491207,-21.134465
668 Stafford Road Everton Park QLD 4053Australia,Everton Park State High School,yellow,0.6689959264,0.1197071831,Local,152.99759,-27.407629
Deakin Street Everton Park QLD 4053Australia,Everton Park State School,yellow,0.6985010906,0.8185000812,Local,152.985555,-27.39834
75 McDougall Street Wilsonton QLD 4350Australia,Fairview Heights State School,yellow,0.01914690165,0.08228158167,Local,151.911557,-27.535058
Chidlow Street Farleigh QLD 4741Australia,Farleigh State School,yellow,0.3585257561,0.9707940634,Local,149.101838,-21.106606
8 Hinz Avenue Farnborough QLD 4703Australia,Farnborough State School,yellow,0.1210244906,0.03224961015,Local,150.737161,-23.076313
40 Middle Creek Road Federal QLD 4568Australia,Federal State School,yellow,0.2194211516,0.9679852027,Local,152.79433,-26.392944
Feluga Road Feluga QLD 4854Australia,Feluga State School,yellow,0.5745366431,0.5066830407,Local,145.965223,-17.880704
8 Regents Drive Redbank Plains QLD 4301Australia,Fernbrooke State School,yellow,0.6991991827,0.3159832759,Local,152.8453,-27.6619
Brisbane Valley Highway Fernvale QLD 4306Australia,Fernvale State School,yellow,0.02732062363,0.4815304976,Local,152.644116,-27.446767
McGinn Road Ferny Grove QLD 4055Australia,Ferny Grove State High School,yellow,0.04729528436,0.8482691464,Local,152.933792,-27.405719
Finvoy Street Ferny Grove QLD 4055Australia,Ferny Grove State School,yellow,0.4225000051,0.8314899385,Local,152.929123,-27.40276
Illuta Avenue Ferny Hills QLD 4055Australia,Ferny Hills State School,yellow,0.5923181868,0.1667058735,Local,152.943389,-27.40209
Cubberla Street Fig Tree Pocket QLD 4069Australia,Fig Tree Pocket State School,yellow,0.4473627194,0.2445025762,Local,152.965677,-27.526982
Eungella Road Finch Hatton QLD 4756Australia,Finch Hatton State School,yellow,0.5556042972,0.9512927059,Local,148.638569,-21.139481
Norris Road North Mackay QLD 4740Australia,Fitzgerald State School,yellow,0.7157054985,0.3572558594,Local,149.168154,-21.11517
56 Flagstone School Road Flagstone Creek QLD 4344Australia,Flagstone Creek State School,yellow,0.8544350706,0.7221450593,Local,152.114996,-27.615575
Cnr Homestead Drive & Poinciana Drive Jimboomba QLD 4280Australia,Flagstone State Community College,yellow,0.1316292383,0.4571853575,Local,152.956361,-27.807223
Poinciana Drive Jimboomba QLD 4280Australia,Flagstone State School,yellow,0.6244403122,0.2317090288,Local,152.957325,-27.807173
Maud Street Flying Fish Point QLD 4860Australia,Flying Fish Point State School,yellow,0.8288585947,0.9568164119,Local,146.075058,-17.499614
Church Street Forest Hill QLD 4342Australia,Forest Hill State School,yellow,0.02762402062,0.0411962111,Local,152.354382,-27.590537
High Street Forest Lake QLD 4078Australia,Forest Lake State High School,yellow,0.05719850847,0.9878883175,Local,152.971524,-27.62451
Kauri Place Forest Lake QLD 4078Australia,Forest Lake State School,yellow,0.2806137416,0.9924511843,Local,152.958935,-27.613687
40 Pandanus Street Forrest Beach QLD 4850Australia,Forrest Beach State School,yellow,0.3965292496,0.8855549113,Local,146.29434,-18.711429
Third Street Forsayth QLD 4871Australia,Forsayth State School,yellow,0.7371481238,0.2249399549,Local,143.602532,-18.589736
82 School Road Freestone QLD 4370Australia,Freestone State School,yellow,0.7187805254,0.03705790135,Local,152.137777,-28.135535
Frenchville Road Frenchville QLD 4701Australia,Frenchville State School,yellow,0.2894818444,0.1072750209,Local,150.543874,-23.341814
10 Corkill Street Freshwater QLD 4870Australia,Freshwater State School,yellow,0.3896146226,0.5546194772,Local,145.714112,-16.88027
189 Stenner Street Centenary Heights QLD 4350Australia,Gabbinbar State School,yellow,0.3153007208,0.9536686952,Local,151.969248,-27.595978
76 Chandler Street Garbutt QLD 4814Australia,Garbutt State School,yellow,0.3040871331,0.498903996,Local,146.775562,-19.261875
Tom Lynch Street Gargett QLD 4741Australia,Gargett State School,yellow,0.8899043511,0.6779331988,Local,148.740792,-21.155788
26 William Street Gatton QLD 4343Australia,Gatton State School,yellow,0.4843433399,0.9272481684,Local,152.278366,-27.560199
Universal Street Oxenford QLD 4210Australia,Gaven State School,yellow,0.007827129627,0.6011224097,Local,153.305156,-27.919695
33 Meson Street Gayndah QLD 4625Australia,Gayndah State School,yellow,0.1324469469,0.8699627089,Local,151.605979,-25.623852
Beau Vista Street Geebung QLD 4034Australia,Geebung Special School,yellow,0.1137330334,0.4736369302,Local,153.050949,-27.378541
250 Newman Road Geebung QLD 4034Australia,Geebung State School,yellow,0.2277274776,0.4483582592,Local,153.046642,-27.375188
9625 New England Highway Geham QLD 4352Australia,Geham State School,yellow,0.3293334027,0.3985903388,Local,151.99591,-27.406355
High Street Georgetown QLD 4871Australia,Georgetown State School,yellow,0.9855710077,0.7397512238,Local,143.547383,-18.294762
588 Worongary Road Gilston QLD 4211Australia,Gilston State School,yellow,0.3812410586,0.7504615598,Local,153.310862,-28.03949
30 High School Road Gin Gin QLD 4671Australia,Gin Gin State High School,yellow,0.753368605,0.6675559275,Local,151.968924,-24.990613
13 May Street Gin Gin QLD 4671Australia,Gin Gin State School,yellow,0.3840880396,0.3715343981,Local,151.955135,-24.992476
Cnr Old Cullen-la-ringo Road & Gregory Hwy Gindie QLD 4702Australia,Gindie State School,yellow,0.2093756374,0.1486713725,Local,148.140858,-23.724251
Luxton Street Giru QLD 4809Australia,Giru State School,yellow,0.3138986697,0.2983521077,Local,147.109674,-19.51294
754 Pine Creek Road Givelda QLD 4670Australia,Givelda State School,yellow,0.05152399628,0.9657225872,Local,152.149213,-24.987574
74 Auckland Street Gladstone Central QLD 4680Australia,Gladstone Central State School,yellow,0.2186230736,0.02139119125,Local,151.257639,-23.841864
153 Toolooa Street South Gladstone QLD 4680Australia,Gladstone South State School,yellow,0.7157687327,0.3483177451,Local,151.270427,-23.86177
30 Dawson Road West Gladstone QLD 4680Australia,Gladstone State High School,yellow,0.9559012003,0.8133854949,Local,151.25087,-23.851617
Boles Street West Gladstone QLD 4680Australia,Gladstone West State School,yellow,0.0473394355,0.04533414352,Local,151.252587,-23.85974
750 Glamorgan Vale Road Glamorgan Vale QLD 4306Australia,Glamorgan Vale State School,yellow,0.5225405941,0.9752081024,Local,152.632362,-27.51499
58 Coonowrin Road Glass House Mountains QLD 4518Australia,Glass House Mountains State School,yellow,0.2633055859,0.7493472384,Local,152.949457,-26.905549
54 Mount Stirling Road Glen Aplin QLD 4381Australia,Glen Aplin State School,yellow,0.8458558123,0.9429448533,Local,151.873032,-28.738785
Glenala Road Durack QLD 4077Australia,Glenala State High School,yellow,0.9911547124,0.09466939303,Local,152.980324,-27.586156
Gillham Terrace Glenden QLD 4743Australia,Glenden State School,yellow,0.2439312505,0.07577032037,Local,148.115806,-21.353964
126-146 Mount Lindesay Highway Gleneagle QLD 4285Australia,Gleneagle State School,yellow,0.6456205831,0.0920653514,Local,152.982453,-27.937813
35-55 Hill End Road Glenella QLD 4740Australia,Glenella State School,yellow,0.6300331942,0.6014632115,Local,149.149354,-21.121496
Cnr Bruce Highway & Farm Street Kawana QLD 4701Australia,Glenmore State High School,yellow,0.9147881834,0.7860639173,Local,150.51673,-23.336348
241-259 Farm Street Kawana QLD 4701Australia,Glenmore State School,yellow,0.9358108078,0.6348749392,Local,150.514857,-23.337283
Clive Street Glenmorgan QLD 4423Australia,Glenmorgan State School,yellow,0.6665411579,0.1248865805,Local,149.675501,-27.247455
5-12 Gillam Street Warwick QLD 4370Australia,Glennie Heights State School,yellow,0.1585904513,0.4043919074,Local,152.02916,-28.201054
3 Brightview Road Glenore Grove QLD 4342Australia,Glenore Grove State School,yellow,0.1577064732,0.5183654156,Local,152.408056,-27.52996
224 Glenvale Road Glenvale QLD 4350Australia,Glenvale State School,yellow,0.8999808288,0.8224079212,Local,151.902838,-27.562532
6 Leeding Road Glenview QLD 4553Australia,Glenview State School,yellow,0.03078998519,0.3258240837,Local,153.01367,-26.765658
13 Glenwood School Road Glenwood QLD 4570Australia,Glenwood State School,yellow,0.256171435,0.3180505348,Local,152.602633,-25.949605
10 Wills Street Gogango QLD 4702Australia,Gogango State School,yellow,0.2169858772,0.563747278,Local,150.044426,-23.664791
Gregory Street Golden Beach QLD 4551Australia,Golden Beach State School,yellow,0.4447201573,0.4138809675,Local,153.116844,-26.814446
14 Gooburrum Road Gooburrum QLD 4670Australia,Gooburrum State School,yellow,0.5291818778,0.4521658392,Local,152.305952,-24.822707
65 Queen Street Goodna QLD 4300Australia,Goodna Special School,yellow,0.6082906436,0.8730144077,Local,152.893908,-27.615256
1 Albert Street Goodna QLD 4300Australia,Goodna State School,yellow,0.4249712343,0.02903596715,Local,152.893662,-27.606915
1802 Goodwood Road Goodwood QLD 4660Australia,Goodwood State School,yellow,0.8227131059,0.369083705,Local,152.384585,-25.145511
52 Mocatta Street Goombungee QLD 4354Australia,Goombungee State School,yellow,0.1472214943,0.9534926825,Local,151.852555,-27.302058
5 Munro Street Goomeri QLD 4601Australia,Goomeri State School,yellow,0.4549073972,0.5386959255,Local,152.064895,-26.17965
78 Maple Street Goondi Bend QLD 4860Australia,Goondi State School,yellow,0.2085391213,0.7917091348,Local,146.009903,-17.522819
3 Sandhurst Street Goondiwindi QLD 4390Australia,Goondiwindi State High School,yellow,0.6656206429,0.9645082537,Local,150.297467,-28.537537
34 George Street Goondiwindi QLD 4390Australia,Goondiwindi State School,yellow,0.9760083145,0.5331952034,Local,150.306236,-28.543231
Rannes Road Goovigen QLD 4702Australia,Goovigen State School,yellow,0.03259569683,0.1067759627,Local,150.286434,-24.143232
85 Sheppards Street Gordonvale QLD 4865Australia,Gordonvale State High School,yellow,0.933871057,0.8207200945,Local,145.778389,-17.088716
28 George Street Gordonvale QLD 4865Australia,Gordonvale State School,yellow,0.9817010999,0.4522016227,Local,145.785022,-17.090076
Old Homebush Road Gowrie Junction QLD 4352Australia,Gowrie State School,yellow,0.05435482055,0.3936452356,Local,151.891457,-27.491555
O'Shanesy Street Gracemere QLD 4702Australia,Gracemere State School,yellow,0.9567170879,0.1811416915,Local,150.453919,-23.435185
23 Acacia Avenue Graceville QLD 4075Australia,Graceville State School,yellow,0.5906432899,0.5423055239,Local,152.978762,-27.517575
Cnr Centennial Way & Grand Avenue Forest Lake QLD 4078Australia,Grand Avenue State School,yellow,0.03288624034,0.4677028278,Local,152.958183,-27.626041
School Road Grandchester QLD 4340Australia,Grandchester State School,yellow,0.521024435,0.9501784521,Local,152.465345,-27.665537
15 Victor Street Grantham QLD 4347Australia,Grantham State School,yellow,0.9850017074,0.1219869512,Local,152.202048,-27.574099
Cambridge Street Granville QLD 4650Australia,Granville State School,yellow,0.8195394337,0.1609319955,Local,152.715473,-25.53851
12-54 Goodna Road Greenbank QLD 4124Australia,Greenbank State School,yellow,0.6577192474,0.6597206758,Local,152.97767,-27.710389
1209 Texas Road Greenlands QLD 4380Australia,Greenlands State School,yellow,0.705995237,0.04904419333,Local,151.827463,-28.660808
Haldon Street Greenmount QLD 4359Australia,Greenmount State School,yellow,0.853944634,0.04173144612,Local,151.906796,-27.789365
559 Logan Road Greenslopes QLD 4120Australia,Greenslopes State School,yellow,0.03699193377,0.0955381882,Local,153.049819,-27.50665
Cassia Court Greenvale QLD 4816Australia,Greenvale State School,yellow,0.8565607186,0.2642085525,Local,144.980551,-18.999118
19 Wesley Road Griffin QLD 4503Australia,Griffin State School,yellow,0.03965597143,0.9744789591,Local,153.024444,-27.256667
2524 Grosmont Road Grosmont QLD 4419Australia,Grosmont State School,yellow,0.1294232948,0.7004151182,Local,149.803086,-25.977791
200 Dawson Parade Keperra QLD 4054Australia,Grovely State School,yellow,0.6610588753,0.9412286076,Local,152.961386,-27.401916
Fosters Road Guluguba QLD 4418Australia,Guluguba State School,yellow,0.7054690679,0.5954922247,Local,150.044162,-26.25671
677 New Cleveland Road Gumdale QLD 4154Australia,Gumdale State School,yellow,0.9088401836,0.7800594912,Local,153.152432,-27.491803
De Salis Street Gumlu QLD 4805Australia,Gumlu State School,yellow,0.2629422338,0.3982238041,Local,147.685879,-19.879427
King Street Gunalda QLD 4570Australia,Gunalda State School,yellow,0.6923424079,0.6165752441,Local,152.560432,-25.992745
23 Gundiah School Road Gundiah QLD 4650Australia,Gundiah State School,yellow,0.9151614298,0.677107478,Local,152.546447,-25.842417
Lawrence Street Gympie QLD 4570Australia,Gympie Central State School,yellow,0.8386052422,0.7294920771,Local,152.664619,-26.188654
219 Cedar Pocket Road Greens Creek QLD 4570Australia,Gympie East State School,yellow,0.2949117204,0.2128024857,Local,152.73272,-26.179851
50 Exhibition Road Southside QLD 4570Australia,Gympie South State School,yellow,0.1538546626,0.6066834809,Local,152.645434,-26.199809
52 Cootharaba Road Gympie QLD 4570Australia,Gympie Special School,yellow,0.6014613563,0.4850031764,Local,152.680818,-26.187869
2 Everson Road Gympie QLD 4570Australia,Gympie State High School,yellow,0.6286621051,0.8819939962,Local,152.67812,-26.188369
41 Cartwright Road Gympie QLD 4570Australia,Gympie West State School,yellow,0.8963662126,0.1790124441,Local,152.662105,-26.173838
1520 Haden-Crow's Nest Road Haden QLD 4353Australia,Haden State School,yellow,0.143737906,0.4621782404,Local,151.889278,-27.224126
Thagoona-Haigslea Road Haigslea QLD 4306Australia,Haigslea State School,yellow,0.08363965972,0.5257664378,Local,152.629711,-27.571711
17 Victoria Terrace Halifax QLD 4850Australia,Halifax State School,yellow,0.3233621352,0.1074236554,Local,146.284602,-18.583644
77-83 Stokes Street Edmonton QLD 4869Australia,Hambledon State School,yellow,0.690529039,0.258788411,Local,145.735657,-17.021212
Hamilton Island Whitsundays QLD 4803Australia,Hamilton Island State School,yellow,0.5047448747,0.9642669429,Local,148.953014,-20.345236
Oxford Street Hamilton QLD 4007Australia,Hamilton State School,yellow,0.7770544923,0.7225259228,Local,153.073729,-27.432705
2880 Bruce Highway Hampden QLD 4741Australia,Hampden State School,yellow,0.1441475747,0.06631526903,Local,148.931147,-21.060175
Hannaford Road Hannaford QLD 4406Australia,Hannaford State School,yellow,0.04562950342,0.1987522297,Local,150.060782,-27.340412
Brilliant Street Happy Valley QLD 4825Australia,Happy Valley State School,yellow,0.3643855358,0.6160353334,Local,139.491008,-20.744912
110 Ruthven Street Harlaxton QLD 4350Australia,Harlaxton State School,yellow,0.4964970388,0.8311897283,Local,151.954521,-27.539861
Brisbane Valley Highway Harlin QLD 4306Australia,Harlin State School,yellow,0.7633712763,0.9399748619,Local,152.357408,-26.974095
10-38 Smith Road Woodridge QLD 4114Australia,Harris Fields State School,yellow,0.780378708,0.6232389155,Local,153.115619,-27.629999
341-367 South Street Harristown QLD 4350Australia,Harristown State High School,yellow,0.04964676,0.3701324283,Local,151.931777,-27.574685
332 South Street Harristown QLD 4350Australia,Harristown State School,yellow,0.7366489928,0.8596739504,Local,151.933922,-27.575209
17 Hall Street Harrisville QLD 4307Australia,Harrisville State School,yellow,0.5483926804,0.9457933663,Local,152.66738,-27.812686
Hannant Road Hatton Vale QLD 4341Australia,Hatton Vale State School,yellow,0.4735102457,0.9603917268,Local,152.47098,-27.543442
Hayman Island Whitsundays QLD 4802Australia,Hayman Island State School,yellow,0.1301908173,0.7530009002,Local,148.887307,-20.056528
5-9 Thomson Road Healy QLD 4825Australia,Healy State School,yellow,0.7460581869,0.2127781933,Local,139.500247,-20.741926
Cnr Hanlon Street & Fulham Road Heatley QLD 4814Australia,Heatley Secondary College,yellow,0.654855584,0.9229332733,Local,146.755203,-19.286632
410 Fulham Road Heatley QLD 4814Australia,Heatley State School,yellow,0.3187922457,0.04898226404,Local,146.74918,-19.293818
Maud Street Hebel QLD 4486Australia,Hebel State School,yellow,0.5939392357,0.7958091452,Local,147.791029,-28.970971
243 Discovery Drive Helensvale QLD 4212Australia,Helensvale State High School,yellow,0.461038391,0.5353642591,Local,153.326775,-27.898194
8 Lindfield Road Helensvale QLD 4212Australia,Helensvale State School,yellow,0.09805459368,0.5235451675,Local,153.327968,-27.915934
16 School Street Helidon QLD 4344Australia,Helidon State School,yellow,0.7169166754,0.523611929,Local,152.125747,-27.555069
309 Nudgee Road Hendra QLD 4011Australia,Hendra State School,yellow,0.4089482365,0.4322412078,Local,153.074494,-27.421238
Elwyn Phillips Memorial Drive Moomin QLD 4887Australia,Herberton State School,yellow,0.6158997607,0.4764944961,Local,145.379085,-17.372335
Hercules Road Kippa-Ring QLD 4021Australia,Hercules Road State School,yellow,0.18129598,0.7946701503,Local,153.079324,-27.220966
Cnr Surrey & Sussex Streets Hyde Park QLD 4812Australia,Hermit Park State School,yellow,0.04567239152,0.3259509212,Local,146.796543,-19.280047
23 Frangipanni Avenue Kawungan QLD 4655Australia,Hervey Bay Special School,yellow,0.9754816997,0.2733009212,Local,152.85235,-25.296301
Beach Road Pialba QLD 4655Australia,Hervey Bay State High School,yellow,0.5959162247,0.8471856016,Local,152.832275,-25.281911
10459 New England Highway Highfields QLD 4352Australia,Highfields State School,yellow,0.9101594903,0.1859847424,Local,151.955722,-27.462877
10 O'Brien Road Highfields QLD 4352Australia,Highfields State Secondary College,yellow,0.2998082673,0.9396712144,Local,151.951111,-27.446667
570 Reserve Road Upper Coomera QLD 4209Australia,Highland Reserve State School,yellow,0.2221883406,0.9192864303,Local,153.282923,-27.892907
Kaloma Road The Gap QLD 4061Australia,Hilder Road State School,yellow,0.8494356009,0.8944346624,Local,152.937219,-27.436814
Cnr Alexandra Circuit & Hanover Drive Alexandra Hills QLD 4161Australia,Hilliard State School,yellow,0.271567366,0.2685440549,Local,153.230052,-27.542245
1623 Christmas Creek Road Hillview QLD 4285Australia,Hillview State School,yellow,0.5419922701,0.1967294882,Local,153.004563,-28.211731
Bapaume Road Holland Park West QLD 4121Australia,Holland Park State High School,yellow,0.3502890602,0.2190913717,Local,153.059413,-27.530973
59 Abbotsleigh Street Holland Park QLD 4121Australia,Holland Park State School,yellow,0.9255394543,0.6641732202,Local,153.062824,-27.513775
First Street Home Hill QLD 4806Australia,Home Hill State High School,yellow,0.5065665927,0.6996800341,Local,147.423322,-19.667788
113 Fourteenth Avenue Home Hill QLD 4806Australia,Home Hill State School,yellow,0.3562731828,0.7526565262,Local,147.417063,-19.653358
1181 Homebush Road Homebush QLD 4740Australia,Homebush State School,yellow,0.4796807851,0.1369889622,Local,149.050378,-21.27585
Flinders Highway Homestead QLD 4816Australia,Homestead State School,yellow,0.4536581929,0.6758058862,Local,145.657327,-20.360735
108 William Street Howard QLD 4659Australia,Howard State School,yellow,0.755730905,0.2192105789,Local,152.557835,-25.321935
12 Moran Street Hughenden QLD 4821Australia,Hughenden State School,yellow,0.7454509086,0.578509166,Local,144.196541,-20.845948
Ernest Street Margate QLD 4019Australia,Humpybong State School,yellow,0.7008630636,0.137055232,Local,153.108737,-27.246227
20 McMaster Drive Ilfracombe QLD 4727Australia,Ilfracombe State School,yellow,0.6315480512,0.3809897007,Local,144.504625,-23.489007
Rosemary Street Inala QLD 4077Australia,Inala State School,yellow,0.7060885807,0.7121158803,Local,152.976809,-27.586839
Ward Street Indooroopilly QLD 4068Australia,Indooroopilly State High School,yellow,0.1637618075,0.06714097839,Local,152.984077,-27.500587
Cnr Moggill Road & Russell Terrace Indooroopilly QLD 4068Australia,Indooroopilly State School,yellow,0.2865937881,0.2453877649,Local,152.965494,-27.500369
12 Menzies Street Ingham QLD 4850Australia,Ingham State High School,yellow,0.03803637535,0.1293104714,Local,146.168634,-18.653759
28 McIlwraith Street Ingham QLD 4850Australia,Ingham State School,yellow,0.1184824361,0.622838504,Local,146.161583,-18.652592
893 Tallebudgera Creek Road Tallebudgera Valley QLD 4228Australia,Ingleside State School,yellow,0.6262850713,0.6014482892,Local,153.381492,-28.165698
Chilcott Street Inglewood QLD 4387Australia,Inglewood State School,yellow,0.06717986893,0.2002759823,Local,151.07706,-28.416159
Cnr Hutton Street & Fourth Avenue Injune QLD 4454Australia,Injune P-10 State School,yellow,0.8369407614,0.6135121903,Local,148.565118,-25.846756
92 Mourilyan Road East Innisfail QLD 4860Australia,Innisfail East State School,yellow,0.3642681531,0.2563630681,Local,146.032726,-17.534788
45 Flying Fish Point Road Innisfail Estate QLD 4860Australia,Innisfail State College,yellow,0.08647674198,0.6822473718,Local,146.036966,-17.515998
7 Emily Street Innisfail QLD 4860Australia,Innisfail State School,yellow,0.2233098046,0.3504793383,Local,146.028033,-17.518385
Griffith Road Ipswich QLD 4305Australia,Ipswich Central State School,yellow,0.6885693042,0.01693620084,Local,152.768337,-27.621743
Jacaranda Street East Ipswich QLD 4305Australia,Ipswich East State School,yellow,0.3502572525,0.7512320578,Local,152.776929,-27.606886
Downs Street North Ipswich QLD 4305Australia,Ipswich North State School,yellow,0.5232372232,0.9634392514,Local,152.763337,-27.601856
2a Milford Street Ipswich QLD 4305Australia,Ipswich Special School,yellow,0.0003337123883,0.2117697863,Local,152.766603,-27.613986
1 Hunter Street Brassall QLD 4305Australia,Ipswich State High School,yellow,0.9352071887,0.3358257775,Local,152.746452,-27.59107
Cnr Omar & Tiger Streets West Ipswich QLD 4305Australia,Ipswich West Special School,yellow,0.4608109573,0.7596538754,Local,152.751844,-27.61952
Cnr Omar & Keogh Streets West Ipswich QLD 4305Australia,Ipswich West State School,yellow,0.4289188975,0.7921183741,Local,152.750672,-27.620742
2 Hawken Drive St Lucia QLD 4067Australia,Ironside State School,yellow,0.09789748861,0.8418945316,Local,152.995977,-27.500916
High Street Irvinebank QLD 4887Australia,Irvinebank State School,yellow,0.8769966931,0.5991528853,Local,145.204117,-17.426885
Walker Road Edmonton QLD 4869Australia,Isabella State School,yellow,0.3959911024,0.1198594967,Local,145.723113,-17.015655
3 Ridgway Street Childers QLD 4660Australia,Isis District State High School,yellow,0.6396798111,0.1012814714,Local,152.273974,-25.2331
14 St Helena Street Isisford QLD 4731Australia,Isisford State School,yellow,0.7388371764,0.4441155278,Local,144.439537,-24.260267
Lugg Street Bardon QLD 4065Australia,Ithaca Creek State School,yellow,0.2046162175,0.9586231163,Local,152.991328,-27.451296
Threeways Road Smoky Creek QLD 4702Australia,Jambin State School,yellow,0.03467464086,0.05586376427,Local,150.375125,-24.173892
35 Beanland Street Jamboree Heights QLD 4074Australia,Jamboree Heights State School,yellow,0.6995898817,0.752792595,Local,152.92896,-27.554888
109 Myall Street Gympie QLD 4570Australia,James Nash State High School,yellow,0.6712398311,0.8594818745,Local,152.656069,-26.175895
44 George Street Jandowae QLD 4410Australia,Jandowae Prep-10 State School,yellow,0.9051651751,0.8715150723,Local,151.112743,-26.779723
Rita Island Road Jarvisfield QLD 4807Australia,Jarvisfield State School,yellow,0.7015374192,0.6897879197,Local,147.46062,-19.600929
Pasteur Street Jericho QLD 4728Australia,Jericho State School,yellow,0.1998957932,0.6782608708,Local,146.129486,-23.604222
Mount Lindesay Highway Jimboomba QLD 4280Australia,Jimboomba State School,yellow,0.6075772356,0.8579912958,Local,153.026552,-27.829977
Dalby-Jandowae Road Jimbour East QLD 4406Australia,Jimbour State School,yellow,0.2076604419,0.8490104361,Local,151.21639,-26.963026
114 Burrendah Road Jindalee QLD 4074Australia,Jindalee State School,yellow,0.4668142551,0.9018992197,Local,152.934937,-27.529897
50 Cottontree Drive Narangba QLD 4504Australia,Jinibara State School,yellow,0.7848506968,0.4154870872,Local,152.949925,-27.181091
Scott Road Jondaryan QLD 4403Australia,Jondaryan State School,yellow,0.8548185258,0.388797121,Local,151.585812,-27.373065
21 McIntosh Creek Road Jones Hill QLD 4570Australia,Jones Hill State School,yellow,0.3845510909,0.4926711132,Local,152.667669,-26.229163
1141 Euluma Creek Road Julatten QLD 4871Australia,Julatten State School,yellow,0.3577407745,0.8235243195,Local,145.342147,-16.607776
Burke Street Julia Creek QLD 4823Australia,Julia Creek State School,yellow,0.7655153815,0.8881353621,Local,141.74635,-20.656879
50 Waldheim Street Annerley QLD 4103Australia,Junction Park State School,yellow,0.139428041,0.1996169223,Local,153.035399,-27.509908
11 Garrick Street Jundah QLD 4736Australia,Jundah State School,yellow,0.4756571731,0.7917195279,Local,143.06199,-24.830497
Messenger Street Kaimkillenbun QLD 4406Australia,Kaimkillenbun State School,yellow,0.6105838406,0.4979921121,Local,151.432011,-27.058298
McGeehan Street Kairi QLD 4872Australia,Kairi State School,yellow,0.5329365499,0.5262861297,Local,145.545944,-17.215185
Lilliesmere Road Brandon QLD 4808Australia,Kalamia State School,yellow,0.8811547938,0.4854989255,Local,147.417643,-19.518579
George Street Kalbar QLD 4309Australia,Kalbar State School,yellow,0.2509393976,0.9037784351,Local,152.623878,-27.942164
Bargara Road Kalkie QLD 4670Australia,Kalkie State School,yellow,0.3421665904,0.4947629381,Local,152.397447,-24.846446
139 School Road Kallangur QLD 4503Australia,Kallangur State School,yellow,0.2121090776,0.07552680321,Local,152.992878,-27.248737
84 Main Street Kandanga QLD 4570Australia,Kandanga State School,yellow,0.4195195707,0.4771028496,Local,152.680138,-26.387454
77 Arthur Summervilles Road Karalee QLD 4306Australia,Karalee State School,yellow,0.9785053331,0.891726384,Local,152.825435,-27.562695
Karara School Road Karara QLD 4352Australia,Karara State School,yellow,0.2697942765,0.5118998917,Local,151.565222,-28.20371
5 Yappar Street Karumba QLD 4891Australia,Karumba State School,yellow,0.2481280497,0.692236154,Local,140.840317,-17.482928
119 Sportsmans Parade Bokarina QLD 4575Australia,Kawana Waters State College,yellow,0.946906153,0.1286508653,Local,153.126435,-26.740976
Grevillea Street Kawungan QLD 4655Australia,Kawungan State School,yellow,0.8142589144,0.1393251561,Local,152.849605,-25.29725
Park Road Kedron QLD 4031Australia,Kedron State High School,yellow,0.3584872681,0.2520387568,Local,153.039774,-27.415376
Leckie Road Kedron QLD 4031Australia,Kedron State School,yellow,0.865936981,0.1727189635,Local,153.034837,-27.406408
Anne Street Southport QLD 4215Australia,Keebra Park State High School,yellow,0.1521626919,0.3157053791,Local,153.399326,-27.984785
Yvette Street Kelso QLD 4815Australia,Kelso State School,yellow,0.8795989877,0.4182756058,Local,146.726402,-19.388601
L'Estrange Terrace Kelvin Grove QLD 4059Australia,Kelvin Grove State College,yellow,0.5244274438,0.1070125613,Local,153.011869,-27.449719
3717 Maleny-Kenilworth Road Kenilworth QLD 4574Australia,Kenilworth State Community College,yellow,0.5950785901,0.4138469079,Local,152.725772,-26.599172
16 Kersley Road Kenmore QLD 4069Australia,Kenmore South State School,yellow,0.8286196766,0.2029297157,Local,152.943789,-27.518966
60 Aberfeldy Street Kenmore QLD 4069Australia,Kenmore State High School,yellow,0.3435737336,0.8293577112,Local,152.929695,-27.508328
2052 Moggill Road Kenmore QLD 4069Australia,Kenmore State School,yellow,0.7735242631,0.436287394,Local,152.938485,-27.508719
161 Kennedy Creek Road Kennedy QLD 4816Australia,Kennedy State School,yellow,0.3008541819,0.4528619997,Local,145.942143,-18.209287
Turpin Road Kentville QLD 4341Australia,Kentville State School,yellow,0.95043055,0.6919878901,Local,152.427272,-27.479026
Kepnock Road Kepnock QLD 4670Australia,Kepnock State High School,yellow,0.07589670488,0.0903115246,Local,152.377267,-24.876217
1325 Keppel Sands Road Keppel Sands QLD 4702Australia,Keppel Sands State School,yellow,0.4040065644,0.4743653755,Local,150.786362,-23.3276
2754 Anderleigh Road Kia Ora QLD 4570Australia,Kia-Ora State School,yellow,0.4132979862,0.6839990453,Local,152.777399,-26.028495
Seib Street Kilcoy QLD 4515Australia,Kilcoy State High School,yellow,0.9711414194,0.1097399216,Local,152.567279,-26.93974
47 Royston Street Kilcoy QLD 4515Australia,Kilcoy State School,yellow,0.6872309547,0.8931150161,Local,152.561848,-26.945613
190 East West Road Kilcummin QLD 4721Australia,Kilcummin State School,yellow,0.1519466507,0.1523111225,Local,147.546963,-22.407984
6 Council Street Kilkivan QLD 4600Australia,Kilkivan State School,yellow,0.2953726946,0.09958295918,Local,152.241373,-26.087733
Acacia Street Killarney QLD 4373Australia,Killarney P-10 State School,yellow,0.3483959972,0.5468885905,Local,152.297866,-28.341322
Floret Street Shailer Park QLD 4128Australia,Kimberley Park State School,yellow,0.02314756766,0.3033152094,Local,153.177399,-27.647368
Main Street Kin Kin QLD 4571Australia,Kin Kin State School,yellow,0.4086227197,0.3685581548,Local,152.871899,-26.262419
43 Hibiscus Avenue Kin Kora QLD 4680Australia,Kin Kora State School,yellow,0.941792371,0.6532577297,Local,151.253535,-23.878189
14034 Gore Highway Kindon QLD 4390Australia,Kindon State School,yellow,0.5486820352,0.5072343813,Local,150.73942,-28.0801
Toomey Street Kingaroy QLD 4610Australia,Kingaroy State High School,yellow,0.4281646418,0.4240687301,Local,151.832312,-26.542982
61 Alford Street Kingaroy QLD 4610Australia,Kingaroy State School,yellow,0.8886258324,0.4941511911,Local,151.833171,-26.540382
Goombungee Road Kingsthorpe QLD 4400Australia,Kingsthorpe State School,yellow,0.4498792977,0.09300268849,Local,151.814523,-27.47193
62-84 Bega Road Kingston QLD 4114Australia,Kingston State College,yellow,0.03602548228,0.7776943417,Local,153.112162,-27.664135
50 Juers Street Kingston QLD 4114Australia,Kingston State School,yellow,0.3462731772,0.7975480091,Local,153.111556,-27.659467
Kioma Road Kioma QLD 4498Australia,Kioma State School,yellow,0.3776178879,0.1475807288,Local,149.794011,-28.21724
400 Elizabeth Avenue Kippa-Ring QLD 4021Australia,Kippa-Ring State School,yellow,0.9538603456,0.8615927538,Local,153.086468,-27.230427
Hudson Street Kirwan QLD 4817Australia,Kirwan State High School,yellow,0.998538756,0.6792414576,Local,146.7339,-19.308901
21 Burnda Street Kirwan QLD 4817Australia,Kirwan State School,yellow,0.07435600058,0.2663697151,Local,146.733378,-19.299305
High Street Kogan QLD 4406Australia,Kogan State School,yellow,0.4386465833,0.5243663692,Local,150.757866,-27.038224
2297 Gin Gin Road South Kolan QLD 4670Australia,Kolan South State School,yellow,0.9640099879,0.9121588434,Local,152.17607,-24.934078
Bull Street Koumala QLD 4738Australia,Koumala State School,yellow,0.8167290689,0.1089207313,Local,149.243381,-21.607081
345 Kowanyama Street Kowanyama QLD 4892Australia,Kowanyama State School,yellow,0.7349059813,0.2677010565,Local,141.745196,-15.472102
Kruger Parade Bellbird Park QLD 4300Australia,Kruger State School,yellow,0.205923907,0.816544576,Local,152.874876,-27.628942
9 Beckman Street Kulpi QLD 4352Australia,Kulpi State School,yellow,0.3020453744,0.5365045235,Local,151.699922,-27.186593
Tallow Wood Drive Kuluin QLD 4558Australia,Kuluin State School,yellow,0.5274735474,0.03309813548,Local,153.057999,-26.659888
Bell Street Kumbia QLD 4610Australia,Kumbia State School,yellow,0.7844498535,0.7827008912,Local,151.651555,-26.693276
83 Alpita Street Kuraby QLD 4112Australia,Kuraby Special School,yellow,0.6449741661,0.507217796,Local,153.091322,-27.606221
1523 Beenleigh Road Kuraby QLD 4112Australia,Kuraby State School,yellow,0.07418034123,0.5538353199,Local,153.096214,-27.606868
260 Myola Road Kuranda QLD 4881Australia,Kuranda District State College,yellow,0.7875667222,0.342098594,Local,145.617492,-16.804496
Eacham Street Petrie QLD 4502Australia,Kurwongbah State School,yellow,0.6240838473,0.4139513065,Local,152.969074,-27.255658
Gordon Street Labrador QLD 4215Australia,Labrador State School,yellow,0.9080579119,0.5753207433,Local,153.402486,-27.942222
232 Patrick Street Laidley QLD 4341Australia,Laidley District State School,yellow,0.3732443446,0.4575568258,Local,152.395366,-27.623685
98 Alfred Street Laidley QLD 4341Australia,Laidley State High School,yellow,0.09074749097,0.2263896471,Local,152.404472,-27.636226
35 Lake Clarendon Road Lake Clarendon QLD 4343Australia,Lake Clarendon State School,yellow,0.1285273485,0.3135362733,Local,152.358283,-27.521656
Cnr Peninsula & Cooktown Development Roads Lakeland QLD 4871Australia,Lakeland State School,yellow,0.6637779646,0.8957600677,Local,144.856886,-15.856902
445 Paterson Street Lakes Creek QLD 4701Australia,Lakes Creek State School,yellow,0.6512723839,0.3677978754,Local,150.560058,-23.375945
41 Gympie Street North Landsborough QLD 4550Australia,Landsborough State School,yellow,0.2421108868,0.4844665111,Local,152.964576,-26.804064
Terminus Street Laura QLD 4892Australia,Laura State School,yellow,0.1601009449,0.9344236099,Local,144.446925,-15.557594
Todds Road Lawnton QLD 4501Australia,Lawnton State School,yellow,0.5297739219,0.3700841248,Local,152.974784,-27.281835
72 Samford Road Leichhardt QLD 4305Australia,Leichhardt State School,yellow,0.9539726089,0.8873152533,Local,152.736926,-27.624933
34 Peter Street Leyburn QLD 4365Australia,Leyburn State School,yellow,0.3438115821,0.4225951982,Local,151.578371,-28.013244
George Street Linville QLD 4306Australia,Linville State School,yellow,0.3840349222,0.8278062111,Local,152.278164,-26.847089
Glenlee Road Lochington QLD 4722Australia,Lochington State School,yellow,0.9874111391,0.5728384651,Local,147.524548,-23.943564
Puchewoo Street Lockhart River QLD 4892Australia,Lockhart State School,yellow,0.4584775194,0.2084357985,Local,143.344195,-12.785447
17 Zabel Road Lockrose QLD 4342Australia,Lockrose State School,yellow,0.7959651996,0.256569728,Local,152.460134,-27.493647
100 William Street Gatton QLD 4343Australia,Lockyer District State High School,yellow,0.9515147397,0.9590592033,Local,152.276977,-27.566932
133 Wembley Road Logan Central QLD 4114Australia,Logan City Special School,yellow,0.4073707061,0.9487638266,Local,153.102445,-27.642369
369-379 School Road Logan Reserve QLD 4133Australia,Logan Reserve State School,yellow,0.005785044055,0.06869242637,Local,153.114472,-27.714023
North Street Logan Village QLD 4207Australia,Logan Village State School,yellow,0.06665347186,0.1756398482,Local,153.106354,-27.765317
Wandilla Crescent Loganholme QLD 4129Australia,Loganholme State School,yellow,0.8668694512,0.264968929,Local,153.180642,-27.686306
Neridah Street Loganlea QLD 4131Australia,Loganlea State High School,yellow,0.06504657848,0.8459925686,Local,153.142384,-27.673715
Sir James Walker Drive Longreach QLD 4730Australia,Longreach School of Distance Education,yellow,0.5692959052,0.4028102312,Local,144.282598,-23.441361
34  Jabiru Street Longreach QLD 4730Australia,Longreach State High School,yellow,0.2349397026,0.4787652752,Local,144.261982,-23.438258
125 Ibis Street Longreach QLD 4730Australia,Longreach State School,yellow,0.1053094307,0.424890279,Local,144.245441,-23.441341
26 Richard Street Lota QLD 4179Australia,Lota State School,yellow,0.2746558913,0.9203998918,Local,153.186299,-27.469281
6 Collins Road Lower Tully QLD 4854Australia,Lower Tully State School,yellow,0.8508533987,0.7886990522,Local,146.000587,-17.995299
3077-3083 Lowmead Road Lowmead QLD 4676Australia,Lowmead State School,yellow,0.5608008018,0.4433529246,Local,151.744988,-24.524456
Prospect Street Lowood QLD 4311Australia,Lowood State High School,yellow,0.7976197922,0.06848835898,Local,152.582497,-27.467169
Peace Street Lowood QLD 4311Australia,Lowood State School,yellow,0.02096918601,0.6962661176,Local,152.581621,-27.46578
LOT 12 Lienassie Road Lundavra QLD 4390Australia,Lundavra State School,yellow,0.4456918562,0.03510837561,Local,149.982017,-28.070234
803 Gatton-Clifton Road Ma Ma Creek QLD 4347Australia,Ma Ma Creek State School,yellow,0.5858819669,0.8366333572,Local,152.190016,-27.628832
72-116 Paradise Road Slacks Creek QLD 4127Australia,Mabel Park State High School,yellow,0.04821543866,0.8927209556,Local,153.128856,-27.639652
Borman Street Slacks Creek QLD 4127Australia,Mabel Park State School,yellow,0.7175663018,0.3184062446,Local,153.126471,-27.643124
Blackwattle Street Macgregor QLD 4109Australia,MacGregor State High School,yellow,0.2677000439,0.5086014527,Local,153.076625,-27.566037
McCullough Street Macgregor QLD 4109Australia,MacGregor State School,yellow,0.518980529,0.2298324718,Local,153.067242,-27.572214
61 Machan Street Machans Beach QLD 4878Australia,Machans Beach State School,yellow,0.2029644059,0.4107180795,Local,145.744987,-16.852629
Alfred Street Mackay QLD 4740Australia,Mackay Central State School,yellow,0.9705244328,0.780923004,Local,149.181587,-21.145484
63 Mansfield Drive Beaconsfield QLD 4740Australia,Mackay District Special School,yellow,0.1764057132,0.04750409946,Local,149.170682,-21.094772
Valley Street North Mackay QLD 4740Australia,Mackay North State High School,yellow,0.9101647759,0.5252950048,Local,149.173895,-21.115653
Cnr Evans Avenue & Harvey Street North Mackay QLD 4740Australia,Mackay North State School,yellow,0.6331852791,0.3052144479,Local,149.184019,-21.122053
30 Rosewood Drive Rural View QLD 4740Australia,Mackay Northern Beaches State High School,yellow,0.4764446453,0.1677398018,Local,149.16162,-21.067097
123 Milton Street South Mackay QLD 4740Australia,Mackay State High School,yellow,0.9970877602,0.5604852865,Local,149.176751,-21.152514
Pinder Street West Mackay QLD 4740Australia,Mackay West State School,yellow,0.8674346645,0.3567159211,Local,149.161335,-21.15255
26 Vivaldi Place Mackenzie QLD 4156Australia,Mackenzie State Primary School,yellow,0.3522253552,0.6091917263,Local,153.122552,-27.545161
26 Vivaldi Place Mackenzie QLD 4156Australia,Mackenzie State Special School,yellow,0.4337229468,0.6900695998,Local,153.122552,-27.545161
79 Farrell Drive Macknade QLD 4850Australia,Macknade State School,yellow,0.3754217968,0.6574248439,Local,146.251864,-18.576707
145-155 High Central Road Macleay Island QLD 4184Australia,MacLeay Island State School,yellow,0.3198298398,0.2726359058,Local,153.359531,-27.618544
10-16 Mandalay Avenue Nelly Bay QLD 4819Australia,Magnetic Island State School,yellow,0.03102559032,0.1863863554,Local,146.851642,-19.15713
Maidavale Road Airville QLD 4807Australia,Maidavale State School,yellow,0.09597228319,0.5559760555,Local,147.359951,-19.602542
Memorial Drive Malanda QLD 4885Australia,Malanda State High School,yellow,0.1580659574,0.9102255025,Local,145.593435,-17.359076
24 Mary Street Malanda QLD 4885Australia,Malanda State School,yellow,0.08089212074,0.8633572271,Local,145.594639,-17.348945
50 Bunya Street Maleny QLD 4552Australia,Maleny State High School,yellow,0.2290785356,0.2343193748,Local,152.856977,-26.765728
16 Bunya Street Maleny QLD 4552Australia,Maleny State School,yellow,0.3465015929,0.9571833374,Local,152.855331,-26.760792
Bonnet Parade Mango Hill QLD 4509Australia,Mango Hill State School,yellow,0.2405926775,0.5912246319,Local,153.033463,-27.24308
63 Ernest Street Manly QLD 4179Australia,Manly State School,yellow,0.7163878748,0.2414364846,Local,153.181338,-27.458056
226 Manly Road Manly West QLD 4179Australia,Manly West State School,yellow,0.9071856057,0.7825044914,Local,153.174284,-27.469024
Corner Broadwater & Ham Road Mansfield QLD 4122Australia,Mansfield State High School,yellow,0.4227583761,0.7082906161,Local,153.105821,-27.545492
174 Ham Road Mansfield QLD 4122Australia,Mansfield State School,yellow,0.07417303461,0.9868625769,Local,153.105369,-27.542384
Flaxton Drive Mapleton QLD 4560Australia,Mapleton State School,yellow,0.4701970185,0.535910002,Local,152.865869,-26.625956
Louisa Street Marburg QLD 4346Australia,Marburg State School,yellow,0.5384200414,0.4084904995,Local,152.59393,-27.56242
Jasper Street Mareeba QLD 4880Australia,Mareeba State High School,yellow,0.1696407078,0.3235475505,Local,145.416363,-16.995838
Constance Street Mareeba QLD 4880Australia,Mareeba State School,yellow,0.2724197257,0.6342634977,Local,145.424901,-16.991951
137 Anzac Avenue Marian QLD 4753Australia,Marian State School,yellow,0.7522748778,0.3104084727,Local,148.958573,-21.145433
Magog Road Marlborough QLD 4705Australia,Marlborough State School,yellow,0.3837015427,0.6443946673,Local,149.895019,-22.811887
Rogers Street Marmor QLD 4702Australia,Marmor State School,yellow,0.4505852925,0.5663472552,Local,150.707939,-23.680011
160 Maroochydore Road Maroochydore QLD 4558Australia,Maroochydore State High School,yellow,0.00979502409,0.07838501016,Local,153.075545,-26.654744
56-68 Primary School Court Maroochydore QLD 4558Australia,Maroochydore State School,yellow,0.9425929227,0.06531708693,Local,153.084579,-26.652948
2772 Boonah-Rathdowney Road Maroon QLD 4310Australia,Maroon State School,yellow,0.7483889887,0.7965828296,Local,152.713738,-28.171608
31 Duke Stehbens Road Maroondan QLD 4671Australia,Maroondan State School,yellow,0.5953375428,0.7565924921,Local,152.014365,-24.96846
106-130 Muchow Road Waterford West QLD 4133Australia,Marsden State High School,yellow,0.1529898581,0.9973930321,Local,153.111421,-27.684754
Hickory Street Marsden QLD 4132Australia,Marsden State School,yellow,0.514964751,0.234137281,Local,153.104097,-27.68469
Kurts Street Holland Park West QLD 4121Australia,Marshall Road State School,yellow,0.2862975551,0.1511528991,Local,153.058468,-27.525289
15 Edward Street Imbil QLD 4570Australia,Mary Valley State College,yellow,0.01331013871,0.3710920283,Local,152.679247,-26.461766
471 Kent Street Maryborough QLD 4650Australia,Maryborough Central State School,yellow,0.3166804653,0.7939179447,Local,152.69949,-25.535469
164 Woodstock Street Maryborough QLD 4650Australia,Maryborough Special School,yellow,0.7346636868,0.3342062839,Local,152.695592,-25.517469
Kent Street Maryborough QLD 4650Australia,Maryborough State High School,yellow,0.667546324,0.7878777521,Local,152.69756,-25.534425
149 North Street Maryborough QLD 4650Australia,Maryborough West State School,yellow,0.35143607,0.7221426433,Local,152.69457,-25.523749
81 Taylor Street Maryvale QLD 4370Australia,Maryvale State School,yellow,0.2850685637,0.9998482747,Local,152.242009,-28.067458
Paget Street Carina QLD 4152Australia,Mayfield State School,yellow,0.4337380026,0.1819310571,Local,153.092362,-27.483944
69273 Bruce Highway Fishery Falls QLD 4871Australia,McDonnell Creek State School,yellow,0.1766427808,0.4752638211,Local,145.897307,-17.196629
1018 Rode Road Mcdowall QLD 4053Australia,McDowall State School,yellow,0.8254226876,0.7494537784,Local,152.98995,-27.388021
322 McIlwraith Road Mcilwraith QLD 4671Australia,McIlwraith State School,yellow,0.4906116065,0.09231829641,Local,151.999318,-25.008553
Sara Street Meandarra QLD 4422Australia,Meandarra State School,yellow,0.6179302721,0.3326923769,Local,149.882227,-27.324019
Mena Creek Road Mena Creek QLD 4871Australia,Mena Creek State School,yellow,0.05721022408,0.3693817902,Local,145.955503,-17.654747
214 Parklands Boulevard Meridan Plains QLD 4551Australia,Meridan State College,yellow,0.6033128625,0.2105703488,Local,153.102885,-26.773775
Bergl Street Bowen QLD 4805Australia,Merinda State School,yellow,0.4913491568,0.5685457217,Local,148.163654,-20.020156
10 School Road Meringandan West QLD 4352Australia,Meringandan State School,yellow,0.9091068569,0.1555757678,Local,151.905023,-27.430377
Dunlop Court Mermaid Waters QLD 4218Australia,Merrimac State High School,yellow,0.6697647002,0.4891253143,Local,153.416317,-28.039803
2 Boowaggan Road Merrimac QLD 4226Australia,Merrimac State School,yellow,0.3702594277,0.8049507487,Local,153.376669,-28.041257
Miallo Bamboo Creek Road Miallo QLD 4873Australia,Miallo State School,yellow,0.6382317336,0.3771757815,Local,145.376152,-16.388888
2137-2205 Gold Coast Highway Miami QLD 4220Australia,Miami State High School,yellow,0.07710397993,0.203085328,Local,153.437899,-28.062823
18-36 Oceanic Drive Mermaid Waters QLD 4218Australia,Miami State School,yellow,0.7789473625,0.1905544204,Local,153.426091,-28.059638
Cnr Sumners Road & Macfarlane Street Middle Park QLD 4074Australia,Middle Park State School,yellow,0.4534194271,0.01685553358,Local,152.917175,-27.559487
203 Spring Street Middle Ridge QLD 4350Australia,Middle Ridge State School,yellow,0.3738583087,0.05378776898,Local,151.956495,-27.601717
James Randell Drive Middlemount QLD 4746Australia,Middlemount Community School,yellow,0.1648965305,0.7859965493,Local,148.700813,-22.810863
Pine Street Miles QLD 4415Australia,Miles State High School,yellow,0.5366186785,0.1129794305,Local,150.185136,-26.653516
Constance Street Miles QLD 4415Australia,Miles State School,yellow,0.1358739956,0.7122036069,Local,150.185634,-26.656815
1 Beech Street Millaa Millaa QLD 4886Australia,Millaa Millaa State School,yellow,0.8540288253,0.1582205781,Local,145.610159,-17.512725
Cunningham Street Millaroo QLD 4807Australia,Millaroo State School,yellow,0.9609958243,0.9135048374,Local,147.280664,-20.05814
Cnr Bluff & Phillipson Roads Millchester QLD 4820Australia,Millchester State School,yellow,0.9772207074,0.3194420692,Local,146.275344,-20.0891
19 Simmons Street Millmerran QLD 4357Australia,Millmerran State School,yellow,0.03848065591,0.7745518515,Local,151.265453,-27.878235
335 Milman Road Milman QLD 4702Australia,Milman State School,yellow,0.8335178222,0.8613732726,Local,150.408623,-23.106002
Parker Street Chelmer QLD 4068Australia,Milpera State High School,yellow,0.8229827831,0.008825335593,Local,152.977559,-27.514033
Bayswater Street Milton QLD 4064Australia,Milton State School,yellow,0.09181374435,0.6042495762,Local,152.998573,-27.466889
1032 Lowood-Minden Road Minden QLD 4311Australia,Minden State School,yellow,0.6985637298,0.3153545478,Local,152.544156,-27.554762
Cnr Walkers Road & Minimbah Drive Morayfield QLD 4506Australia,Minimbah State School,yellow,0.007475514274,0.7791369273,Local,152.924326,-27.110796
Augusta Street Mirani QLD 4754Australia,Mirani State High School,yellow,0.1060822871,0.0604010632,Local,148.862371,-21.157627
12 Maud Street Mirani QLD 4754Australia,Mirani State School,yellow,0.7971934549,0.1902184479,Local,148.861984,-21.161463
15 Roe Street Miriam Vale QLD 4677Australia,Miriam Vale State School,yellow,0.7243495815,0.2436589293,Local,151.561627,-24.329777
3 Whitman Street Mirriwinni QLD 4871Australia,Mirriwinni State School,yellow,0.2498626248,0.4011143352,Local,145.909769,-17.4022
Webb Road Wongaling Beach QLD 4852Australia,Mission Beach State School,yellow,0.700685724,0.1188747851,Local,146.092576,-17.90429
6652 Clermont Alpha Road Clermont QLD 4721Australia,Mistake Creek State School,yellow,0.3664948364,0.2882838439,Local,147.083309,-22.988983
105 Cambridge Street Mitchell QLD 4465Australia,Mitchell State School,yellow,0.1540525777,0.2303928229,Local,147.97152,-26.488567
Kedron Avenue Mitchelton QLD 4053Australia,Mitchelton Special School,yellow,0.440325108,0.711783145,Local,152.975668,-27.413026
754 Samford Road Mitchelton QLD 4053Australia,Mitchelton State High School,yellow,0.4327271236,0.2999816456,Local,152.965912,-27.410488
47 Glen Retreat Road Mitchelton QLD 4053Australia,Mitchelton State School,yellow,0.137689299,0.2421310089,Local,152.969747,-27.413166
892 Barambah Road Moffatdale QLD 4605Australia,Moffatdale State School,yellow,0.8985183103,0.3524010131,Local,152.011754,-26.305954
3417 Moggill Road Moggill QLD 4070Australia,Moggill State School,yellow,0.8209150487,0.8517595365,Local,152.877617,-27.569261
220 Brisbane Road Monkland QLD 4570Australia,Monkland State School,yellow,0.3308198489,0.7035183207,Local,152.685981,-26.213842
2199 Monogorilby Road Monogorilby QLD 4626Australia,Monogorilby State School,yellow,0.5663809873,0.2305047957,Local,151.00847,-26.05484
Mouatt Street Monto QLD 4630Australia,Monto State High School,yellow,0.3963301385,0.9513863183,Local,151.118564,-24.869915
3 Leichhardt Street Monto QLD 4630Australia,Monto State School,yellow,0.07406406292,0.916817842,Local,151.118232,-24.867866
Main Street Montville QLD 4560Australia,Montville State School,yellow,0.01405964161,0.908544966,Local,152.893077,-26.688654
Cnr Meta & Douglas Streets Mooloolaba QLD 4557Australia,Mooloolaba State School,yellow,0.9393087332,0.749853813,Local,153.113718,-26.678458
King Road Mooloolah Valley QLD 4553Australia,Mooloolah State School,yellow,0.8602853193,0.49291171,Local,152.958259,-26.769062
11305 Moonie Highway Moonie QLD 4406Australia,Moonie State School,yellow,0.5632153458,0.2423231086,Local,150.373238,-27.713809
14 Murdochs Linking Road Moore Park Beach QLD 4670Australia,Moore Park Beach State School,yellow,0.7044003913,0.9549766032,Local,152.255222,-24.709673
Sherley Street Moorooka QLD 4105Australia,Moorooka State School,yellow,0.3149598862,0.3499652157,Local,153.02397,-27.535704
4 Williams Street Moranbah QLD 4744Australia,Moranbah East State School,yellow,0.7441471195,0.4606196349,Local,148.063356,-22.005128
Mills Avenue Moranbah QLD 4744Australia,Moranbah State High School,yellow,0.4275206679,0.7707323165,Local,148.059443,-22.000422
Belyando Avenue Moranbah QLD 4744Australia,Moranbah State School,yellow,0.6175090737,0.9717196047,Local,148.047863,-21.99847
107 Graham Road Morayfield QLD 4506Australia,Morayfield East State School,yellow,0.5077019578,0.3452464894,Local,152.966994,-27.116828
Visentin Road Morayfield QLD 4506Australia,Morayfield State High School,yellow,0.3085789016,0.5708250731,Local,152.953373,-27.109046
196-230 Morayfield Road Morayfield QLD 4506Australia,Morayfield State School,yellow,0.4720085036,0.3498207031,Local,152.947224,-27.106524
Parsons Boulevard Deception Bay QLD 4508Australia,Moreton Downs State School,yellow,0.7360057561,0.8615100875,Local,153.01724,-27.200106
67 Pashen Street Morningside QLD 4170Australia,Morningside State School,yellow,0.1818388708,0.47431042,Local,153.066999,-27.46422
Lardil Street - Mornington Island Wellesley Islands QLD 4892Australia,Mornington Island State School,yellow,0.4151668387,0.842638156,Local,139.182596,-16.666363
Albert Street Morven QLD 4468Australia,Morven State School,yellow,0.04462980865,0.05928945249,Local,147.109857,-26.415661
46-62 Front Street Mossman QLD 4873Australia,Mossman State High School,yellow,0.2189952602,0.7026101099,Local,145.37356,-16.463414
30-34 Front Street Mossman QLD 4873Australia,Mossman State School,yellow,0.3719976532,0.7305196063,Local,145.374373,-16.461721
942 Reckumpilla Street Mount Alford QLD 4310Australia,Mount Alford State School,yellow,0.9274369296,0.308772945,Local,152.594708,-28.068223
242 Thozet Road Koongal QLD 4701Australia,Mount Archer State School,yellow,0.3415871615,0.913411088,Local,150.545611,-23.358187
1246 Mount Cotton Road Mount Cotton QLD 4165Australia,Mount Cotton State School,yellow,0.9517964453,0.7775179525,Local,153.235601,-27.621828
Mount Crosby Road Karana Downs QLD 4306Australia,Mount Crosby State School,yellow,0.996251851,0.8361465644,Local,152.807094,-27.550823
2957 Mt Fox Road Mount Fox QLD 4850Australia,Mount Fox State School,yellow,0.3477731849,0.4021985135,Local,145.794564,-18.819022
Garnet Street Mount Garnet QLD 4872Australia,Mount Garnet State School,yellow,0.8323541945,0.5373685073,Local,145.121534,-17.68026
Newnham Road Mount Gravatt East QLD 4122Australia,Mount Gravatt East State School,yellow,0.9897756047,0.3888490236,Local,153.094318,-27.533752
Loreburn Street Mount Gravatt QLD 4122Australia,Mount Gravatt State High School,yellow,0.1783882409,0.08280607432,Local,153.073541,-27.535011
1263 Logan Road Mount Gravatt QLD 4122Australia,Mount Gravatt State School,yellow,0.5691427977,0.3037884807,Local,153.074086,-27.532699
49 Miles Street Mount Isa QLD 4825Australia,Mount Isa Central State School,yellow,0.7457909485,0.6649443479,Local,139.491988,-20.723255
137-143 Abel Smith Parade Pioneer QLD 4825Australia,Mount Isa School of the Air,yellow,0.9001900227,0.8725431739,Local,139.509449,-20.721268
116 Marian Street Pioneer QLD 4825Australia,Mount Isa Special School,yellow,0.4457226762,0.5108153459,Local,139.513217,-20.724272
251 Jenkinsons Road Mount Kilcoy QLD 4515Australia,Mount Kilcoy State School,yellow,0.8705346998,0.7861253399,Local,152.586963,-26.87365
Raglan Street Mount Larcom QLD 4695Australia,Mount Larcom State School,yellow,0.8087617857,0.5552164507,Local,150.974578,-23.807143
272 Thagoona-Haigslea Road Mount Marrow QLD 4306Australia,Mount Marrow State School,yellow,0.2559481602,0.4685551296,Local,152.621477,-27.603608
1368 Mt Mee Road Mount Mee QLD 4521Australia,Mount Mee State School,yellow,0.118871473,0.6501390659,Local,152.771144,-27.080678
Fraser Road Mount Molloy QLD 4871Australia,Mount Molloy State School,yellow,0.5350177571,0.33861596,Local,145.334813,-16.67379
44 Morgan Street Mount Morgan QLD 4714Australia,Mount Morgan Central State School,yellow,0.6786619945,0.6759161922,Local,150.388092,-23.645618
4 Central Street Mount Morgan QLD 4714Australia,Mount Morgan State High School,yellow,0.7851924357,0.9591839413,Local,150.387304,-23.643906
Lot 137 Dawson Highway Mount Murchison QLD 4715Australia,Mount Murchison State School,yellow,0.4598847629,0.295574866,Local,150.53798,-24.333814
Mount Nebo Road Mount Nebo QLD 4520Australia,Mount Nebo State School,yellow,0.7193248778,0.6090741502,Local,152.783464,-27.396542
94 Capitol Drive Mount Ommaney QLD 4074Australia,Mount Ommaney Special School,yellow,0.7612593247,0.2511053706,Local,152.941937,-27.542149
Annie Street Mount Perry QLD 4671Australia,Mount Perry State School,yellow,0.9306111519,0.2351979438,Local,151.643167,-25.182325
1060 Winn Road Mount Samson QLD 4520Australia,Mount Samson State School,yellow,0.3951478964,0.03883596638,Local,152.851264,-27.294338
Garland Street Mount Surprise QLD 4871Australia,Mount Surprise State School,yellow,0.4538692502,0.4469269412,Local,144.319959,-18.146519
6 Left Hand Branch Road Mount Sylvia QLD 4343Australia,Mount Sylvia State School,yellow,0.3552566998,0.520828528,Local,152.224001,-27.723021
9 Profkes Road Mount Tarampa QLD 4311Australia,Mount Tarampa State School,yellow,0.8223855996,0.1999112617,Local,152.489955,-27.45526
Main Street Mount Tyson QLD 4356Australia,Mount Tyson State School,yellow,0.8794569276,0.5301868726,Local,151.569418,-27.574685
125 Mount Warren Boulevard Mount Warren Park QLD 4207Australia,Mount Warren Park State School,yellow,0.9020988719,0.08320053947,Local,153.205393,-27.726036
1313 Gatton-Clifton Road Mount Whitestone QLD 4347Australia,Mount Whitestone State School,yellow,0.314982367,0.8103962376,Local,152.160194,-27.665096
Lady Musgrave Drive Mountain Creek QLD 4557Australia,Mountain Creek State High School,yellow,0.9186786316,0.6713684115,Local,153.102947,-26.688102
Lady Musgrave Drive Mountain Creek QLD 4557Australia,Mountain Creek State School,yellow,0.2176750047,0.6922886922,Local,153.103365,-26.690943
Gillespie Street Moura QLD 4718Australia,Moura State High School,yellow,0.258095803,0.2324424377,Local,149.982371,-24.575045
Gillespie Street Moura QLD 4718Australia,Moura State School,yellow,0.6726137382,0.7569563353,Local,149.979257,-24.571758
34 Mourilyan Harbour Road Mourilyan QLD 4858Australia,Mourilyan State School,yellow,0.8175711308,0.192792848,Local,146.044295,-17.585172
Gold Coast-Springbrook Road Mudgeeraba QLD 4213Australia,Mudgeeraba Creek State School,yellow,0.9103753444,0.3589100751,Local,153.347063,-28.086798
4-6 School Street Mudgeeraba QLD 4213Australia,Mudgeeraba Special School,yellow,0.9113262982,0.1517356297,Local,153.364091,-28.077823
Old Coach Road Mudgeeraba QLD 4213Australia,Mudgeeraba State School,yellow,0.9113412513,0.2910087957,Local,153.352772,-28.074079
Brigalow Street Mulgildie QLD 4630Australia,Mulgildie State School,yellow,0.9943523149,0.9114560562,Local,151.134065,-24.963457
77 Ross River Road Mundingburra QLD 4812Australia,Mundingburra State School,yellow,0.8398773544,0.06116019035,Local,146.789636,-19.294541
100 Cardier Road Wangan QLD 4871Australia,Mundoo State School,yellow,0.7574479152,0.9419615847,Local,146.011259,-17.566721
57 Bunce Street Mundubbera QLD 4626Australia,Mundubbera State School,yellow,0.830878317,0.220520777,Local,151.293598,-25.585464
24 Redford Street Mungallala QLD 4467Australia,Mungallala State School,yellow,0.4680704461,0.9361232697,Local,147.545005,-26.444626
1143 Mungar Road Mungar QLD 4650Australia,Mungar State School,yellow,0.8630820377,0.933899852,Local,152.590612,-25.604163
Garrett Street Murarrie QLD 4172Australia,Murarrie State School,yellow,0.7840803264,0.6264677577,Local,153.100939,-27.461955
2 Dutton Street Murgon QLD 4605Australia,Murgon State High School,yellow,0.1967236887,0.5152979306,Local,151.944634,-26.237247
91 Gore Street Murgon QLD 4605Australia,Murgon State School,yellow,0.6512498772,0.8332320807,Local,151.94339,-26.239762
49 Murphys Creek School Road Murphys Creek QLD 4352Australia,Murphy's Creek State School,yellow,0.1275130401,0.9649872454,Local,152.051323,-27.458894
1 Middle Murray Road Murray Upper QLD 4854Australia,Murray River Upper State School,yellow,0.3104453302,0.7922963875,Local,145.850557,-18.089988
1378 Killarney Road Murrays Bridge QLD 4370Australia,Murray's Bridge State School,yellow,0.6145827311,0.6392684765,Local,152.117925,-28.292999
201-207 Goodfellows Road Murrumba Downs QLD 4503Australia,Murrumba State Secondary College,yellow,0.886681042,0.1719602528,Local,153.007767,-27.2592
Nakina Street Southport QLD 4215Australia,Musgrave Hill State School,yellow,0.6769693645,0.060014181,Local,153.393796,-27.959265
School Road Mutarnee QLD 4816Australia,Mutarnee State School,yellow,0.5097831227,0.8291303972,Local,146.28716,-18.955093
33 Marsterson Street Mutchilba QLD 4872Australia,Mutchilba State School,yellow,0.3213532613,0.5283359852,Local,145.212078,-17.139398
4 Mutdapilly-Churchbank Weir Road Mutdapilly QLD 4307Australia,Mutdapilly State School,yellow,0.4251892991,0.2783389357,Local,152.650646,-27.771042
42 Sword Street Muttaburra QLD 4732Australia,Muttaburra State School,yellow,0.1631963875,0.6451895116,Local,144.543664,-22.594954
2 Ubobo Street Boyne Valley QLD 4680Australia,Nagoorin State School,yellow,0.09345048235,0.05111290129,Local,151.299983,-24.351695
70 Windsor Road Burnside QLD 4560Australia,Nambour Special School,yellow,0.8340830553,0.06145722407,Local,152.945871,-26.632902
1 Carroll Street Nambour QLD 4560Australia,Nambour State College,yellow,0.8482890642,0.6085674213,Local,152.962384,-26.623206
54 Elk Street Nanango QLD 4615Australia,Nanango State High School,yellow,0.7299808975,0.7810257087,Local,151.993033,-26.667821
39 Drayton Street Nanango QLD 4615Australia,Nanango State School,yellow,0.2856073854,0.2366964267,Local,152.005506,-26.671683
School Street Narangba QLD 4504Australia,Narangba State School,yellow,0.6483043462,0.1226015535,Local,152.961495,-27.205689
Harris Avenue Narangba QLD 4504Australia,Narangba Valley State High School,yellow,0.1896295513,0.4016860645,Local,152.94235,-27.173232
Creekside Drive Narangba QLD 4504Australia,Narangba Valley State School,yellow,0.3860769311,0.009484838159,Local,152.933087,-27.173458
25 Salisbury Street Woolloongabba QLD 4102Australia,Narbethong State Special School,yellow,0.4673982929,0.3716783577,Local,153.044768,-27.495779
Cnr Baskerville & Douglas Streets Brighton QLD 4017Australia,Nashville State School,yellow,0.4271522934,0.6012476875,Local,153.050389,-27.307003
34 Oxford Street Nebo QLD 4742Australia,Nebo State School,yellow,0.2591380874,0.5217630844,Local,148.689807,-21.689731
Weedons Road Nerang QLD 4211Australia,Nerang State High School,yellow,0.4333684024,0.4072403108,Local,153.327896,-28.000554
3 Nerang Street Nerang QLD 4211Australia,Nerang State School,yellow,0.1195342471,0.6305784226,Local,153.338457,-27.988627
Cnr James & Heal Streets New Farm QLD 4005Australia,New Farm State School,yellow,0.3726732921,0.9290744895,Local,153.045174,-27.460244
15 Banks Street Newmarket QLD 4051Australia,Newmarket State School,yellow,0.9237675526,0.6497519206,Local,153.004001,-27.432212
24 Albert Street Newtown QLD 4350Australia,Newtown State School,yellow,0.7666746097,0.567710686,Local,151.935241,-27.558695
4 Davenport Street Nobby QLD 4360Australia,Nobby State School,yellow,0.9421821292,0.8815149024,Local,151.906017,-27.85243
Tulip Street Cooroy QLD 4563Australia,Noosa District State High School,yellow,0.720729502,0.0005016553006,Local,152.910213,-26.42421
75 Beckmans Road Noosaville QLD 4566Australia,Noosaville State School,yellow,0.3487541264,0.2351753301,Local,153.029142,-26.409542
83 Halfway Drive Ormeau QLD 4208Australia,Norfolk Village State School,yellow,0.1116053355,0.4845215681,Local,153.244777,-27.772999
68-88 Agnew Street Norman Park QLD 4170Australia,Norman Park State School,yellow,0.2810673443,0.249735492,Local,153.062355,-27.4745
Little Brown Street Normanton QLD 4890Australia,Normanton State School,yellow,0.5509057966,0.5747370215,Local,141.079046,-17.672072
28 Greenore Street Bracken Ridge QLD 4017Australia,Norris Road State School,yellow,0.4532913178,0.8677921913,Local,153.025013,-27.316658
Cnr Fairhill & Yandina Creek Road North Arm QLD 4561Australia,North Arm State School,yellow,0.5168712168,0.5590520304,Local,152.965795,-26.523289
Kinchant Dam Road North Eton QLD 4741Australia,North Eton State School,yellow,0.2386960381,0.5249593233,Local,148.956289,-21.230149
Joyner Circuit North Lakes QLD 4509Australia,North Lakes State College,yellow,0.3528254167,0.5069862393,Local,153.025181,-27.238366
Berserker Street Frenchville QLD 4701Australia,North Rockhampton State High School,yellow,0.08452702,0.9794035966,Local,150.531699,-23.352105
9 Langford Street Burdell QLD 4818Australia,North Shore State School,yellow,0.6674562561,0.2047218076,Local,146.696118,-19.233242
Meranti Street Deeragun QLD 4818Australia,Northern Beaches State High School,yellow,0.09960323921,0.4476861455,Local,146.67356,-19.247948
Sagaukaz Street Bamaga QLD 4876Australia,Northern Peninsula Area State College,yellow,0.0402805372,0.4064813506,Local,142.385802,-10.895205
128 Amelia Street Nundah QLD 4012Australia,Northgate State School,yellow,0.6637893641,0.03595432462,Local,153.070852,-27.398743
54 Pioneer Street Mount Pleasant QLD 4740Australia,Northview State School,yellow,0.8350580837,0.7706753411,Local,149.150979,-21.109844
Dr Mays Road Norville QLD 4670Australia,Norville State School,yellow,0.9485332019,0.1596291224,Local,152.336502,-24.886563
2270 Nerang-Murwillumbah Road Numinbah Valley QLD 4211Australia,Numinbah Valley State School,yellow,0.3545841263,0.5689845506,Local,153.227213,-28.148648
41 Bage Street Nundah QLD 4012Australia,Nundah State School,yellow,0.3089479283,0.6300860297,Local,153.058328,-27.402544
49 Nursery Road Holland Park West QLD 4121Australia,Nursery Road State Special School,yellow,0.5322027894,0.7575191942,Local,153.064193,-27.534172
177 Oakenden School Road Oakenden QLD 4741Australia,Oakenden State School,yellow,0.6104579786,0.3534274564,Local,149.005056,-21.311623
1 Campbell Street Oakey QLD 4401Australia,Oakey State High School,yellow,0.8485490622,0.2814232343,Local,151.71934,-27.445059
24 Campbell Street Oakey QLD 4401Australia,Oakey State School,yellow,0.6868164118,0.134298232,Local,151.720502,-27.439355
Buxton Street Ashgrove QLD 4060Australia,Oakleigh State School,yellow,0.1864401066,0.5477688392,Local,152.985892,-27.436517
125 Oakwood School Road Oakwood QLD 4670Australia,Oakwood State School,yellow,0.291340758,0.9067949055,Local,152.300459,-24.844531
John Street Gympie QLD 4570Australia,One Mile State School,yellow,0.8925011752,0.8463125584,Local,152.675322,-26.19931
Fairfield Waters Drive Idalia QLD 4811Australia,Oonoonba State School,yellow,0.09950312767,0.8248735558,Local,146.812264,-19.304579
1002 Ten Chain Road Orion QLD 4722Australia,Orion State School,yellow,0.4010255937,0.1236611925,Local,148.410708,-24.230322
29 Mirambeena Drive Pimpama QLD 4209Australia,Ormeau State School,yellow,0.5485499899,0.03626063241,Local,153.276681,-27.799965
Goldmine Road Ormeau QLD 4208Australia,Ormeau Woods State High School,yellow,0.393731965,0.9236220852,Local,153.26412,-27.77032
82-110 Gordon Street Ormiston QLD 4160Australia,Ormiston State School,yellow,0.5586153285,0.6367233837,Local,153.258508,-27.516473
Kirknie Road Osborne QLD 4806Australia,Osborne State School,yellow,0.6184958279,0.4949891146,Local,147.346602,-19.700538
90 Michigan Drive Oxenford QLD 4210Australia,Oxenford State School,yellow,0.469830677,0.2556587581,Local,153.303978,-27.899472
Bannerman Street Oxley QLD 4075Australia,Oxley State School,yellow,0.1707977588,0.03774215344,Local,152.980617,-27.564262
14-24 Menzies Drive Pacific Paradise QLD 4564Australia,Pacific Paradise State School,yellow,0.8512240533,0.9593099932,Local,153.079317,-26.614227
Archipelago Street Pacific Pines QLD 4211Australia,Pacific Pines State High School,yellow,0.2535428028,0.8096141699,Local,153.320612,-27.943121
Santa Isobel Boulevard Pacific Pines QLD 4211Australia,Pacific Pines State School,yellow,0.1897391445,0.6745224715,Local,153.320279,-27.939962
39 Ritchie Road Pallara QLD 4110Australia,Pallara State School,yellow,0.1740711996,0.3472070836,Local,152.993493,-27.629043
13-19 Nineteenth Avenue Palm Beach QLD 4221Australia,Palm Beach State School,yellow,0.8514952341,0.1338019461,Local,153.46316,-28.110702
Thrower Drive Palm Beach QLD 4221Australia,Palm Beach-Currumbin State High School,yellow,0.6115940407,0.3693138119,Local,153.474277,-28.131675
111 Palmwoods-Montville Road Palmwoods QLD 4555Australia,Palmwoods State School,yellow,0.1224471243,0.421539297,Local,152.946776,-26.693342
Main Street Park Avenue QLD 4701Australia,Park Avenue State School,yellow,0.9939513475,0.02483048453,Local,150.507166,-23.359323
1 Shoalhaven Avenue Pacific Pines QLD 4211Australia,Park Lake State School,yellow,0.5818936544,0.5616182846,Local,153.30285,-27.93682
14-30 Lancewood Street Park Ridge QLD 4125Australia,Park Ridge State High School,yellow,0.1595044888,0.02361933923,Local,153.0337,-27.70035
3776 Mt Lindesay Highway Park Ridge QLD 4125Australia,Park Ridge State School,yellow,0.539822188,0.2282235732,Local,153.038861,-27.701652
400 Teddington Road Tinana South QLD 4650Australia,Parke State School,yellow,0.3481388573,0.8459097462,Local,152.668952,-25.588254
11 Mason Avenue Parkhurst QLD 4702Australia,Parkhurst State School,yellow,0.777865967,0.5845183858,Local,150.513766,-23.295814
122 Mulgrave Road Parramatta Park QLD 4870Australia,Parramatta State School,yellow,0.9647664016,0.6643007513,Local,145.763213,-16.925111
816 Mahon Road Patrick Estate QLD 4311Australia,Patrick Estate State School,yellow,0.3736898201,0.4579625735,Local,152.567905,-27.410921
Patricks Road Ferny Hills QLD 4055Australia,Patricks Road State School,yellow,0.489382298,0.8321555589,Local,152.934851,-27.393243
171 Payne Road The Gap QLD 4061Australia,Payne Road State School,yellow,0.9599088777,0.5463933187,Local,152.951438,-27.449445
966 Peachester Road Peachester QLD 4519Australia,Peachester State School,yellow,0.3696435995,0.7931549171,Local,152.882544,-26.843734
Ipswich-Boonah Road Peak Crossing QLD 4306Australia,Peak Crossing State School,yellow,0.371184293,0.1155923292,Local,152.731243,-27.779813
Gilmore Street Pentland QLD 4816Australia,Pentland State School,yellow,0.7251019217,0.04900261298,Local,145.398201,-20.52313
191 The Avenue Peregian Springs QLD 4573Australia,Peregian Springs State School,yellow,0.2669288166,0.6969151758,Local,153.07212,-26.500388
42 Dayboro Road Petrie QLD 4502Australia,Petrie State School,yellow,0.2166363891,0.3857531326,Local,152.972216,-27.267544
40 Moreton Street Paddington QLD 4064Australia,Petrie Terrace State School,yellow,0.9820938674,0.6226594591,Local,153.0096,-27.459915
Alice Street Pialba QLD 4655Australia,Pialba State School,yellow,0.4902970437,0.9039581153,Local,152.833396,-25.27938
25 Edwardson Drive Coomera QLD 4209Australia,Picnic Creek State School,yellow,0.5547994932,0.8472006189,Local,153.338761,-27.839949
24 Pilton Valley Road Pilton QLD 4361Australia,Pilton State School,yellow,0.1916829902,0.5238044884,Local,152.049757,-27.867944
Fulham Road Gulliver QLD 4812Australia,Pimlico State High School,yellow,0.6071069784,0.3935254313,Local,146.782657,-19.288734
Cunningham Drive North Pimpama QLD 4209Australia,Pimpama State Primary College,yellow,0.6651434846,0.5436441067,Local,153.322222,-27.833333
9 Hotham Creek Road North Pimpama QLD 4209Australia,Pimpama State School,yellow,0.5140233046,0.9376447595,Local,153.27857,-27.8171
Dixon Drive Pimpama QLD 4209Australia,Pimpama State Secondary College,yellow,0.1015044933,0.5187911149,Local,153.318457,-27.834462
5923 Bruce Highway Pindi Pindi QLD 4798Australia,Pindi Pindi State School,yellow,0.08586565451,0.4974691508,Local,148.732275,-20.870327
10 Lawnton Pocket Road Lawnton QLD 4501Australia,Pine Rivers Special School,yellow,0.07868718218,0.1971897317,Local,152.98394,-27.282947
Gympie Road Strathpine QLD 4500Australia,Pine Rivers State High School,yellow,0.8104031382,0.9280816668,Local,152.989495,-27.296398
Pinnacle Street Pinnacle QLD 4741Australia,Pinnacle State School,yellow,0.1514987074,0.4995317349,Local,148.712974,-21.14988
Bedford Road Andergrove QLD 4740Australia,Pioneer State High School,yellow,0.5537321372,0.9419445759,Local,149.180635,-21.095848
Factory Street Pittsworth QLD 4356Australia,Pittsworth State High School,yellow,0.3900401187,0.5636299583,Local,151.6455,-27.709083
Hume Street Pittsworth QLD 4356Australia,Pittsworth State School,yellow,0.5026305139,0.6704278847,Local,151.634048,-27.718317
74 Station Street Pomona QLD 4568Australia,Pomona State School,yellow,0.5405897811,0.6863296133,Local,152.860674,-26.367953
Pormpuraaw Street Pormpuraaw QLD 4892Australia,Pormpuraaw State School,yellow,0.04617520935,0.3621490693,Local,141.620978,-14.898737
Port Curtis Road Port Curtis QLD 4700Australia,Port Curtis Road State School,yellow,0.7884851417,0.5909670565,Local,150.514026,-23.413482
Endeavour Street Port Douglas QLD 4877Australia,Port Douglas State School,yellow,0.2406966438,0.6739650925,Local,145.461292,-16.524257
Pozieres School Road Pozieres QLD 4352Australia,Pozieres State School,yellow,0.9394396647,0.8243612956,Local,151.884767,-28.524854
Savage Street Prairie QLD 4816Australia,Prairie State School,yellow,0.4796824747,0.152059388,Local,144.605313,-20.870788
357 Prenzlau Road Prenzlau QLD 4311Australia,Prenzlau State School,yellow,0.2038955477,0.2445505357,Local,152.523271,-27.534046
4 Ruge Street Proserpine QLD 4800Australia,Proserpine State High School,yellow,0.9990323784,0.9234180472,Local,148.58181,-20.405985
33 Renwick Road Proserpine QLD 4800Australia,Proserpine State School,yellow,0.668427469,0.4989622776,Local,148.58239,-20.409003
12935 Dawson Highway Prospect QLD 4715Australia,Prospect Creek State School,yellow,0.8881045834,0.3220908474,Local,150.429343,-24.421124
94 Rodney Street Proston QLD 4613Australia,Proston State School,yellow,0.9688759245,0.1124325722,Local,151.600176,-26.167726
120 Grandview Road Pullenvale QLD 4069Australia,Pullenvale State School,yellow,0.3482835192,0.1599844247,Local,152.895344,-27.532618
75 Cottrill Road Caboolture QLD 4510Australia,Pumicestone State School,yellow,0.6418033914,0.3054659316,Local,152.9565,-27.058
39 Tracey Street Bowen QLD 4805Australia,Queens Beach State School,yellow,0.04333807027,0.6185366008,Local,148.227178,-19.976137
61 - 73 Musk Avenue Kelvin Grove QLD 4059Australia,Queensland Academy for Creative Industries,yellow,0.1240304578,0.9453545603,Local,153.014329,-27.452843
102 Edmund Rice Drive Southport QLD 4215Australia,Queensland Academy for Health Sciences,yellow,0.5196274901,0.285472259,Local,153.382906,-27.967145
78 Bywong Street Toowong QLD 4066Australia,Queensland Academy for Science Mathematics and Technology,yellow,0.3944229309,0.09625182269,Local,152.979012,-27.486107
Raymond terrace South Brisbane QLD 4101Australia,Queensland Children's Hospital School,yellow,0.8392526143,0.6899426663,Local,153.0272,-27.484495
347 Old Cleveland Road Coorparoo QLD 4151Australia,Queensland Pathways State College,yellow,0.8077649957,0.4790213336,Local,153.061203,-27.49407
Cnr Chulungra & Boonkai Streets Quilpie QLD 4480Australia,Quilpie State College,yellow,0.7655378538,0.7997019019,Local,144.271484,-26.614937
Progress Street Quinalow QLD 4403Australia,Quinalow Prep-10 State School,yellow,0.7574681589,0.7776599126,Local,151.622205,-27.107658
96 Wildey Street Raceview QLD 4305Australia,Raceview State School,yellow,0.06776927552,0.3355754999,Local,152.782381,-27.640651
39 Railway Avenue Railway Estate QLD 4810Australia,Railway Estate State School,yellow,0.4220287863,0.1363191892,Local,146.815779,-19.274215
Warooga Road Rainbow Beach QLD 4581Australia,Rainbow Beach State School,yellow,0.7709028673,0.4313280457,Local,153.078729,-25.907353
185 Boundary Road Bardon QLD 4065Australia,Rainworth State School,yellow,0.9995619083,0.3794265396,Local,152.985258,-27.467026
173 Ramsay School Road Ramsay QLD 4358Australia,Ramsay State School,yellow,0.4659959253,0.1211378458,Local,151.962564,-27.721666
32A High Street Rangeville QLD 4350Australia,Rangeville State School,yellow,0.5154027417,0.4571340603,Local,151.978395,-27.583098
Allambie Lane Rasmussen QLD 4815Australia,Rasmussen State School,yellow,0.1184042128,0.3722386648,Local,146.729243,-19.3649
Mount Lindesay Highway Rathdowney QLD 4287Australia,Rathdowney State School,yellow,0.4996813138,0.3692987815,Local,152.860509,-28.215634
Moore Street Ravenshoe QLD 4888Australia,Ravenshoe State School,yellow,0.1633258396,0.8968896382,Local,145.488711,-17.610597
School Street Ravenswood QLD 4816Australia,Ravenswood State School,yellow,0.5749399268,0.3534260821,Local,146.889506,-20.103639
72 Waterworks Road Red Hill QLD 4059Australia,Red Hill Special School,yellow,0.06206228436,0.7756867089,Local,153.000651,-27.450749
Willow Road Redbank Plains QLD 4301Australia,Redbank Plains State High School,yellow,0.26827696,0.4354831148,Local,152.868869,-27.65341
39-53 School Road Redbank Plains QLD 4301Australia,Redbank Plains State School,yellow,0.9074061699,0.003329664284,Local,152.851911,-27.647923
9 Brisbane Road Redbank QLD 4301Australia,Redbank State School,yellow,0.1681648354,0.5372165455,Local,152.86459,-27.60298
Klingner Road Redcliffe QLD 4020Australia,Redcliffe Special School,yellow,0.1128541288,0.4283110536,Local,153.113253,-27.223224
Cnr Klingner Road & Oxley Avenue Redcliffe QLD 4020Australia,Redcliffe State High School,yellow,0.8830038244,0.209585073,Local,153.111006,-27.223688
Gordon Road Redland Bay QLD 4165Australia,Redland Bay State School,yellow,0.6978821633,0.1995947255,Local,153.293085,-27.618595
51-53 Panorama Drive Thornlands QLD 4164Australia,Redland District Special School,yellow,0.1266375618,0.7191440127,Local,153.26069,-27.550107
Jungara Road Redlynch QLD 4870Australia,Redlynch State College,yellow,0.1903105777,0.7562028171,Local,145.695815,-16.909266
Emerald Drive Regents Park QLD 4118Australia,Regents Park State School,yellow,0.6554702048,0.6526955853,Local,153.035018,-27.682091
99 Poinsettia Street Inala QLD 4077Australia,Richlands East State School,yellow,0.7068235133,0.5997323118,Local,152.967087,-27.597126
Cnr Baker & Burdekin Streets Richmond Hill QLD 4820Australia,Richmond Hill State School,yellow,0.7124891262,0.4252452254,Local,146.265083,-20.061524
88 Crawford Street Richmond QLD 4822Australia,Richmond State School,yellow,0.3439984536,0.5751733169,Local,143.143081,-20.734145
43 Dalma-Ridgelands Road Ridgelands QLD 4702Australia,Ridgelands State School,yellow,0.09541110911,0.07728067852,Local,150.279911,-23.249781
131 Old Ipswich Road Riverview QLD 4303Australia,Riverview State School,yellow,0.6147390767,0.1520028784,Local,152.84694,-27.603299
111 Roadvale Road Roadvale QLD 4310Australia,Roadvale State School,yellow,0.9593343813,0.529617525,Local,152.705005,-27.920165
688 Musgrave Road Robertson QLD 4109Australia,Robertson State School,yellow,0.2987943946,0.2453799627,Local,153.056254,-27.565483
Investigator Drive Robina QLD 4226Australia,Robina State High School,yellow,0.988692155,0.02753069061,Local,153.376815,-28.073544
Killarney Avenue Robina QLD 4226Australia,Robina State School,yellow,0.7410863295,0.4463683868,Local,153.399122,-28.071232
Wendron Street Rochedale South QLD 4123Australia,Rochedale South State School,yellow,0.6289684967,0.850618932,Local,153.129898,-27.5906
249 Priestdale Road Rochedale QLD 4123Australia,Rochedale State High School,yellow,0.3278563208,0.140466381,Local,153.111492,-27.585626
694 Rochedale Road Rochedale QLD 4123Australia,Rochedale State School,yellow,0.6555501824,0.4908250908,Local,153.125368,-27.580092
353-359 Dean Street Frenchville QLD 4701Australia,Rockhampton North Special School,yellow,0.5981815239,0.8853230002,Local,150.536884,-23.349449
91 - 115 William Street Rockhampton QLD 4700Australia,Rockhampton Special School,yellow,0.475253384,0.4082618804,Local,150.511679,-23.382714
Campbell Street Wandal QLD 4700Australia,Rockhampton State High School,yellow,0.2071990812,0.5913727769,Local,150.499255,-23.369589
19 Elmes Road Rocklea QLD 4106Australia,Rocklea State School,yellow,0.2054770951,0.162969406,Local,153.011812,-27.546643
3 Holberton Street Rockville QLD 4350Australia,Rockville State School,yellow,0.7474172089,0.5032223176,Local,151.936495,-27.53116
16 Warrijo Street Rolleston QLD 4702Australia,Rolleston State School,yellow,0.7566003331,0.1904571929,Local,148.624042,-24.46248
Fred Williams Drive Rollingstone QLD 4816Australia,Rollingstone State School,yellow,0.2557801019,0.7149731346,Local,146.391571,-19.04371
Cottell Street Roma QLD 4455Australia,Roma State College,yellow,0.8551529033,0.73986019,Local,148.778149,-26.565539
4 Hoger Road Ropeley QLD 4343Australia,Ropeley State School,yellow,0.08669282991,0.9692674919,Local,152.258756,-27.657925
21 James Street Rosedale QLD 4674Australia,Rosedale State School,yellow,0.1884551253,0.5257643326,Local,151.914749,-24.623708
20 Park Street West Gladstone QLD 4680Australia,Rosella Park School,yellow,0.7150018503,0.7876951651,Local,151.247541,-23.852157
46 Lanefield Road Rosewood QLD 4340Australia,Rosewood State High School,yellow,0.6258343877,0.4582346637,Local,152.585622,-27.635897
School Street Rosewood QLD 4340Australia,Rosewood State School,yellow,0.9479652568,0.5593002522,Local,152.592667,-27.643552
Angus Gully Road Rossville QLD 4895Australia,Rossville State School,yellow,0.7771918434,0.4103043717,Local,145.268357,-15.76322
200 Nemies Road Runcorn QLD 4113Australia,Runcorn Heights State School,yellow,0.9715367208,0.07427960999,Local,153.069699,-27.604541
132 Hill Road Runcorn QLD 4113Australia,Runcorn State High School,yellow,0.9866055717,0.3581609988,Local,153.07801,-27.592692
646 Beenleigh Road Sunnybank QLD 4109Australia,Runcorn State School,yellow,0.6338249637,0.1315652559,Local,153.062144,-27.588129
38-64 High Street Russell Island QLD 4184Australia,Russell Island State School,yellow,0.2268214865,0.3864915746,Local,153.38132,-27.651519
19 Cripps Street Salisbury QLD 4107Australia,Salisbury State School,yellow,0.3773812071,0.2718347867,Local,153.03214,-27.553542
School Road Samford Village QLD 4520Australia,Samford State School,yellow,0.2598962511,0.9899254789,Local,152.880758,-27.376571
41 Braun Street Deagon QLD 4017Australia,Sandgate District State High School,yellow,0.2720044936,0.3915960373,Local,153.057231,-27.329056
54 Rainbow Street Sandgate QLD 4017Australia,Sandgate State School,yellow,0.8599219897,0.8212403705,Local,153.065898,-27.320893
Robert Street Urangan QLD 4655Australia,Sandy Strait State School,yellow,0.671045185,0.9793428144,Local,152.875398,-25.300426
Anzac Street Sarina QLD 4737Australia,Sarina State High School,yellow,0.855674836,0.5379730394,Local,149.213698,-21.420889
Broad Street Sarina QLD 4737Australia,Sarina State School,yellow,0.1167251909,0.9813807334,Local,149.217461,-21.4222
Eversleigh Road Scarborough QLD 4020Australia,Scarborough State School,yellow,0.2441954666,0.681303439,Local,153.110181,-27.215112
21 Eleventh Avenue Scottville QLD 4804Australia,Scottville State School,yellow,0.2537826995,0.8527738591,Local,147.819704,-20.574187
2092 Seaforth Road Seaforth QLD 4741Australia,Seaforth State School,yellow,0.6507217311,0.5845571594,Local,148.962607,-20.92104
59 Lorikeet Street Inala QLD 4077Australia,Serviceton South State School,yellow,0.6757886202,0.1779636805,Local,152.976952,-27.605899
152 D'Arcy Road Seven Hills QLD 4170Australia,Seven Hills State School,yellow,0.9660593864,0.1533974715,Local,153.074716,-27.479447
14 Turner Road Severnlea QLD 4380Australia,Severnlea State School,yellow,0.8247704903,0.3559644276,Local,151.908733,-28.702352
Cnr Oates Avenue & Roscoe Street Holland Park QLD 4121Australia,Seville Road State School,yellow,0.07938966515,0.9857555398,Local,153.072861,-27.525584
Leaf Street Shailer Park QLD 4128Australia,Shailer Park State High School,yellow,0.2923188853,0.236639533,Local,153.186717,-27.662079
Bulwarna Street Shailer Park QLD 4128Australia,Shailer Park State School,yellow,0.2426774056,0.7067728886,Local,153.187135,-27.660299
18 Sharon School Road Sharon QLD 4670Australia,Sharon State School,yellow,0.1291406879,0.2674161312,Local,152.263391,-24.872466
464 Oxley Road Sherwood QLD 4075Australia,Sherwood State School,yellow,0.7522568467,0.5825078159,Local,152.983252,-27.531579
Yundah Street Shorncliffe QLD 4017Australia,Shorncliffe State School,yellow,0.06006203463,0.6638957521,Local,153.080955,-27.323747
Molloy Street Silkstone QLD 4304Australia,Silkstone State School,yellow,0.3138366496,0.4458833978,Local,152.784772,-27.619096
Japoon Road Silkwood QLD 4856Australia,Silkwood State School,yellow,0.8227735032,0.3531710598,Local,146.000785,-17.736444
362 Slade Point Road Slade Point QLD 4740Australia,Slade Point State School,yellow,0.6690797213,0.7193312714,Local,149.214771,-21.073937
Cnr Webster & Kitchener Roads Stafford Heights QLD 4053Australia,Somerset Hills State School,yellow,0.2011487607,0.9552599583,Local,153.019025,-27.397919
East Avenue South Johnstone QLD 4859Australia,South Johnstone State School,yellow,0.8050773047,0.8508122319,Local,145.999995,-17.593483
1 School Road Southbrook QLD 4363Australia,Southbrook Central State School,yellow,0.7077566783,0.8659201218,Local,151.704287,-27.678127
Cnr Kumbari Avenue & Smith Street Southport QLD 4215Australia,Southport Special School,yellow,0.34245108,0.7933712687,Local,153.395185,-27.960789
75 Smith Street Southport QLD 4215Australia,Southport State High School,yellow,0.2852269894,0.5832082864,Local,153.402439,-27.962811
215 Queen Street Southport QLD 4215Australia,Southport State School,yellow,0.5034808912,0.2531106911,Local,153.400777,-27.970753
Fifth Avenue Parkside QLD 4825Australia,Spinifex State College - Mount Isa Education and Training Precinct,yellow,0.8424174257,0.7805005256,Local,139.487123,-20.734863
56 Dublin Avenue Spring Mountain QLD 4300Australia,Spring Mountain State School,yellow,0.3985700057,0.3064422967,Local,152.890131,-27.686513
2327 Springbrook Road Springbrook QLD 4213Australia,Springbrook State School,yellow,0.9188700673,0.2702910372,Local,153.26454,-28.190298
90 Parkland Drive Springfield Central QLD 4300Australia,Springfield Central State High School,yellow,0.2375235333,0.6447056429,Local,152.90832,-27.691122
257 Grande Avenue Springfield Central QLD 4300Australia,Springfield Central State School,yellow,0.2798336445,0.9259386622,Local,152.906554,-27.697078
63 Springfield Lakes Boulevard Springfield Lakes QLD 4300Australia,Springfield Lakes State School,yellow,0.4715300533,0.1427159718,Local,152.922179,-27.670545
55 Eclipse Street Springsure QLD 4722Australia,Springsure State School,yellow,0.7841671948,0.8326318594,Local,148.088535,-24.115796
26-34 Dennis Road Springwood QLD 4127Australia,Springwood Central State School,yellow,0.8024004247,0.6675322503,Local,153.130916,-27.618368
94-120 Springwood Road Rochedale South QLD 4123Australia,Springwood Road State School,yellow,0.4387301787,0.4241945884,Local,153.12926,-27.60816
202 Springwood Road Springwood QLD 4127Australia,Springwood State High School,yellow,0.4575315626,0.04471225726,Local,153.135963,-27.612607
1-19 School Road Tamborine Mountain QLD 4272Australia,St Bernard State School,yellow,0.1554023279,0.1289567039,Local,153.19829,-27.97048
2 Victoria Street St George QLD 4487Australia,St George State High School,yellow,0.1222276631,0.8815477868,Local,148.592742,-28.030465
Grey Street St George QLD 4487Australia,St George State School,yellow,0.3606667203,0.09576458372,Local,148.580719,-28.037716
891 Saltwater Creek Road St Helens QLD 4650Australia,St Helens State School,yellow,0.4454245816,0.5102502889,Local,152.710558,-25.50278
Macartney Street St Lawrence QLD 4707Australia,St Lawrence State School,yellow,0.2727274733,0.9003088535,Local,149.529711,-22.344932
95 Redwood Street Stafford Heights QLD 4053Australia,Stafford Heights State School,yellow,0.09052787042,0.6587832762,Local,153.004077,-27.40193
314 Stafford Road Stafford QLD 4053Australia,Stafford State School,yellow,0.3574233374,0.7422977212,Local,153.017477,-27.410718
2 McGlew Street Stanthorpe QLD 4380Australia,Stanthorpe State High School,yellow,0.8899886648,0.583014707,Local,151.931775,-28.645691
Marsh Street Stanthorpe QLD 4380Australia,Stanthorpe State School,yellow,0.2017371284,0.5356061996,Local,151.9343,-28.64986
10 Teakle Street Stanwell QLD 4702Australia,Stanwell State School,yellow,0.7804056589,0.3010888695,Local,150.321598,-23.485269
27 Bulford Street Stonehenge QLD 4730Australia,Stonehenge State School,yellow,0.8024901493,0.4663828284,Local,143.287417,-24.350755
Don Court Strathpine QLD 4500Australia,Strathpine State School,yellow,0.8443557031,0.2593941148,Local,152.990241,-27.293907
Garbala Drive Strathpine QLD 4500Australia,Strathpine West State School,yellow,0.05784971012,0.04819703419,Local,152.969929,-27.306039
226 Illaweena Street Stretton QLD 4116Australia,Stretton State College,yellow,0.9658193823,0.2292292718,Local,153.05374,-27.639592
545 Alice Street Maryborough QLD 4650Australia,Sunbury State School,yellow,0.07056713459,0.4386622627,Local,152.6778,-25.525157
77 Symons Road Sunnybank Hills QLD 4109Australia,Sunnybank Hills State School,yellow,0.3179820869,0.4842477627,Local,153.05624,-27.5952
79 Troughton Road Sunnybank QLD 4109Australia,Sunnybank Special School,yellow,0.7244023128,0.7985707741,Local,153.048337,-27.572143
Boorman Street Sunnybank QLD 4109Australia,Sunnybank State High School,yellow,0.1453552408,0.3409857628,Local,153.059783,-27.576218
50 Eddington Street Sunnybank QLD 4109Australia,Sunnybank State School,yellow,0.8789804846,0.7724285418,Local,153.051486,-27.57569
Abel Smith Parade Sunset QLD 4825Australia,Sunset State School,yellow,0.07657630816,0.9582566102,Local,139.510351,-20.708933
45 Ben Lexcen Drive Sunshine Beach QLD 4567Australia,Sunshine Beach State High School,yellow,0.4433652284,0.7483794306,Local,153.100705,-26.410406
David Low Way Sunshine Beach QLD 4567Australia,Sunshine Beach State School,yellow,0.5099101695,0.8859204647,Local,153.102324,-26.402724
55 Robert Street Surat QLD 4417Australia,Surat State School,yellow,0.5349217323,0.4158599184,Local,149.067062,-27.154329
42 St Andrews Avenue Surfers Paradise QLD 4217Australia,Surfers Paradise State School,yellow,0.4503886964,0.2295151109,Local,153.420755,-28.011937
952 Sarina Marlborough Road Sarina QLD 4737Australia,Swayneville State School,yellow,0.9075822489,0.2809266813,Local,149.144055,-21.472625
Rae Street Kingaroy QLD 4610Australia,Taabinga State School,yellow,0.5456895592,0.4544596728,Local,151.83818,-26.556389
31 Hargrave Street Thursday Island QLD 4875Australia,Tagai State College,yellow,0.8424158979,0.2220517223,Local,142.221208,-10.581798
266 Handford Road Taigum QLD 4018Australia,Taigum State School,yellow,0.9672687772,0.7920201768,Local,153.040202,-27.347859
Talara Street Currimundi QLD 4551Australia,Talara Primary College,yellow,0.7334431323,0.8732802611,Local,153.117912,-26.772477
492 Guineas Creek Road Tallebudgera QLD 4228Australia,Tallebudgera State School,yellow,0.2139262596,0.9289523146,Local,153.429814,-28.13996
17 Recreation Street North Talwood QLD 4496Australia,Talwood State School,yellow,0.6729248005,0.6069991498,Local,149.470396,-28.486682
20 Mitchell Street Tambo QLD 4478Australia,Tambo State School,yellow,0.8768973266,0.1637130505,Local,146.253757,-24.884526
Holt Road Tamborine Mountain QLD 4272Australia,Tamborine Mountain State High School,yellow,0.4428944678,0.1551642822,Local,153.190096,-27.932894
Curtis Road Tamborine Mountain QLD 4272Australia,Tamborine Mountain State School,yellow,0.8987270261,0.4943596003,Local,153.200288,-27.9308
9019 Mount Lindesay Highway Tamrookum QLD 4285Australia,Tamrookum State School,yellow,0.4534919768,0.4556879122,Local,152.915572,-28.106476
32 Tanduringie School Road Pimpimbudgee QLD 4615Australia,Tanduringie State School,yellow,0.8825988435,0.1667308599,Local,151.795413,-26.891655
65 Coronation Drive Tannum Sands QLD 4680Australia,Tannum Sands State High School,yellow,0.3336951044,0.1397874167,Local,151.364315,-23.959627
Waratah Crescent Tannum Sands QLD 4680Australia,Tannum Sands State School,yellow,0.5644525558,0.05623242766,Local,151.364842,-23.950985
22 Binnie Street Tara QLD 4421Australia,Tara Shire State College,yellow,0.07633530463,0.1864492664,Local,150.458899,-27.279912
18 Manthey Road Tarampa QLD 4311Australia,Tarampa State School,yellow,0.647140773,0.8825239064,Local,152.546182,-27.487128
Taranganba Road Taranganba QLD 4703Australia,Taranganba State School,yellow,0.8668225676,0.6617635451,Local,150.754215,-23.154601
Wolsey Street Taroom QLD 4420Australia,Taroom State School,yellow,0.814037533,0.6636325247,Local,149.800578,-25.638957
Teelba Road Teelba QLD 4423Australia,Teelba State School,yellow,0.983793616,0.1337352067,Local,149.393939,-27.534503
90 Lower Tenthill Road Lower Tenthill QLD 4343Australia,Tent Hill Lower State School,yellow,0.8889259571,0.004494782244,Local,152.236121,-27.591555
Werin Street Tewantin QLD 4565Australia,Tewantin State School,yellow,0.4499364246,0.307280854,Local,153.032573,-26.39013
1 Flemming Street Texas QLD 4385Australia,Texas P-10 State School,yellow,0.7896569873,0.7846536905,Local,151.174251,-28.85063
270 Goodwood Road Thabeban QLD 4670Australia,Thabeban State School,yellow,0.4325335691,0.6594704806,Local,152.363668,-24.898385
15 Henry Street Thallon QLD 4497Australia,Thallon State School,yellow,0.1349842356,0.5608158215,Local,148.867758,-28.633675
2 Aerodrome Road Thangool QLD 4716Australia,Thangool State School,yellow,0.7458052837,0.3716757135,Local,150.571643,-24.491007
Dowling Street Thargomindah QLD 4492Australia,Thargomindah State School,yellow,0.1071448109,0.532199483,Local,143.826773,-27.995287
1 Barmoya Road The Caves QLD 4702Australia,The Caves State School,yellow,0.1909231145,0.6531374695,Local,150.45932,-23.176744
1020 Waterworks Road The Gap QLD 4061Australia,The Gap State High School,yellow,0.4471696653,0.2300809901,Local,152.950484,-27.445012
Cnr Waterworks & Settlement Roads The Gap QLD 4061Australia,The Gap State School,yellow,0.8846031449,0.6295675615,Local,152.944677,-27.443189
12051 Coomrith Road The Gums QLD 4406Australia,The Gums State School,yellow,0.265571192,0.1876734382,Local,150.199453,-27.341443
Murray Street Wandal QLD 4700Australia,The Hall State School,yellow,0.1734775512,0.3307502177,Local,150.496767,-23.37332
Taggart's Road The Summit QLD 4377Australia,The Summit State School,yellow,0.6879697362,0.7224484866,Local,151.955205,-28.579002
Bilberry Street Kirwan QLD 4817Australia,The Willows State School,yellow,0.2089818661,0.9527112227,Local,146.722516,-19.305133
Scrub Road Theebine QLD 4570Australia,Theebine State School,yellow,0.223385028,0.6202381334,Local,152.540973,-25.9525
The Boulevard Theodore QLD 4719Australia,Theodore State School,yellow,0.7662847233,0.4928738802,Local,150.075088,-24.946014
Panorama Drive Thornlands QLD 4164Australia,Thornlands State School,yellow,0.1423323144,0.9489304203,Local,153.264416,-27.548775
4 Thornton School Road Thornton QLD 4341Australia,Thornton State School,yellow,0.4308256055,0.06072253993,Local,152.372045,-27.798244
146 Thulimbah School Road Thulimbah QLD 4376Australia,Thulimbah State School,yellow,0.08252720275,0.4492993189,Local,151.93616,-28.536545
26 - 54 Vickers Road South Condon QLD 4815Australia,Thuringowa State High School,yellow,0.8473154048,0.6518458513,Local,146.719053,-19.336551
1 Forgan Terrace Tiaro QLD 4650Australia,Tiaro State School,yellow,0.5619171447,0.9514854587,Local,152.581126,-25.728166
Bottlebrush Lane Tieri QLD 4709Australia,Tieri State School,yellow,0.3285936838,0.9398339614,Local,148.34412,-23.030434
2 Schnapper Creek Road Tin Can Bay QLD 4580Australia,Tin Can Bay State School,yellow,0.07192175263,0.04787145391,Local,152.995063,-25.925433
239 Gympie Road Tinana QLD 4650Australia,Tinana State School,yellow,0.7555252214,0.6883547031,Local,152.667593,-25.558647
1546 Wynnum Road Tingalpa QLD 4173Australia,Tingalpa State School,yellow,0.948177963,0.8165712799,Local,153.126433,-27.473506
6 Main Street Tingoora QLD 4608Australia,Tingoora State School,yellow,0.3641581509,0.7148361172,Local,151.819548,-26.362968
108 Mount Crosby Road Tivoli QLD 4305Australia,Tivoli State School,yellow,0.2717503826,0.7344808496,Local,152.777509,-27.583961
Main Street Tolga QLD 4882Australia,Tolga State School,yellow,0.712654285,0.9475335,Local,145.477599,-17.22322
Bruce Highway Toobanna QLD 4850Australia,Toobanna State School,yellow,0.6406811213,0.04481241696,Local,146.147882,-18.712127
76 Old Mount Beppo Road Toogoolawah QLD 4313Australia,Toogoolawah State High School,yellow,0.8480420772,0.009361619682,Local,152.388355,-27.102603
Gardner Street Toogoolawah QLD 4313Australia,Toogoolawah State School,yellow,0.7699170791,0.7512626268,Local,152.379203,-27.091799
Philip Street South Gladstone QLD 4680Australia,Toolooa State High School,yellow,0.451630882,0.9347232401,Local,151.270448,-23.873238
37 St Osyth Street Toowong QLD 4066Australia,Toowong State School,yellow,0.5270676756,0.09944044155,Local,152.98928,-27.481812
Cnr Arthur & Mary Streets East Toowoomba QLD 4350Australia,Toowoomba East State School,yellow,0.531965158,0.07966753104,Local,151.965978,-27.55998
Cnr Mort & Taylor Streets Toowoomba QLD 4350Australia,Toowoomba North State School,yellow,0.1921088559,0.8759077587,Local,151.948788,-27.556538
Stuart Street Mount Lofty QLD 4350Australia,Toowoomba State High School,yellow,0.05548539728,0.02106320467,Local,151.964841,-27.545247
26 Gladstone Street Newtown QLD 4350Australia,Toowoomba West Special School,yellow,0.4410644593,0.1061619613,Local,151.940738,-27.547638
Pialba Road Torbanlea QLD 4662Australia,Torbanlea State School,yellow,0.7576025112,0.257072456,Local,152.599832,-25.347969
Tavistock Street Torquay QLD 4655Australia,Torquay State School,yellow,0.796859,0.7651164449,Local,152.864996,-25.287748
4 Warburton Street North Ward QLD 4810Australia,Townsville Central State School,yellow,0.2606806601,0.8190640783,Local,146.812035,-19.251075
78 Thompson Street Mundingburra QLD 4812Australia,Townsville Community Learning Centre - A State Special School,yellow,0.06495093778,0.9271114161,Local,146.776934,-19.303797
78 Tully Street South Townsville QLD 4810Australia,Townsville South State School,yellow,0.5404632339,0.4842047714,Local,146.82664,-19.262946
36 Boundary Street Railway Estate QLD 4810Australia,Townsville State High School,yellow,0.5770189052,0.3772141673,Local,146.810515,-19.272275
Wilson Street West End QLD 4810Australia,Townsville West State School,yellow,0.7287652428,0.1383202563,Local,146.80424,-19.267204
64-72 Clarke Street Townview QLD 4825Australia,Townview State School,yellow,0.9028877453,0.08154440937,Local,139.507323,-20.733937
71 Stone River Road Trebonne QLD 4850Australia,Trebonne State School,yellow,0.2177948426,0.9802181797,Local,146.074757,-18.63083
Tambo Road Nandowrie QLD 4722Australia,Tresswell State School,yellow,0.05904503152,0.07158656224,Local,147.606554,-24.247966
26-62 Hoare Street Manunda QLD 4870Australia,Trinity Bay State High School,yellow,0.04025554877,0.6815176411,Local,145.752404,-16.923762
O'Brien Road Smithfield QLD 4878Australia,Tropical North Learning Academy - Smithfield State High School,yellow,0.1415133488,0.2359281774,Local,145.695661,-16.811917
Wewak Street Trinity Beach QLD 4879Australia,Tropical North Learning Academy - Trinity Beach State School,yellow,0.5394197259,0.3201306309,Local,145.68952,-16.794898
Del Rosso Road Caboolture QLD 4510Australia,Tullawong State High School,yellow,0.741506789,0.2325892751,Local,152.92895,-27.070593
60-94 Smiths Road Caboolture QLD 4510Australia,Tullawong State School,yellow,0.4146532733,0.8908929049,Local,152.932706,-27.069936
59337 Bruce Highway Tully QLD 4854Australia,Tully State High School,yellow,0.4642150779,0.2360850315,Local,145.930768,-17.940106
21 Mars Street Tully QLD 4854Australia,Tully State School,yellow,0.3304100816,0.4634431786,Local,145.922141,-17.93863
288 Bruce Highway North Two Mile QLD 4570Australia,Two Mile State School,yellow,0.3642221582,0.5155893996,Local,152.642796,-26.170725
Cedarvale Road Boyne Valley QLD 4680Australia,Ubobo State School,yellow,0.4105043485,0.6053009152,Local,151.321711,-24.406782
49-57 Ogg Road Murrumba Downs QLD 4503Australia,Undurba State School,yellow,0.1354805832,0.9040455776,Local,153.008075,-27.262762
496 Upper Brookfield Road Upper Brookfield QLD 4069Australia,Upper Brookfield State School,yellow,0.1045074464,0.5171949112,Local,152.869106,-27.478017
137 Reserve Road Upper Coomera QLD 4209Australia,Upper Coomera State College,yellow,0.4494267493,0.06279418351,Local,153.296157,-27.87057
1899 Logan Road Upper Mount Gravatt QLD 4122Australia,Upper Mount Gravatt State School,yellow,0.1094056212,0.4380461141,Local,153.079941,-27.556476
Margaret Street Piturie QLD 4825Australia,Urandangi State School,yellow,0.921736283,0.07226741819,Local,138.334658,-21.601293
Miller Street Urangan QLD 4655Australia,Urangan Point State School,yellow,0.2571931188,0.2686099367,Local,152.902062,-25.291144
Robert Street Urangan QLD 4655Australia,Urangan State High School,yellow,0.806382957,0.2865239693,Local,152.876031,-25.29664
873 Drayton Connection Road Vale View QLD 4352Australia,Vale View State School,yellow,0.5378655164,0.03563445091,Local,151.897243,-27.660539
Fitzroy Developmental Road Valkyrie QLD 4742Australia,Valkyrie State School,yellow,0.6650786307,0.5778758847,Local,148.579468,-22.059465
198 Varsity Parade Varsity Lakes QLD 4227Australia,Varsity College,yellow,0.7173156644,0.7724931649,Local,153.411699,-28.078149
354 Veresdale Scrub School Road Veresdale Scrub QLD 4285Australia,Veresdale Scrub State School,yellow,0.940835261,0.06758493885,Local,153.017658,-27.921471
15 Goldsmith Street East Mackay QLD 4740Australia,Victoria Park State School,yellow,0.3309250916,0.6276018161,Local,149.19399,-21.147783
244 Forrest Beach Road Victoria Plantation QLD 4850Australia,Victoria Plantation State School,yellow,0.5763050674,0.1895831509,Local,146.201314,-18.647226
93-131 Benfer Road Victoria Point QLD 4165Australia,Victoria Point State High School,yellow,0.1861818721,0.5285307229,Local,153.287846,-27.595587
School Road Victoria Point QLD 4165Australia,Victoria Point State School,yellow,0.5607179666,0.4663982658,Local,153.295713,-27.584134
12 Heffernan Road Alexandra Hills QLD 4161Australia,Vienna Woods State School,yellow,0.8914453548,0.5275755981,Local,153.230065,-27.5279
280 Palmerston Street Vincent QLD 4814Australia,Vincent State School,yellow,0.5636501565,0.6899415226,Local,146.764202,-19.286559
1678 Sandgate Road Virginia QLD 4014Australia,Virginia State School,yellow,0.3430172977,0.03365141445,Local,153.061747,-27.383844
40 Wattle Street Walkamin QLD 4872Australia,Walkamin State School,yellow,0.6195215752,0.2945419673,Local,145.426915,-17.128205
13a Mc Coll Street Walkerston QLD 4751Australia,Walkerston State School,yellow,0.5489676017,0.4957251982,Local,149.064968,-21.158936
46a Hurst Street Walkervale QLD 4670Australia,Walkervale State School,yellow,0.1636337886,0.5855877106,Local,152.359674,-24.885174
50 Callandoon Street Wallangarra QLD 4383Australia,Wallangarra State School,yellow,0.645702667,0.7446055425,Local,151.931344,-28.918473
7 Grey Street Wallaville QLD 4671Australia,Wallaville State School,yellow,0.588724325,0.1443615003,Local,151.997171,-25.073365
Karrabin-Rosewood Road Walloon QLD 4306Australia,Walloon State School,yellow,0.4720524877,0.1227580603,Local,152.663169,-27.605673
22 High Street Wallumbilla QLD 4428Australia,Wallumbilla State School,yellow,0.8904273321,0.1681340219,Local,149.186193,-26.584369
1066-1086 D'Aguilar Highway Wamuran QLD 4512Australia,Wamuran State School,yellow,0.6056924906,0.7359172132,Local,152.861875,-27.040783
49 North Street Wandoan QLD 4419Australia,Wandoan State School P-10,yellow,0.9006945048,0.7243055804,Local,149.961469,-26.118782
55 Johnson Road Gracemere QLD 4702Australia,Waraburra State School,yellow,0.3380046434,0.6456173544,Local,150.452615,-23.448166
Robinson Street Warra QLD 4411Australia,Warra State School,yellow,0.07014414841,0.8983626445,Local,150.917662,-26.930219
314 Warrigal Road Eight Mile Plains QLD 4113Australia,Warrigal Road State School,yellow,0.6660218723,0.5883663616,Local,153.085392,-27.587017
Cunningham Highway Warrill View QLD 4307Australia,Warrill View State School,yellow,0.7534707121,0.597643081,Local,152.616082,-27.822997
585 Coast Road Baffle Creek QLD 4674Australia,Wartburg State School,yellow,0.01388846716,0.8550375801,Local,151.930549,-24.502578
Cnr Guy & Percy Streets Warwick QLD 4370Australia,Warwick Central State School,yellow,0.4764606837,0.3363795172,Local,152.029451,-28.21772
Fitzroy Street Warwick QLD 4370Australia,Warwick East State School,yellow,0.06130825796,0.293156981,Local,152.038562,-28.214791
Palmerin Street Warwick QLD 4370Australia,Warwick State High School,yellow,0.7188253698,0.6722179173,Local,152.03353,-28.210316
17 George Street Warwick QLD 4370Australia,Warwick West State School,yellow,0.7527420441,0.005114222563,Local,152.014817,-28.221121
40 Nerang Street Waterford QLD 4133Australia,Waterford State School,yellow,0.3339743386,0.09038395535,Local,153.145407,-27.69595
John Street Waterford West QLD 4133Australia,Waterford West State School,yellow,0.2886537111,0.2069274601,Local,153.131546,-27.691284
210 Watson Road Acacia Ridge QLD 4110Australia,Watson Road State School,yellow,0.8450184708,0.03889739159,Local,153.018482,-27.593107
Minore Street Wavell Heights QLD 4012Australia,Wavell Heights State School,yellow,0.6588946989,0.8850439722,Local,153.037896,-27.39007
Telopia Avenue Wavell Heights QLD 4012Australia,Wavell State High School,yellow,0.5057043959,0.5067100968,Local,153.037849,-27.397981
592 Ross River Road Thuringowa Central QLD 4817Australia,Weir State School,yellow,0.06835457535,0.3427595634,Local,146.734529,-19.315264
609 Drayton-Wellcamp Road Wellcamp QLD 4350Australia,Wellcamp State School,yellow,0.1956473335,0.006370956999,Local,151.850799,-27.553872
190 Toohey Road Tarragindi QLD 4121Australia,Wellers Hill State School,yellow,0.4262951095,0.463191559,Local,153.046321,-27.525228
2-36 Badgen Road Wellington Point QLD 4160Australia,Wellington Point State High School,yellow,0.9311423336,0.07379674953,Local,153.228851,-27.491031
476 Main Road Wellington Point QLD 4160Australia,Wellington Point State School,yellow,0.9233243704,0.5323421603,Local,153.239601,-27.491089
24 Vulture Street West End QLD 4101Australia,West End State School,yellow,0.015998959,0.4299550921,Local,153.008308,-27.480472
Central Avenue Rocky Point QLD 4874Australia,Western Cape College,yellow,0.603755691,0.7636394071,Local,141.880118,-12.626862
Glenala Road Inala QLD 4077Australia,Western Suburbs State Special School,yellow,0.6312576471,0.7627416243,Local,152.977642,-27.586882
18425 Moonie Highway Westmar QLD 4422Australia,Westmar State School,yellow,0.7561364598,0.2444460204,Local,149.719586,-27.919743
108 Herbert Street Westwood QLD 4702Australia,Westwood State School,yellow,0.9683108837,0.6820609082,Local,150.154504,-23.617343
422 Byee Road Wheatlands QLD 4606Australia,Wheatlands State School,yellow,0.8910198696,0.8853765406,Local,151.845908,-26.22419
4194 Leyburn-Cunningham Road Wheatvale QLD 4370Australia,Wheatvale State School,yellow,0.8468655011,0.7770962113,Local,151.879648,-28.165814
Progress Road White Rock QLD 4868Australia,White Rock State School,yellow,0.05259239099,0.09486580501,Local,145.743229,-16.987272
138 Burn Street Camp Hill QLD 4152Australia,Whites Hill State College,yellow,0.1273472443,0.8619805617,Local,153.082127,-27.500677
42-74 McManus Street Whitfield QLD 4870Australia,Whitfield State School,yellow,0.2195583674,0.3242828491,Local,145.728888,-16.911859
2156 Gympie-Woolooga Road Widgee QLD 4570Australia,Widgee State School,yellow,0.1267624307,0.4345578007,Local,152.443141,-26.20383
114-136 Alexander Drive Highland Park QLD 4211Australia,William Duncan State School,yellow,0.5907226166,0.3329857574,Local,153.334308,-28.012749
Mervyn Crossman Drive Annandale QLD 4814Australia,William Ross State High School,yellow,0.6776956604,0.09264878844,Local,146.800571,-19.314852
275 North Street Wilsonton Heights QLD 4350Australia,Wilsonton State High School,yellow,0.6220006325,0.008065137028,Local,151.92436,-27.537615
429 Bridge Street Wilsonton QLD 4350Australia,Wilsonton State School,yellow,0.4320364053,0.1532146577,Local,151.92214,-27.542939
Primrose Street Grange QLD 4051Australia,Wilston State School,yellow,0.7841253114,0.8401249316,Local,153.015055,-27.42893
300 Mount Warren Boulevard Mount Warren Park QLD 4207Australia,Windaroo State School,yellow,0.5041919694,0.002035683804,Local,153.195859,-27.732148
240 Beaudesert Beenleigh Road Bahrs Scrub QLD 4207Australia,Windaroo Valley State High School,yellow,0.1441078706,0.7043008637,Local,153.190116,-27.740466
2588 Gayndah - Murgon Road Windera QLD 4605Australia,Windera State School,yellow,0.5729574379,0.7650005042,Local,151.828998,-26.052838
8 Victoria Street Windorah QLD 4481Australia,Windorah State School,yellow,0.03855009113,0.4248187675,Local,142.654238,-25.420281
Harris Street Windsor QLD 4030Australia,Windsor State School,yellow,0.1168783539,0.7368272614,Local,153.029634,-27.430523
1091 Winfield Road Winfield QLD 4670Australia,Winfield State School,yellow,0.3031937912,0.7117462142,Local,152.017414,-24.545766
71 Cork Street Winton QLD 4735Australia,Winton State School,yellow,0.5448549269,0.6290150385,Local,143.03873,-22.385625
Morella Street Wishart QLD 4122Australia,Wishart State School,yellow,0.7506324277,0.4501926361,Local,153.094536,-27.549592
26 Biggs Road Withcott QLD 4352Australia,Withcott State School,yellow,0.6019015154,0.106049729,Local,152.023728,-27.559457
936 Kin Kin Road Wolvi QLD 4570Australia,Wolvi State School,yellow,0.8468993522,0.9950645646,Local,152.817628,-26.149244
32 Kent Street Wondai QLD 4606Australia,Wondai State School,yellow,0.5793882768,0.2673661469,Local,151.882125,-26.320722
Wondall Road Manly West QLD 4179Australia,Wondall Heights State School,yellow,0.8276852788,0.07858423024,Local,153.158732,-27.464146
48-74 Snapper Island Drive Wonga Beach QLD 4873Australia,Wonga Beach State School,yellow,0.5397570829,0.7022937975,Local,145.412915,-16.341964
38 Nev Smith Drive Springfield QLD 4300Australia,Woodcrest State College,yellow,0.8162278324,0.1731315123,Local,152.918473,-27.657283
171 Archer Street Woodford QLD 4514Australia,Woodford State School,yellow,0.9776165613,0.4961905613,Local,152.780676,-26.961775
6027 Mount Lindesay Highway Woodhill QLD 4285Australia,Woodhill State School,yellow,0.8574540314,0.6685704015,Local,152.973734,-27.892934
WoodLinks Way Collingwood Park QLD 4301Australia,WoodLinks State School,yellow,0.08228636638,0.09819559509,Local,152.852767,-27.630223
Arthur Street Woodridge QLD 4114Australia,Woodridge North State School,yellow,0.1667462544,0.02107294488,Local,153.106207,-27.626417
Wembley Road Logan Central QLD 4114Australia,Woodridge State High School,yellow,0.04127397682,0.274508682,Local,153.099157,-27.64332
113-131 Cnr Wembley Road & Railway Parade Logan Central QLD 4114Australia,Woodridge State School,yellow,0.3067411336,0.1095553412,Local,153.104853,-27.641503
Woodstock Avenue Woodstock QLD 4816Australia,Woodstock State School,yellow,0.6298318887,0.465829899,Local,146.835172,-19.598092
85 Georgina Street Woody Point QLD 4019Australia,Woody Point Special School,yellow,0.4518597194,0.3961921166,Local,153.10051,-27.255755
Edwards Road Woolooga QLD 4570Australia,Woolooga State School,yellow,0.6686569896,0.7435705535,Local,152.395864,-26.048394
663 Lutwyche Road Wooloowin QLD 4030Australia,Wooloowin State School,yellow,0.3778066286,0.1290758927,Local,153.0366,-27.417359
95 Pine Grove Road Woombye QLD 4559Australia,Woombye State School,yellow,0.7999577711,0.2166723537,Local,152.973825,-26.667791
468 Elliott Heads Road Woongarra QLD 4670Australia,Woongarra State School,yellow,0.3220646685,0.7479422883,Local,152.405673,-24.878923
1219 Jacobs Well Road Woongoolba QLD 4207Australia,Woongoolba State School,yellow,0.4315295913,0.1793484489,Local,153.319385,-27.745145
Carbine Street Woorabinda QLD 4713Australia,Woorabinda State School,yellow,0.4014507036,0.8579803491,Local,149.456117,-24.136539
34 Frederick Street Wooroolin QLD 4608Australia,Wooroolin State School,yellow,0.6291414551,0.5097868129,Local,151.812085,-26.40912
Rigg Street Woree QLD 4868Australia,Woree State High School,yellow,0.8440873858,0.6221009669,Local,145.741894,-16.960249
Cnr Rigg & Windarra Streets Woree QLD 4868Australia,Woree State School,yellow,0.1994529005,0.8308327621,Local,145.741352,-16.95977
Delta Cove Drive Worongary QLD 4213Australia,Worongary State School,yellow,0.8956846975,0.1886372306,Local,153.341902,-28.022744
Don Street Wowan QLD 4702Australia,Wowan State School,yellow,0.1988426363,0.7258938706,Local,150.193801,-23.910494
Edison Street Wulguru QLD 4811Australia,Wulguru State School,yellow,0.8938140341,0.8193019946,Local,146.812138,-19.324552
Moody Street Wyandra QLD 4489Australia,Wyandra State School,yellow,0.6279452487,0.8667875347,Local,145.977966,-27.245445
Peel Street Wynnum QLD 4178Australia,Wynnum State High School,yellow,0.6688967927,0.7113298529,Local,153.176607,-27.454981
81 Boxgrove Avenue Wynnum QLD 4178Australia,Wynnum State School,yellow,0.1273561834,0.2549772923,Local,153.160273,-27.441664
2036 Wynnum Road Wynnum West QLD 4178Australia,Wynnum West State School,yellow,0.1269184852,0.1180818894,Local,153.154525,-27.454913
12 High Street Wyreema QLD 4352Australia,Wyreema State School,yellow,0.07687916123,0.903621548,Local,151.85504,-27.658642
School Lane Yandaran QLD 4673Australia,Yandaran State School,yellow,0.596418441,0.2639934406,Local,152.112159,-24.724388
48 School Road Yandina QLD 4561Australia,Yandina State School,yellow,0.6188546573,0.195083867,Local,152.957922,-26.55221
King Street Yangan QLD 4371Australia,Yangan State School,yellow,0.2810940661,0.7225965445,Local,152.21555,-28.197677
Gribble Street Yarrabah QLD 4871Australia,Yarrabah State School,yellow,0.7755213475,0.8370313614,Local,145.864712,-16.905947
1 Darnell Street Yarrabilba QLD 4207Australia,Yarrabilba State School,yellow,0.9493980524,0.3804504412,Local,153.114482,-27.804362
17 John Street Yarraman QLD 4614Australia,Yarraman State School,yellow,0.0110274188,0.8099737723,Local,151.976733,-26.841542
15 Scrub Hill Road Urraween QLD 4655Australia,Yarrilee State School,yellow,0.8137955792,0.8451646077,Local,152.80461,-25.289293
35 Butler Street Yarwun QLD 4694Australia,Yarwun State School,yellow,0.3006220602,0.9500727257,Local,151.126014,-23.846792
17 Eena Street Yelarbon QLD 4388Australia,Yelarbon State School,yellow,0.4048879451,0.1723010688,Local,150.753681,-28.574386
Rawlings Street Yeppoon QLD 4703Australia,Yeppoon State High School,yellow,0.01272173958,0.8432770097,Local,150.735553,-23.134966
Tucker Street Yeppoon QLD 4703Australia,Yeppoon State School,yellow,0.1293979022,0.08379375931,Local,150.737962,-23.125355
159 Villa Street Yeronga QLD 4104Australia,Yeronga State High School,yellow,0.6839599455,0.5203163419,Local,153.0225,-27.517477
122 Park Road Yeronga QLD 4104Australia,Yeronga State School,yellow,0.11605111,0.4296243981,Local,153.019707,-27.518947
Clinton Street Yorkeys Knob QLD 4878Australia,Yorkeys Knob State School,yellow,0.07299298644,0.03681262302,Local,145.722722,-16.814268
Vansittart Road Regents Park QLD 4118Australia,Yugumbir State School,yellow,0.8996772832,0.5048461273,Local,153.049445,-27.675902
Perry Street Yuleba QLD 4427Australia,Yuleba State School,yellow,0.7157488384,0.398744403,Local,149.381988,-26.614533
4 Maple Street Yungaburra QLD 4884Australia,Yungaburra State School,yellow,0.4713935692,0.9756471949,Local,145.585798,-17.272953
Murphy Road Zillmere QLD 4034Australia,Zillmere State School,yellow,0.572969569,0.4507265613,Local,153.037355,-27.364673